{
"type": "FeatureCollection",
"name": "JBR2HR_NCA3",
"crs": { "type": "name", "properties": { "name": "urn:ogc:def:crs:OGC:1.3:CRS84" } },
"xy_coordinate_resolution": 1e-15,
"features": [
{ "type": "Feature", "properties": { "OBJECTID": 2, "Comments": "Polygonised version of JBR2HR_EN_NV_PrelimNoiseCatchmentArea_M260_MOTTM_7856_20250513", "SourceDate": 20260401.0, "Supplier": "MOTTM", "output_gdb_path": "C:\\Users\\bri86955\\Mott MacDonald\\MGO - Moata Geospatial - JBR2HR\\02Data/GDA2020MGA56/Environment & Planning.gdb", "output_feature_class": "NoiseVibration/JBR2HR_EN_NV_PreliminaryNoiseCatchmentAreas_M260_MOTTM_7856_20260401", "ECMLink_alias": "ECM Objective Link", "FSource_alias": "Feature Source", "SourceDate_alias": "Source Date", "PlanAccur_alias": "Planimetric Accuracy", "BUFF_DIST": 1000, "ORIG_FID": 2, "multi_reader_type": "FILEGDB", "NCA": "NCA 3", "filegdb_type": "geodb_polygon", "fme_feature_type": "noise_catchment_areas_polys", "multi_reader_full_id": 0, "multi_reader_id": 0, "multi_reader_keyword": "FILEGDB_1", "SHAPE_Length": 11551.915234528506, "SHAPE_Area": 7889998.196544393 }, "geometry": { "type": "MultiPolygon", "coordinates": [ [ [ [ 150.587193986843289, -35.050406885424671 ], [ 150.587268245908632, -35.050365323723653 ], [ 150.587562167503449, -35.05017655904382 ], [ 150.587833435362512, -35.050002340568923 ], [ 150.588368540956054, -35.04960973369829 ], [ 150.58887127025767, -35.049189184217916 ], [ 150.589339471036624, -35.048742494129677 ], [ 150.589771139223927, -35.048271576564382 ], [ 150.590164425695463, -35.047778448696285 ], [ 150.590304636454164, -35.047583986944687 ], [ 150.591109445279869, -35.046435148685482 ], [ 150.591338946524644, -35.04610826755232 ], [ 150.59145433504068, -35.045939766485709 ], [ 150.591561825966153, -35.045778782591483 ], [ 150.593084928492146, -35.043497628662095 ], [ 150.593187830207341, -35.043339809036681 ], [ 150.593499440798979, -35.042808672918234 ], [ 150.593768141508008, -35.042261912997127 ], [ 150.593827445179386, -35.042125459525089 ], [ 150.59459742567671, -35.040552611084046 ], [ 150.594720880518707, -35.040288530864586 ], [ 150.594945508938082, -35.039728484047956 ], [ 150.595125117841263, -35.039157553869153 ], [ 150.595258938241074, -35.038578184493026 ], [ 150.595346397448367, -35.037992856383859 ], [ 150.595387123698345, -35.037404077378739 ], [ 150.595388009038032, -35.037371405979982 ], [ 150.595388250343888, -35.037361715499728 ], [ 150.595388540832801, -35.037349674070356 ], [ 150.59542494796537, -35.035785414140335 ], [ 150.595428242661285, -35.035660815728463 ], [ 150.595428569557612, -35.035648054746453 ], [ 150.595431913874307, -35.035512750603253 ], [ 150.595424812087003, -35.034957060565766 ], [ 150.595371751810234, -35.034368945761464 ], [ 150.595272040127242, -35.03378494505764 ], [ 150.595126105614042, -35.033207558511727 ], [ 150.594934574915897, -35.032639257604956 ], [ 150.594698268556868, -35.032082477950617 ], [ 150.594542448780317, -35.031768368930898 ], [ 150.593971939034219, -35.030677458504705 ], [ 150.593847692609444, -35.030448690318245 ], [ 150.593534823373375, -35.029937965281903 ], [ 150.593513298124037, -35.029827798164249 ], [ 150.593507357972584, -35.029797721865705 ], [ 150.593058475761694, -35.027548855818061 ], [ 150.592586913057801, -35.025086569842024 ], [ 150.592558302329138, -35.024944557310434 ], [ 150.592412399122594, -35.02436716813969 ], [ 150.59234896266463, -35.024178899615428 ], [ 150.561390546770099, -35.020195190480095 ], [ 150.561297611832941, -35.020596936309524 ], [ 150.561209937140603, -35.021182232204261 ], [ 150.561168981300369, -35.021770991459334 ], [ 150.561174922110922, -35.022360693629814 ], [ 150.56122773368574, -35.022948814121833 ], [ 150.561255285474374, -35.0231412834924 ], [ 150.561336532106623, -35.02366071739624 ], [ 150.561371834466485, -35.023886405408021 ], [ 150.561443740054642, -35.024277934398171 ], [ 150.56158942288684, -35.024855351928544 ], [ 150.56178070441041, -35.025423696002377 ], [ 150.562016766952951, -35.025980530470015 ], [ 150.562296600480408, -35.026523472963859 ], [ 150.562619006906573, -35.027050196792977 ], [ 150.562982607289371, -35.027558446418617 ], [ 150.5633858448615, -35.028046045635037 ], [ 150.563826992445144, -35.028510905839099 ], [ 150.564304162005897, -35.02895103614636 ], [ 150.564659405775984, -35.029238425891862 ], [ 150.56467158109254, -35.031056996650939 ], [ 150.564680641442237, -35.031377130035132 ], [ 150.564733480138187, -35.031965249472343 ], [ 150.564832971371573, -35.032549266488118 ], [ 150.564978689480284, -35.033126680808216 ], [ 150.565170010638838, -35.033695020580865 ], [ 150.565406117005267, -35.034251849674696 ], [ 150.565685998358163, -35.034794785744914 ], [ 150.566008456406735, -35.035321502127985 ], [ 150.56637211198796, -35.035829743316896 ], [ 150.566775408098351, -35.036317333141831 ], [ 150.567216617309356, -35.036782183039797 ], [ 150.567693851322673, -35.037222302170257 ], [ 150.567917552237617, -35.037403245960157 ], [ 150.567903823770251, -35.037426633037079 ], [ 150.567634971802676, -35.037973329620279 ], [ 150.567410165392715, -35.038533318550968 ], [ 150.567230367578873, -35.03910419989186 ], [ 150.567105159687827, -35.03963801375 ], [ 150.566860375981236, -35.040882316316882 ], [ 150.566851565858855, -35.040927832687203 ], [ 150.566763900038808, -35.041513131546552 ], [ 150.56672296496825, -35.042101892098941 ], [ 150.566728938358438, -35.042691593893721 ], [ 150.566781794183925, -35.043279712338531 ], [ 150.566881308966259, -35.043863727839657 ], [ 150.567027056942976, -35.044441140129273 ], [ 150.567218414161005, -35.045009477364133 ], [ 150.567454562624562, -35.045566303423605 ], [ 150.567734491932328, -35.046109235975784 ], [ 150.568057003588393, -35.046635948372042 ], [ 150.568420718200713, -35.0471441851222 ], [ 150.568824078513103, -35.047631770075334 ], [ 150.569265356822086, -35.048096614689101 ], [ 150.56974266453372, -35.04853672814545 ], [ 150.57025395851656, -35.048950224698075 ], [ 150.570797048473253, -35.049335333745006 ], [ 150.571369608803707, -35.049690406385281 ], [ 150.571969187211266, -35.050013921009025 ], [ 150.572593216518527, -35.050304491655872 ], [ 150.573239024348084, -35.050560874527179 ], [ 150.573903842912728, -35.050781970894455 ], [ 150.574562604627147, -35.050961436618145 ], [ 150.57769520344732, -35.051725169364417 ], [ 150.577717426730885, -35.051730565973884 ], [ 150.578411670785442, -35.051878386357551 ], [ 150.579116187322001, -35.051988547485053 ], [ 150.579827959388467, -35.052060576970398 ], [ 150.580543936598588, -35.052094167696843 ], [ 150.581261052788079, -35.052089174566056 ], [ 150.581976236832674, -35.052045620124275 ], [ 150.582215043067691, -35.052018070508588 ], [ 150.582564491969606, -35.051977756848537 ], [ 150.582583967674395, -35.051877405977805 ], [ 150.582594739444232, -35.051814155177787 ], [ 150.582614560983018, -35.051697758874397 ], [ 150.582780876800086, -35.05078722380123 ], [ 150.58301059555285, -35.0495295851183 ], [ 150.583141459374332, -35.048733521253048 ], [ 150.584823496261663, -35.048936615935673 ], [ 150.584850683334139, -35.048784380391275 ], [ 150.58541939395522, -35.048853034658862 ], [ 150.585631680551643, -35.048941461242592 ], [ 150.585833179679952, -35.049025393435343 ], [ 150.585959203856135, -35.049215492390026 ], [ 150.586066709315759, -35.04937766934146 ], [ 150.586903056712714, -35.049545499654783 ], [ 150.586964164434079, -35.049715538082758 ], [ 150.587026545067488, -35.04988911571396 ], [ 150.587089059230152, -35.05006304393617 ], [ 150.587151565677374, -35.050236981890023 ], [ 150.58712208848587, -35.050339354008948 ], [ 150.587107463320308, -35.0503901488336 ], [ 150.587193986843289, -35.050406885424671 ] ] ] ] } }
]
}
