{
"type": "FeatureCollection",
"name": "JBR2HR_NCA1",
"crs": { "type": "name", "properties": { "name": "urn:ogc:def:crs:OGC:1.3:CRS84" } },
"xy_coordinate_resolution": 1e-15,
"features": [
{ "type": "Feature", "properties": { "OBJECTID": 1, "Comments": "Polygonised version of JBR2HR_EN_NV_PrelimNoiseCatchmentArea_M260_MOTTM_7856_20250513", "SourceDate": 20260401.0, "Supplier": "MOTTM", "output_gdb_path": "C:\\Users\\bri86955\\Mott MacDonald\\MGO - Moata Geospatial - JBR2HR\\02Data/GDA2020MGA56/Environment & Planning.gdb", "output_feature_class": "NoiseVibration/JBR2HR_EN_NV_PreliminaryNoiseCatchmentAreas_M260_MOTTM_7856_20260401", "ECMLink_alias": "ECM Objective Link", "FSource_alias": "Feature Source", "SourceDate_alias": "Source Date", "PlanAccur_alias": "Planimetric Accuracy", "BUFF_DIST": 1000, "ORIG_FID": 2, "multi_reader_type": "FILEGDB", "NCA": "NCA 1", "filegdb_type": "geodb_polygon", "fme_feature_type": "noise_catchment_areas_polys", "multi_reader_full_id": 0, "multi_reader_id": 0, "multi_reader_keyword": "FILEGDB_1", "SHAPE_Length": 11090.713302525905, "SHAPE_Area": 8008329.6733659422 }, "geometry": { "type": "MultiPolygon", "coordinates": [ [ [ [ 150.595272976021676, -35.006785408453467 ], [ 150.595295877881853, -35.006728272034309 ], [ 150.595475398398804, -35.006157335477816 ], [ 150.595600733942803, -35.005621571864097 ], [ 150.595718697485097, -35.005019675255063 ], [ 150.595818578601182, -35.004510034425408 ], [ 150.595996138792572, -35.003945300581407 ], [ 150.596109519992524, -35.003469223585952 ], [ 150.596398818761401, -35.00205351897494 ], [ 150.596400439615991, -35.002045564059216 ], [ 150.596857896044298, -34.99979453294673 ], [ 150.596874410672143, -34.999725906557444 ], [ 150.596997985701648, -34.999135515393192 ], [ 150.597025661808658, -34.998996833167467 ], [ 150.597027219230029, -34.998986397936157 ], [ 150.597238283392301, -34.997997449060513 ], [ 150.597272131367276, -34.997829564111676 ], [ 150.597359515493537, -34.997244228622002 ], [ 150.597400189635721, -34.996655443926976 ], [ 150.597393979195147, -34.996065730755923 ], [ 150.597340913232102, -34.995477613817734 ], [ 150.597241218138322, -34.994893612660682 ], [ 150.597234127224084, -34.99486555276593 ], [ 150.597466521412429, -34.994527585565635 ], [ 150.597777900726726, -34.993996425926078 ], [ 150.598046394227509, -34.993449644884848 ], [ 150.598270853010632, -34.992889581853305 ], [ 150.598450317089799, -34.992318637640189 ], [ 150.598540297706421, -34.991952750440639 ], [ 150.598669327958106, -34.991365782742292 ], [ 150.59866998673283, -34.991363106688055 ], [ 150.598799587300391, -34.990773531275025 ], [ 150.598800583969251, -34.990768663215306 ], [ 150.598852218563593, -34.990533754368869 ], [ 150.598915993003772, -34.990464112855484 ], [ 150.599308928489222, -34.989970937596972 ], [ 150.599661823190957, -34.989457667432212 ], [ 150.599973167460831, -34.988926500397213 ], [ 150.600241628043989, -34.988379712815536 ], [ 150.600466056177112, -34.987819644126439 ], [ 150.600645492005128, -34.987248695162791 ], [ 150.600779167280137, -34.986669310169454 ], [ 150.60086650993253, -34.986083969677146 ], [ 150.600907148693153, -34.985495181575565 ], [ 150.600900909114529, -34.984905466608595 ], [ 150.600847820380864, -34.984317349492692 ], [ 150.600748108981179, -34.983733349776841 ], [ 150.600617581963576, -34.983216822667586 ], [ 150.600617592635331, -34.982372080702859 ], [ 150.600608195928601, -34.981998710902879 ], [ 150.600555109932714, -34.981410593562458 ], [ 150.600455402921057, -34.980826593577568 ], [ 150.600309503446596, -34.980249211002658 ], [ 150.600118038001398, -34.979680917302112 ], [ 150.599881826828266, -34.979124148058673 ], [ 150.599601882238403, -34.978581284914945 ], [ 150.599279404268003, -34.978054653689597 ], [ 150.59891577344726, -34.977546508915353 ], [ 150.598512547739659, -34.977059025671913 ], [ 150.598071455105242, -34.976594291332979 ], [ 150.597594383929447, -34.976154295468895 ], [ 150.597083376660208, -34.975740922517055 ], [ 150.596540622431604, -34.975355941728509 ], [ 150.595968445207234, -34.975001000631707 ], [ 150.595369295183616, -34.974677619462135 ], [ 150.594745736991882, -34.974387182823904 ], [ 150.594100440038744, -34.974130933196328 ], [ 150.593436168744574, -34.973909968043856 ], [ 150.592755764133074, -34.973725233147874 ], [ 150.592062141762312, -34.973577518966351 ], [ 150.591358269903168, -34.973467458403611 ], [ 150.590647160906599, -34.973395523037837 ], [ 150.589931860383643, -34.973362019304155 ], [ 150.587603711762284, -34.973315764666062 ], [ 150.587445530874817, -34.97331262037617 ], [ 150.586729101258953, -34.973317678151147 ], [ 150.586014606391387, -34.973361289147881 ], [ 150.585305106256016, -34.973443268159258 ], [ 150.584603637270305, -34.9735632637097 ], [ 150.583913201255115, -34.973720761439637 ], [ 150.583236756592925, -34.973915087532319 ], [ 150.582577196302594, -34.974145410076332 ], [ 150.581937345762384, -34.974410742620947 ], [ 150.581319943932755, -34.974709950106437 ], [ 150.580727633439523, -34.975041751364259 ], [ 150.580162950549095, -34.97540472522001 ], [ 150.579628312898507, -34.975797318354154 ], [ 150.579126010586123, -34.97621785052484 ], [ 150.578658193949394, -34.976664520625796 ], [ 150.578226865611839, -34.977135416435004 ], [ 150.57783387370111, -34.977628521682512 ], [ 150.577690931547266, -34.977827022579945 ], [ 150.577678907408767, -34.977844217890265 ], [ 150.577664530909487, -34.977860142050439 ], [ 150.577499098927831, -34.97804839842906 ], [ 150.577106098094276, -34.978541500893591 ], [ 150.576836974205548, -34.978925468277538 ], [ 150.576776722505372, -34.979016534124575 ], [ 150.576692865515895, -34.979145768227731 ], [ 150.576381415188564, -34.9796768716499 ], [ 150.57611283089517, -34.98022360181109 ], [ 150.575888263308627, -34.980783620146155 ], [ 150.575721887910191, -34.981312522518749 ], [ 150.575485208227434, -34.981609463192697 ], [ 150.575132203363978, -34.982122658823229 ], [ 150.574820730741493, -34.982653757125355 ], [ 150.574770387098937, -34.982748769041102 ], [ 150.574759446051701, -34.982769746592027 ], [ 150.57474600566556, -34.982789716832151 ], [ 150.574624365560879, -34.982975554557271 ], [ 150.574312886167064, -34.98350665122036 ], [ 150.574044274323057, -34.984053375410085 ], [ 150.573819680819696, -34.984613388586929 ], [ 150.573731258809715, -34.98487530707694 ], [ 150.573674591277751, -34.985053544380307 ], [ 150.573583399800839, -34.985362527944865 ], [ 150.573493423093907, -34.985727916165686 ], [ 150.573349263722463, -34.986382617550717 ], [ 150.573200269167614, -34.987059274542659 ], [ 150.573200254009294, -34.987059342750989 ], [ 150.573051250238024, -34.987735994754516 ], [ 150.573051241457591, -34.987736032440516 ], [ 150.572804780541048, -34.988855251555684 ], [ 150.572639568043428, -34.989605496070226 ], [ 150.572520159121524, -34.990099964016295 ], [ 150.572441733520236, -34.990463524957434 ], [ 150.57235418298859, -34.991048836130361 ], [ 150.572313334970261, -34.991637605701996 ], [ 150.572311778365133, -34.991698858931755 ], [ 150.572311543386519, -34.991709889979042 ], [ 150.572308466780157, -34.991720627986957 ], [ 150.572281545727293, -34.991816917629485 ], [ 150.572147660744008, -34.992396262210505 ], [ 150.572087639943192, -34.992760400139744 ], [ 150.571751448124189, -34.995167460596036 ], [ 150.571750593115809, -34.995168294467895 ], [ 150.5715964525792, -34.995322021222471 ], [ 150.57116498082425, -34.995792884925343 ], [ 150.570771851851703, -34.996285960513596 ], [ 150.570418749732369, -34.996799137501775 ], [ 150.570107185955038, -34.997330218997568 ], [ 150.569838495891673, -34.997876929736513 ], [ 150.569613830668231, -34.998436931236903 ], [ 150.569434152717179, -34.999007823507284 ], [ 150.569310251725256, -34.999535472735438 ], [ 150.569125421278102, -35.000471640877869 ], [ 150.569125409664537, -35.000471700141823 ], [ 150.568581486792482, -35.003226645631237 ], [ 150.568577416897512, -35.003247624964736 ], [ 150.595272976021676, -35.006785408453467 ] ] ] ] } }
]
}
