{
"type": "FeatureCollection",
"name": "JBR2HR_NCA4",
"crs": { "type": "name", "properties": { "name": "urn:ogc:def:crs:OGC:1.3:CRS84" } },
"xy_coordinate_resolution": 1e-15,
"features": [
{ "type": "Feature", "properties": { "OBJECTID": 4, "Comments": "Polygonised version of JBR2HR_EN_NV_PrelimNoiseCatchmentArea_M260_MOTTM_7856_20250513", "SourceDate": 20260401.0, "Supplier": "MOTTM", "output_gdb_path": "C:\\Users\\bri86955\\Mott MacDonald\\MGO - Moata Geospatial - JBR2HR\\02Data/GDA2020MGA56/Environment & Planning.gdb", "output_feature_class": "NoiseVibration/JBR2HR_EN_NV_PreliminaryNoiseCatchmentAreas_M260_MOTTM_7856_20260401", "ECMLink_alias": "ECM Objective Link", "FSource_alias": "Feature Source", "SourceDate_alias": "Source Date", "PlanAccur_alias": "Planimetric Accuracy", "BUFF_DIST": 1000, "ORIG_FID": 2, "multi_reader_type": "FILEGDB", "NCA": "NCA 4", "filegdb_type": "geodb_polygon", "fme_feature_type": "noise_catchment_areas_polys", "multi_reader_full_id": 0, "multi_reader_id": 0, "multi_reader_keyword": "FILEGDB_1", "SHAPE_Length": 3476.0131535029573, "SHAPE_Area": 598482.10157929966 }, "geometry": { "type": "MultiPolygon", "coordinates": [ [ [ [ 150.587193986843289, -35.050406885424671 ], [ 150.587107463320308, -35.0503901488336 ], [ 150.58712208848587, -35.050339354008948 ], [ 150.587151565677374, -35.050236981890023 ], [ 150.587089059230152, -35.05006304393617 ], [ 150.587026545067488, -35.04988911571396 ], [ 150.586964164434079, -35.049715538082758 ], [ 150.586903056712714, -35.049545499654783 ], [ 150.586066709315759, -35.04937766934146 ], [ 150.585959203856135, -35.049215492390026 ], [ 150.585833179679952, -35.049025393435343 ], [ 150.585631680551643, -35.048941461242592 ], [ 150.58541939395522, -35.048853034658862 ], [ 150.584850683334139, -35.048784380391275 ], [ 150.584823496261663, -35.048936615935673 ], [ 150.583141459374332, -35.048733521253048 ], [ 150.58301059555285, -35.0495295851183 ], [ 150.582780876800086, -35.05078722380123 ], [ 150.582614560983018, -35.051697758874397 ], [ 150.582594739444232, -35.051814155177787 ], [ 150.582583967674395, -35.051877405977805 ], [ 150.582564491969606, -35.051977756848537 ], [ 150.582564570074936, -35.05197774758831 ], [ 150.582463821193471, -35.052496853588693 ], [ 150.582429461510031, -35.052673156823381 ], [ 150.58360345552677, -35.052838605322123 ], [ 150.583439961815913, -35.053664044705151 ], [ 150.583275821986518, -35.054492790908277 ], [ 150.583240378332988, -35.054671748273307 ], [ 150.583118773399832, -35.055285691771608 ], [ 150.583062460977487, -35.055569965374801 ], [ 150.582693368558267, -35.057433235896653 ], [ 150.58278602053872, -35.057504760714245 ], [ 150.583108697651824, -35.057753851679514 ], [ 150.583364287092365, -35.057811687540422 ], [ 150.583565636013731, -35.057638574719284 ], [ 150.583879276388615, -35.057807384275883 ], [ 150.584105608693335, -35.057929186415315 ], [ 150.584245921564019, -35.057807635776733 ], [ 150.584249785104049, -35.057804282703273 ], [ 150.585426810156321, -35.057794422282981 ], [ 150.58565428875508, -35.057791329837301 ], [ 150.586085715641673, -35.057574366052975 ], [ 150.586003121634946, -35.057536896544107 ], [ 150.586118631749486, -35.05737539283524 ], [ 150.58632971463939, -35.057453109576315 ], [ 150.586800216028536, -35.057216469620151 ], [ 150.587802460711799, -35.056710999773394 ], [ 150.587905976351891, -35.056218707580442 ], [ 150.587939753306216, -35.056051108205899 ], [ 150.588172027103155, -35.056161947442327 ], [ 150.588182551804977, -35.056166518985819 ], [ 150.588262465454221, -35.056201218484183 ], [ 150.588356416819181, -35.056234438413341 ], [ 150.588453299852063, -35.056261393730395 ], [ 150.58854906087123, -35.056281213217765 ], [ 150.588581287329163, -35.056285910779835 ], [ 150.588653330557548, -35.056295878728477 ], [ 150.588662867975131, -35.056296559716884 ], [ 150.588755215282163, -35.056303184057185 ], [ 150.588857485793625, -35.056303784686541 ], [ 150.588959486233165, -35.05629768920727 ], [ 150.589060573359944, -35.056284924492445 ], [ 150.589160108944327, -35.056265570703189 ], [ 150.589257440232728, -35.056239754589924 ], [ 150.589351965554584, -35.056207655304171 ], [ 150.589443084364319, -35.056169451120084 ], [ 150.589530195900124, -35.056125402342225 ], [ 150.589612772626964, -35.056075777042665 ], [ 150.589690275245857, -35.056020907965923 ], [ 150.589808687459737, -35.056119713070302 ], [ 150.589898193974619, -35.056194397257251 ], [ 150.590263415554176, -35.055887248478818 ], [ 150.590612372545593, -35.055593775018657 ], [ 150.590622429195832, -35.055571490594694 ], [ 150.590843678648667, -35.055081187999789 ], [ 150.591080166811395, -35.054557116904007 ], [ 150.591239249856983, -35.054204545935583 ], [ 150.591355952193311, -35.05394593511722 ], [ 150.591371209296113, -35.053711178159929 ], [ 150.59144342277483, -35.053483635743852 ], [ 150.591510957350977, -35.053270822178384 ], [ 150.591566731513694, -35.0530950477416 ], [ 150.591842003519162, -35.052937924045686 ], [ 150.591959076347621, -35.052871099862848 ], [ 150.592315968682129, -35.05140410034965 ], [ 150.59101260716514, -35.051150349536755 ], [ 150.590071908093506, -35.050967196329502 ], [ 150.588868609945308, -35.050732921542739 ], [ 150.588492086866012, -35.050659632927356 ], [ 150.588298797226429, -35.050621983555018 ], [ 150.588265576934475, -35.050615520960413 ], [ 150.588108779328763, -35.050584989417992 ], [ 150.587193986843289, -35.050406885424671 ] ] ] ] } }
]
}
