{
"type": "FeatureCollection",
"name": "JBR2HR_NCA2",
"crs": { "type": "name", "properties": { "name": "urn:ogc:def:crs:OGC:1.3:CRS84" } },
"xy_coordinate_resolution": 1e-15,
"features": [
{ "type": "Feature", "properties": { "OBJECTID": 3, "Comments": "Polygonised version of JBR2HR_EN_NV_PrelimNoiseCatchmentArea_M260_MOTTM_7856_20250513", "SourceDate": 20260401.0, "Supplier": "MOTTM", "output_gdb_path": "C:\\Users\\bri86955\\Mott MacDonald\\MGO - Moata Geospatial - JBR2HR\\02Data/GDA2020MGA56/Environment & Planning.gdb", "output_feature_class": "NoiseVibration/JBR2HR_EN_NV_PreliminaryNoiseCatchmentAreas_M260_MOTTM_7856_20260401", "ECMLink_alias": "ECM Objective Link", "FSource_alias": "Feature Source", "SourceDate_alias": "Source Date", "PlanAccur_alias": "Planimetric Accuracy", "BUFF_DIST": 1000, "ORIG_FID": 2, "multi_reader_type": "FILEGDB", "NCA": "NCA 2", "filegdb_type": "geodb_polygon", "fme_feature_type": "noise_catchment_areas_polys", "multi_reader_full_id": 0, "multi_reader_id": 0, "multi_reader_keyword": "FILEGDB_1", "SHAPE_Length": 9490.0736396400462, "SHAPE_Area": 4845042.0142086772 }, "geometry": { "type": "MultiPolygon", "coordinates": [ [ [ [ 150.595272976021676, -35.006785408453467 ], [ 150.568577416897512, -35.003247624964736 ], [ 150.568571478673306, -35.003278276520966 ], [ 150.568483881526078, -35.003863582082332 ], [ 150.56844299389482, -35.004452347818457 ], [ 150.568448993285159, -35.005042053256304 ], [ 150.568501853559184, -35.005630173787921 ], [ 150.5686013512165, -35.006214189810628 ], [ 150.568747060566579, -35.00679160105453 ], [ 150.568938357820372, -35.00735993568108 ], [ 150.569068828349742, -35.00768200001793 ], [ 150.569070292353786, -35.007685397222225 ], [ 150.569069098463672, -35.007688864666164 ], [ 150.568920288554438, -35.008171707379532 ], [ 150.568786346417141, -35.008751044761446 ], [ 150.568781418283919, -35.008777206521309 ], [ 150.568580293202302, -35.009855197241961 ], [ 150.568497614615893, -35.010414340212932 ], [ 150.568463788823323, -35.010831542568482 ], [ 150.568463441224793, -35.010838137915606 ], [ 150.568460332251021, -35.010844224476322 ], [ 150.568275028310921, -35.011231857567275 ], [ 150.568050310524541, -35.011791853112477 ], [ 150.56787058697924, -35.012362740277169 ], [ 150.567760194567683, -35.012823401763598 ], [ 150.567600284546984, -35.013596263450872 ], [ 150.567576718330656, -35.013714937174747 ], [ 150.567562048540509, -35.013794356620238 ], [ 150.567561703180019, -35.013796286937456 ], [ 150.567559546855904, -35.013797099185069 ], [ 150.567516294462109, -35.013813488542134 ], [ 150.566876083139903, -35.014078725375128 ], [ 150.566258323997971, -35.014377839919369 ], [ 150.565665661190479, -35.014709551404508 ], [ 150.565100632491436, -35.01507243904107 ], [ 150.564565657017368, -35.015464949879181 ], [ 150.564063026312681, -35.015885404030065 ], [ 150.563594892120364, -35.016332000722045 ], [ 150.563163258422918, -35.016802828048036 ], [ 150.562769974656049, -35.017295870032093 ], [ 150.562416725553589, -35.017809016333068 ], [ 150.562105023233585, -35.018340070190362 ], [ 150.561836203662011, -35.018886756458279 ], [ 150.561611418519618, -35.019446736760258 ], [ 150.561431630753049, -35.020017611195925 ], [ 150.561390546770099, -35.020195190480095 ], [ 150.59234896266463, -35.024178899615428 ], [ 150.592220904463716, -35.023798863786432 ], [ 150.591984638721897, -35.023242079878806 ], [ 150.591704614444268, -35.022699198121927 ], [ 150.591662570864116, -35.022626128776565 ], [ 150.591795270576824, -35.021550294571661 ], [ 150.591807308262162, -35.021446756697358 ], [ 150.591848044522663, -35.020857978111401 ], [ 150.591841882578876, -35.020268268347515 ], [ 150.591831773215091, -35.020156154999086 ], [ 150.591986400789864, -35.019962190290798 ], [ 150.592339480195704, -35.019448950841145 ], [ 150.592622767706843, -35.018969816759501 ], [ 150.592716969759579, -35.018797732888345 ], [ 150.593089426440002, -35.018117335066272 ], [ 150.593117642677669, -35.018065350212268 ], [ 150.593386254948513, -35.017518585922218 ], [ 150.593610820672325, -35.016958537503861 ], [ 150.593790379405704, -35.016387605703677 ], [ 150.593924162375487, -35.015808234693331 ], [ 150.594011597051889, -35.015222904943982 ], [ 150.594052311773595, -35.014634124299718 ], [ 150.594046131768721, -35.014044413472575 ], [ 150.593993085968407, -35.013456297161561 ], [ 150.593893400678581, -35.012872294912214 ], [ 150.593747504361119, -35.012294906788711 ], [ 150.593556023496518, -35.011726604279225 ], [ 150.593319778394715, -35.011169823004053 ], [ 150.593287976325485, -35.011108020208994 ], [ 150.593479315513605, -35.010630793401418 ], [ 150.593651024040014, -35.010088408985013 ], [ 150.59365627434741, -35.010069420023456 ], [ 150.593664231675035, -35.010051079728413 ], [ 150.593857202594165, -35.009562828010161 ], [ 150.594025510213442, -35.009032683186987 ], [ 150.594027374093855, -35.009025983475645 ], [ 150.594031854354199, -35.009020183035979 ], [ 150.594138321497695, -35.008879493749184 ], [ 150.594491335983548, -35.008366244698401 ], [ 150.59480279194338, -35.007835096713322 ], [ 150.595071355644194, -35.007288326036232 ], [ 150.595272976021676, -35.006785408453467 ] ] ] ] } }
]
}
