{
"type": "FeatureCollection",
"name": "Landscape Viewpoints",
"crs": { "type": "name", "properties": { "name": "urn:ogc:def:crs:OGC:1.3:CRS84" } },
"features": [
{ "type": "Feature", "properties": { "OBJECTID": 1, "Comments": "Converted from shapefile provided on 25/09/2025", "FSource": "SPMM delivered shapefile", "SourceDate": "25/09/2025", "Supplier": "SPMM", "output_gdb_path": "C:\\Users\\bri86955\\Mott MacDonald\\MGO - Moata Geospatial - JBR2HR\\02Data/GDA2020MGA56/Environment & Planning.gdb", "output_feature_class": "LandUseManagement/JBR2HR_EN_LD_LanscapeViewpoints_M260_SPMM_7856_20250925", "ECMLink_alias": "ECM Objective Link", "FSource_alias": "Feature Source", "SourceDate_alias": "Source Date", "PlanAccur_alias": "Planimetric Accuracy", "Viewpoint": 1, "Symbol_Rot": -34.0, "fme_feature_type": "SMM-Viewpoints", "multi_reader_full_id": 1, "multi_reader_id": 1, "multi_reader_keyword": "SHAPEFILE_2", "multi_reader_type": "SHAPEFILE", "shapefile_type": "shapefile_point" }, "geometry": { "type": "Point", "coordinates": [ 150.585564300311376, -34.991385067508865, 0.0 ] } },
{ "type": "Feature", "properties": { "OBJECTID": 2, "Comments": "Converted from shapefile provided on 25/09/2025", "FSource": "SPMM delivered shapefile", "SourceDate": "25/09/2025", "Supplier": "SPMM", "output_gdb_path": "C:\\Users\\bri86955\\Mott MacDonald\\MGO - Moata Geospatial - JBR2HR\\02Data/GDA2020MGA56/Environment & Planning.gdb", "output_feature_class": "LandUseManagement/JBR2HR_EN_LD_LanscapeViewpoints_M260_SPMM_7856_20250925", "ECMLink_alias": "ECM Objective Link", "FSource_alias": "Feature Source", "SourceDate_alias": "Source Date", "PlanAccur_alias": "Planimetric Accuracy", "Viewpoint": 2, "Symbol_Rot": -170.0, "fme_feature_type": "SMM-Viewpoints", "multi_reader_full_id": 1, "multi_reader_id": 1, "multi_reader_keyword": "SHAPEFILE_2", "multi_reader_type": "SHAPEFILE", "shapefile_type": "shapefile_point" }, "geometry": { "type": "Point", "coordinates": [ 150.584573807957497, -34.994976285632752, 0.0 ] } },
{ "type": "Feature", "properties": { "OBJECTID": 3, "Comments": "Converted from shapefile provided on 25/09/2025", "FSource": "SPMM delivered shapefile", "SourceDate": "25/09/2025", "Supplier": "SPMM", "output_gdb_path": "C:\\Users\\bri86955\\Mott MacDonald\\MGO - Moata Geospatial - JBR2HR\\02Data/GDA2020MGA56/Environment & Planning.gdb", "output_feature_class": "LandUseManagement/JBR2HR_EN_LD_LanscapeViewpoints_M260_SPMM_7856_20250925", "ECMLink_alias": "ECM Objective Link", "FSource_alias": "Feature Source", "SourceDate_alias": "Source Date", "PlanAccur_alias": "Planimetric Accuracy", "Viewpoint": 3, "Symbol_Rot": 20.0, "fme_feature_type": "SMM-Viewpoints", "multi_reader_full_id": 1, "multi_reader_id": 1, "multi_reader_keyword": "SHAPEFILE_2", "multi_reader_type": "SHAPEFILE", "shapefile_type": "shapefile_point" }, "geometry": { "type": "Point", "coordinates": [ 150.584342898049442, -34.996090175614199, 0.0 ] } },
{ "type": "Feature", "properties": { "OBJECTID": 4, "Comments": "Converted from shapefile provided on 25/09/2025", "FSource": "SPMM delivered shapefile", "SourceDate": "25/09/2025", "Supplier": "SPMM", "output_gdb_path": "C:\\Users\\bri86955\\Mott MacDonald\\MGO - Moata Geospatial - JBR2HR\\02Data/GDA2020MGA56/Environment & Planning.gdb", "output_feature_class": "LandUseManagement/JBR2HR_EN_LD_LanscapeViewpoints_M260_SPMM_7856_20250925", "ECMLink_alias": "ECM Objective Link", "FSource_alias": "Feature Source", "SourceDate_alias": "Source Date", "PlanAccur_alias": "Planimetric Accuracy", "Viewpoint": 4, "Symbol_Rot": -177.0, "fme_feature_type": "SMM-Viewpoints", "multi_reader_full_id": 1, "multi_reader_id": 1, "multi_reader_keyword": "SHAPEFILE_2", "multi_reader_type": "SHAPEFILE", "shapefile_type": "shapefile_point" }, "geometry": { "type": "Point", "coordinates": [ 150.583532838538133, -34.99993025520304, 0.0 ] } },
{ "type": "Feature", "properties": { "OBJECTID": 5, "Comments": "Converted from shapefile provided on 25/09/2025", "FSource": "SPMM delivered shapefile", "SourceDate": "25/09/2025", "Supplier": "SPMM", "output_gdb_path": "C:\\Users\\bri86955\\Mott MacDonald\\MGO - Moata Geospatial - JBR2HR\\02Data/GDA2020MGA56/Environment & Planning.gdb", "output_feature_class": "LandUseManagement/JBR2HR_EN_LD_LanscapeViewpoints_M260_SPMM_7856_20250925", "ECMLink_alias": "ECM Objective Link", "FSource_alias": "Feature Source", "SourceDate_alias": "Source Date", "PlanAccur_alias": "Planimetric Accuracy", "Viewpoint": 5, "Symbol_Rot": 70.0, "fme_feature_type": "SMM-Viewpoints", "multi_reader_full_id": 1, "multi_reader_id": 1, "multi_reader_keyword": "SHAPEFILE_2", "multi_reader_type": "SHAPEFILE", "shapefile_type": "shapefile_point" }, "geometry": { "type": "Point", "coordinates": [ 150.582373937261565, -35.001321656188509, 0.0 ] } },
{ "type": "Feature", "properties": { "OBJECTID": 6, "Comments": "Converted from shapefile provided on 25/09/2025", "FSource": "SPMM delivered shapefile", "SourceDate": "25/09/2025", "Supplier": "SPMM", "output_gdb_path": "C:\\Users\\bri86955\\Mott MacDonald\\MGO - Moata Geospatial - JBR2HR\\02Data/GDA2020MGA56/Environment & Planning.gdb", "output_feature_class": "LandUseManagement/JBR2HR_EN_LD_LanscapeViewpoints_M260_SPMM_7856_20250925", "ECMLink_alias": "ECM Objective Link", "FSource_alias": "Feature Source", "SourceDate_alias": "Source Date", "PlanAccur_alias": "Planimetric Accuracy", "Viewpoint": 6, "Symbol_Rot": -80.0, "fme_feature_type": "SMM-Viewpoints", "multi_reader_full_id": 1, "multi_reader_id": 1, "multi_reader_keyword": "SHAPEFILE_2", "multi_reader_type": "SHAPEFILE", "shapefile_type": "shapefile_point" }, "geometry": { "type": "Point", "coordinates": [ 150.584894372111137, -35.00203017045888, 0.0 ] } },
{ "type": "Feature", "properties": { "OBJECTID": 7, "Comments": "Converted from shapefile provided on 25/09/2025", "FSource": "SPMM delivered shapefile", "SourceDate": "25/09/2025", "Supplier": "SPMM", "output_gdb_path": "C:\\Users\\bri86955\\Mott MacDonald\\MGO - Moata Geospatial - JBR2HR\\02Data/GDA2020MGA56/Environment & Planning.gdb", "output_feature_class": "LandUseManagement/JBR2HR_EN_LD_LanscapeViewpoints_M260_SPMM_7856_20250925", "ECMLink_alias": "ECM Objective Link", "FSource_alias": "Feature Source", "SourceDate_alias": "Source Date", "PlanAccur_alias": "Planimetric Accuracy", "Viewpoint": 7, "Symbol_Rot": -170.0, "fme_feature_type": "SMM-Viewpoints", "multi_reader_full_id": 1, "multi_reader_id": 1, "multi_reader_keyword": "SHAPEFILE_2", "multi_reader_type": "SHAPEFILE", "shapefile_type": "shapefile_point" }, "geometry": { "type": "Point", "coordinates": [ 150.580721031493795, -35.014490157929366, 0.0 ] } },
{ "type": "Feature", "properties": { "OBJECTID": 8, "Comments": "Converted from shapefile provided on 25/09/2025", "FSource": "SPMM delivered shapefile", "SourceDate": "25/09/2025", "Supplier": "SPMM", "output_gdb_path": "C:\\Users\\bri86955\\Mott MacDonald\\MGO - Moata Geospatial - JBR2HR\\02Data/GDA2020MGA56/Environment & Planning.gdb", "output_feature_class": "LandUseManagement/JBR2HR_EN_LD_LanscapeViewpoints_M260_SPMM_7856_20250925", "ECMLink_alias": "ECM Objective Link", "FSource_alias": "Feature Source", "SourceDate_alias": "Source Date", "PlanAccur_alias": "Planimetric Accuracy", "Viewpoint": 8, "Symbol_Rot": 10.0, "fme_feature_type": "SMM-Viewpoints", "multi_reader_full_id": 1, "multi_reader_id": 1, "multi_reader_keyword": "SHAPEFILE_2", "multi_reader_type": "SHAPEFILE", "shapefile_type": "shapefile_point" }, "geometry": { "type": "Point", "coordinates": [ 150.579814539727664, -35.018623706638827, 0.0 ] } },
{ "type": "Feature", "properties": { "OBJECTID": 9, "Comments": "Converted from shapefile provided on 25/09/2025", "FSource": "SPMM delivered shapefile", "SourceDate": "25/09/2025", "Supplier": "SPMM", "output_gdb_path": "C:\\Users\\bri86955\\Mott MacDonald\\MGO - Moata Geospatial - JBR2HR\\02Data/GDA2020MGA56/Environment & Planning.gdb", "output_feature_class": "LandUseManagement/JBR2HR_EN_LD_LanscapeViewpoints_M260_SPMM_7856_20250925", "ECMLink_alias": "ECM Objective Link", "FSource_alias": "Feature Source", "SourceDate_alias": "Source Date", "PlanAccur_alias": "Planimetric Accuracy", "Viewpoint": 9, "Symbol_Rot": -178.0, "fme_feature_type": "SMM-Viewpoints", "multi_reader_full_id": 1, "multi_reader_id": 1, "multi_reader_keyword": "SHAPEFILE_2", "multi_reader_type": "SHAPEFILE", "shapefile_type": "shapefile_point" }, "geometry": { "type": "Point", "coordinates": [ 150.579124120107025, -35.02506809566151, 0.0 ] } },
{ "type": "Feature", "properties": { "OBJECTID": 10, "Comments": "Converted from shapefile provided on 25/09/2025", "FSource": "SPMM delivered shapefile", "SourceDate": "25/09/2025", "Supplier": "SPMM", "output_gdb_path": "C:\\Users\\bri86955\\Mott MacDonald\\MGO - Moata Geospatial - JBR2HR\\02Data/GDA2020MGA56/Environment & Planning.gdb", "output_feature_class": "LandUseManagement/JBR2HR_EN_LD_LanscapeViewpoints_M260_SPMM_7856_20250925", "ECMLink_alias": "ECM Objective Link", "FSource_alias": "Feature Source", "SourceDate_alias": "Source Date", "PlanAccur_alias": "Planimetric Accuracy", "Viewpoint": 10, "Symbol_Rot": -90.0, "fme_feature_type": "SMM-Viewpoints", "multi_reader_full_id": 1, "multi_reader_id": 1, "multi_reader_keyword": "SHAPEFILE_2", "multi_reader_type": "SHAPEFILE", "shapefile_type": "shapefile_point" }, "geometry": { "type": "Point", "coordinates": [ 150.579070799058854, -35.025834891726063, 0.0 ] } },
{ "type": "Feature", "properties": { "OBJECTID": 11, "Comments": "Converted from shapefile provided on 25/09/2025", "FSource": "SPMM delivered shapefile", "SourceDate": "25/09/2025", "Supplier": "SPMM", "output_gdb_path": "C:\\Users\\bri86955\\Mott MacDonald\\MGO - Moata Geospatial - JBR2HR\\02Data/GDA2020MGA56/Environment & Planning.gdb", "output_feature_class": "LandUseManagement/JBR2HR_EN_LD_LanscapeViewpoints_M260_SPMM_7856_20250925", "ECMLink_alias": "ECM Objective Link", "FSource_alias": "Feature Source", "SourceDate_alias": "Source Date", "PlanAccur_alias": "Planimetric Accuracy", "Viewpoint": 11, "Symbol_Rot": -46.700000762939453, "fme_feature_type": "SMM-Viewpoints", "multi_reader_full_id": 1, "multi_reader_id": 1, "multi_reader_keyword": "SHAPEFILE_2", "multi_reader_type": "SHAPEFILE", "shapefile_type": "shapefile_point" }, "geometry": { "type": "Point", "coordinates": [ 150.579095523763613, -35.026920758090391, 0.0 ] } },
{ "type": "Feature", "properties": { "OBJECTID": 12, "Comments": "Converted from shapefile provided on 25/09/2025", "FSource": "SPMM delivered shapefile", "SourceDate": "25/09/2025", "Supplier": "SPMM", "output_gdb_path": "C:\\Users\\bri86955\\Mott MacDonald\\MGO - Moata Geospatial - JBR2HR\\02Data/GDA2020MGA56/Environment & Planning.gdb", "output_feature_class": "LandUseManagement/JBR2HR_EN_LD_LanscapeViewpoints_M260_SPMM_7856_20250925", "ECMLink_alias": "ECM Objective Link", "FSource_alias": "Feature Source", "SourceDate_alias": "Source Date", "PlanAccur_alias": "Planimetric Accuracy", "Viewpoint": 12, "Symbol_Rot": 180.0, "fme_feature_type": "SMM-Viewpoints", "multi_reader_full_id": 1, "multi_reader_id": 1, "multi_reader_keyword": "SHAPEFILE_2", "multi_reader_type": "SHAPEFILE", "shapefile_type": "shapefile_point" }, "geometry": { "type": "Point", "coordinates": [ 150.583731281197259, -35.035962959181163, 0.0 ] } }
]
}
