{
"type": "FeatureCollection",
"name": "> 0",
"crs": { "type": "name", "properties": { "name": "urn:ogc:def:crs:OGC:1.3:CRS84" } },
"features": [
{ "type": "Feature", "properties": { "OBJECTID": 241, "gridcode": 9, "Shape_Length": 0.0021944521965604215, "Shape_Area": 1.1536505199747648e-07 }, "geometry": { "type": "MultiPolygon", "coordinates": [ [ [ [ 150.585630145000096, -34.987800171999936 ], [ 150.585629880000056, -34.987809180999932 ], [ 150.585618933000092, -34.987808962999964 ], [ 150.585619198000018, -34.987799953999968 ], [ 150.585630145000096, -34.987800171999936 ] ] ], [ [ [ 150.585582915000032, -34.987916422999945 ], [ 150.585582386000056, -34.987934441999982 ], [ 150.585571438000102, -34.987934223999957 ], [ 150.585571968000067, -34.987916204999976 ], [ 150.585582915000032, -34.987916422999945 ] ], [ [ 150.585728238000115, -34.988189754999951 ], [ 150.585727973000076, -34.988198764999936 ], [ 150.585738921000029, -34.988198982999961 ], [ 150.585739185000079, -34.988189972999976 ], [ 150.585750133000033, -34.988190190999944 ], [ 150.585751985000115, -34.988127124999949 ], [ 150.585762933000069, -34.988127342999974 ], [ 150.585764785000038, -34.988064276999978 ], [ 150.585775733000105, -34.988064494999946 ], [ 150.585777585000073, -34.988001428999951 ], [ 150.585788533000027, -34.98800164599993 ], [ 150.58579012000007, -34.987947589999976 ], [ 150.585801068000023, -34.987947807999944 ], [ 150.585801332000074, -34.987938797999959 ], [ 150.585812280000027, -34.987939015999984 ], [ 150.585812544000078, -34.987930006999932 ], [ 150.585823492000031, -34.987930223999967 ], [ 150.585825080000063, -34.987876167999957 ], [ 150.585836027000028, -34.987876385999982 ], [ 150.585837615000059, -34.987822328999982 ], [ 150.585848562000024, -34.987822546999951 ], [ 150.585849621000079, -34.987786508999932 ], [ 150.585871515000122, -34.987786944999982 ], [ 150.585872839000103, -34.987741897999967 ], [ 150.585883786000068, -34.987742114999946 ], [ 150.58588510900006, -34.987697067999932 ], [ 150.585896057000014, -34.987697285999957 ], [ 150.585897644000056, -34.987643228999957 ], [ 150.585886697000092, -34.987643011999978 ], [ 150.585886432000052, -34.987652020999974 ], [ 150.585853590000056, -34.987651367999945 ], [ 150.585853855000096, -34.98764235799996 ], [ 150.585831961000054, -34.987641922999956 ], [ 150.585832225000104, -34.98763291299997 ], [ 150.585777489000066, -34.987631823999948 ], [ 150.585777753000116, -34.987622814999952 ], [ 150.585755859000074, -34.987622378999959 ], [ 150.58575638800005, -34.987604359999978 ], [ 150.585734493000018, -34.987603924999974 ], [ 150.585734229000082, -34.987612933999969 ], [ 150.58571233400005, -34.987612497999976 ], [ 150.585712070000113, -34.987621507999961 ], [ 150.585701122000046, -34.987621289999936 ], [ 150.585701387000086, -34.98761228099994 ], [ 150.58571233400005, -34.987612497999976 ], [ 150.58571259900009, -34.98760348899998 ], [ 150.585690704000058, -34.98760305299993 ], [ 150.585690175000082, -34.987621071999968 ], [ 150.585679228000117, -34.987620853999942 ], [ 150.585678169000062, -34.987656891999961 ], [ 150.585667222000097, -34.987656673999936 ], [ 150.585666692000018, -34.987674692999974 ], [ 150.585677640000085, -34.987674910999942 ], [ 150.58567711000012, -34.98769292999998 ], [ 150.585666163000042, -34.987692711999955 ], [ 150.585666692000018, -34.987674692999974 ], [ 150.585655745000054, -34.987674474999949 ], [ 150.585655216000077, -34.98769249399993 ], [ 150.58564426800001, -34.987692275999962 ], [ 150.585643210000057, -34.98772831399998 ], [ 150.585632262000104, -34.987728095999955 ], [ 150.585631468000088, -34.987755124999978 ], [ 150.58562052100001, -34.987754906999953 ], [ 150.585619992000034, -34.987772925999934 ], [ 150.58560904400008, -34.987772707999966 ], [ 150.585607986000014, -34.987808745999985 ], [ 150.58559703800006, -34.98780852799996 ], [ 150.585596244000044, -34.987835555999936 ], [ 150.58558529700008, -34.987835337999968 ], [ 150.585584238000024, -34.98787137599993 ], [ 150.58557329100006, -34.987871157999962 ], [ 150.585572497000044, -34.987898185999939 ], [ 150.585561550000079, -34.98789796899996 ], [ 150.585559962000048, -34.98795202499997 ], [ 150.585570909000012, -34.987952242999938 ], [ 150.58556985000007, -34.987988280999957 ], [ 150.585558903000106, -34.987988062999932 ], [ 150.585559962000048, -34.98795202499997 ], [ 150.585549014000094, -34.987951806999945 ], [ 150.585547161000022, -34.988014872999941 ], [ 150.585580004000121, -34.988015526999959 ], [ 150.5855784150001, -34.988069582999969 ], [ 150.585589363000054, -34.988069800999938 ], [ 150.585589098000014, -34.98807881099998 ], [ 150.58562194000001, -34.988079463999952 ], [ 150.585621676000073, -34.988088473999937 ], [ 150.585632623000038, -34.988088690999973 ], [ 150.585632358000112, -34.988097700999958 ], [ 150.58565425300003, -34.988098135999962 ], [ 150.585653988000104, -34.988107145999948 ], [ 150.585675883000022, -34.988107581999941 ], [ 150.585675618000096, -34.988116590999937 ], [ 150.585686566000049, -34.988116808999962 ], [ 150.585684713000092, -34.988179874999958 ], [ 150.58570660800001, -34.988180309999962 ], [ 150.585706343000084, -34.988189319999947 ], [ 150.585728238000115, -34.988189754999951 ] ] ] ] } },
{ "type": "Feature", "properties": { "OBJECTID": 317, "gridcode": 9, "Shape_Length": 6.1825395578436542e-05, "Shape_Area": 1.9737797467692548e-10 }, "geometry": { "type": "MultiPolygon", "coordinates": [ [ [ [ 150.585070788000053, -34.988942921999978 ], [ 150.585092683000084, -34.988943357999972 ], [ 150.585092947000021, -34.98893434799993 ], [ 150.585071052000103, -34.988933912999983 ], [ 150.585070788000053, -34.988942921999978 ] ] ] ] } },
{ "type": "Feature", "properties": { "OBJECTID": 332, "gridcode": 9, "Shape_Length": 0.00019962553156927421, "Shape_Area": 1.0855511050170237e-09 }, "geometry": { "type": "MultiPolygon", "coordinates": [ [ [ [ 150.585135413000103, -34.988980266999931 ], [ 150.585135149000052, -34.988989275999984 ], [ 150.585146096000017, -34.988989493999952 ], [ 150.585146890000033, -34.988962465999975 ], [ 150.585135943000068, -34.98896224799995 ], [ 150.585136208000108, -34.988953238999954 ], [ 150.585114313000076, -34.988952802999961 ], [ 150.585114577000013, -34.988943792999976 ], [ 150.585092683000084, -34.988943357999972 ], [ 150.585092418000045, -34.988952366999968 ], [ 150.585103365, -34.988952584999936 ], [ 150.585103101000072, -34.988961593999932 ], [ 150.585114048000037, -34.988961811999957 ], [ 150.585113783000111, -34.988970821999942 ], [ 150.585124731000064, -34.988971039999967 ], [ 150.585124466000025, -34.988980048999963 ], [ 150.585135413000103, -34.988980266999931 ] ] ] ] } },
{ "type": "Feature", "properties": { "OBJECTID": 538, "gridcode": 9, "Shape_Length": 0.0010212843096803073, "Shape_Area": 2.1812147108681968e-08 }, "geometry": { "type": "MultiPolygon", "coordinates": [ [ [ [ 150.58363775600003, -34.997072683999932 ], [ 150.583634311000083, -34.997189806999984 ], [ 150.583645260000026, -34.997190024999952 ], [ 150.583645789000116, -34.997172005999971 ], [ 150.583656738000059, -34.997172223999939 ], [ 150.583658858000035, -34.997100148999948 ], [ 150.583669806000103, -34.997100366999973 ], [ 150.583670071000029, -34.997091356999931 ], [ 150.583659123000075, -34.997091138999963 ], [ 150.583659388000115, -34.997082129999967 ], [ 150.583670336000068, -34.997082347999935 ], [ 150.583671131000074, -34.997055319999959 ], [ 150.583682080000017, -34.997055537999984 ], [ 150.583683670000028, -34.997001480999984 ], [ 150.583694618000095, -34.997001698999952 ], [ 150.583696473000032, -34.996938632999957 ], [ 150.583707422000089, -34.996938851999971 ], [ 150.58370901100011, -34.996884794999971 ], [ 150.583719960000053, -34.99688501299994 ], [ 150.583720490000019, -34.996866993999959 ], [ 150.583665747000055, -34.996865903999947 ], [ 150.583665482000015, -34.996874913999932 ], [ 150.583654534000061, -34.996874694999974 ], [ 150.583654269000021, -34.996883704999959 ], [ 150.583643320000078, -34.996883486999934 ], [ 150.583642790000113, -34.996901505999972 ], [ 150.583631842000045, -34.996901287999947 ], [ 150.583631577000119, -34.996910296999943 ], [ 150.583620628000062, -34.996910078999974 ], [ 150.583620363000023, -34.99691908799997 ], [ 150.583609415000069, -34.996918869999945 ], [ 150.583609150000029, -34.99692787999993 ], [ 150.583598201000086, -34.996927661999962 ], [ 150.583597936000047, -34.996936670999958 ], [ 150.583576039000036, -34.996936234999964 ], [ 150.58357577400011, -34.99694524399996 ], [ 150.583564826000043, -34.996945025999935 ], [ 150.583564561000117, -34.996954035999977 ], [ 150.583542664000106, -34.996953599999983 ], [ 150.583541869000101, -34.99698062799996 ], [ 150.583563766000111, -34.996981063999954 ], [ 150.583563501000071, -34.996990072999949 ], [ 150.583574449000025, -34.996990290999975 ], [ 150.583574184000099, -34.99699930099996 ], [ 150.58359608100011, -34.996999736999953 ], [ 150.58359581600007, -34.997008745999949 ], [ 150.583606765000013, -34.997008963999974 ], [ 150.583605705000082, -34.997045001999936 ], [ 150.583616654000025, -34.997045219999961 ], [ 150.583616389000099, -34.997054228999957 ], [ 150.583627337000053, -34.997054446999982 ], [ 150.583626807000087, -34.997072465999963 ], [ 150.58363775600003, -34.997072683999932 ] ] ] ] } },
{ "type": "Feature", "properties": { "OBJECTID": 566, "gridcode": 9, "Shape_Length": 3.9929162592990067e-05, "Shape_Area": 9.8701924392747647e-11 }, "geometry": { "type": "MultiPolygon", "coordinates": [ [ [ [ 150.579863440000054, -35.002847976999931 ], [ 150.579863705000093, -35.002838967999935 ], [ 150.579852756000037, -35.002838749999967 ], [ 150.579852490000121, -35.002847758999962 ], [ 150.579863440000054, -35.002847976999931 ] ] ] ] } },
{ "type": "Feature", "properties": { "OBJECTID": 684, "gridcode": 9, "Shape_Length": 3.9929162712272641e-05, "Shape_Area": 9.8701924932333807e-11 }, "geometry": { "type": "MultiPolygon", "coordinates": [ [ [ [ 150.58210702100007, -35.004416190999962 ], [ 150.582107287000099, -35.004407181999966 ], [ 150.582096337000053, -35.004406963999941 ], [ 150.582096072000013, -35.004415972999936 ], [ 150.58210702100007, -35.004416190999962 ] ] ] ] } },
{ "type": "Feature", "properties": { "OBJECTID": 685, "gridcode": 9, "Shape_Length": 7.9859285648432068e-05, "Shape_Area": 2.9611226431376252e-10 }, "geometry": { "type": "MultiPolygon", "coordinates": [ [ [ [ 150.582107817000065, -35.004389162999985 ], [ 150.582107287000099, -35.004407181999966 ], [ 150.582118236000042, -35.004407399999934 ], [ 150.582118501000082, -35.004398390999938 ], [ 150.582129451000014, -35.004398608999963 ], [ 150.582129716000054, -35.004389599999968 ], [ 150.582107817000065, -35.004389162999985 ] ] ] ] } },
{ "type": "Feature", "properties": { "OBJECTID": 693, "gridcode": 9, "Shape_Length": 3.9930182102558746e-05, "Shape_Area": 9.8707531848524138e-11 }, "geometry": { "type": "MultiPolygon", "coordinates": [ [ [ [ 150.582095541000058, -35.004433991999974 ], [ 150.582095807000087, -35.004424982999979 ], [ 150.582084857000041, -35.004424763999964 ], [ 150.582084592000115, -35.004433773999949 ], [ 150.582095541000058, -35.004433991999974 ] ] ] ] } },
{ "type": "Feature", "properties": { "OBJECTID": 699, "gridcode": 9, "Shape_Length": 3.9930133043867209e-05, "Shape_Area": 9.870632037077144e-11 }, "geometry": { "type": "MultiPolygon", "coordinates": [ [ [ [ 150.582084327000075, -35.004442782999945 ], [ 150.582084592000115, -35.004433773999949 ], [ 150.582073642000069, -35.004433555999981 ], [ 150.582073377000029, -35.004442564999977 ], [ 150.582084327000075, -35.004442782999945 ] ] ] ] } },
{ "type": "Feature", "properties": { "OBJECTID": 713, "gridcode": 9, "Shape_Length": 0.00011591293030192238, "Shape_Area": 4.9354183650431556e-10 }, "geometry": { "type": "MultiPolygon", "coordinates": [ [ [ [ 150.582050948000074, -35.004460146999975 ], [ 150.582050152000079, -35.004487174999952 ], [ 150.582061102000011, -35.004487393999966 ], [ 150.582061632000091, -35.004469374999928 ], [ 150.582072582000023, -35.004469592999953 ], [ 150.582073112000103, -35.004451573999972 ], [ 150.582062163000046, -35.004451355999947 ], [ 150.582061897000017, -35.004460364999943 ], [ 150.582050948000074, -35.004460146999975 ] ] ] ] } },
{ "type": "Feature", "properties": { "OBJECTID": 722, "gridcode": 9, "Shape_Length": 3.9929162650940354e-05, "Shape_Area": 9.8701924711497121e-11 }, "geometry": { "type": "MultiPolygon", "coordinates": [ [ [ [ 150.582047500000044, -35.004577268999981 ], [ 150.582047765000084, -35.004568259999928 ], [ 150.582036816000027, -35.00456804199996 ], [ 150.582036550000112, -35.004577050999956 ], [ 150.582047500000044, -35.004577268999981 ] ] ] ] } },
{ "type": "Feature", "properties": { "OBJECTID": 740, "gridcode": 9, "Shape_Length": 0.0013975483416377708, "Shape_Area": 4.8464795630737957e-08 }, "geometry": { "type": "MultiPolygon", "coordinates": [ [ [ [ 150.582144189000019, -35.004642298999954 ], [ 150.582177038000054, -35.004642953999962 ], [ 150.582177303000094, -35.004633943999977 ], [ 150.582199202000083, -35.00463438099996 ], [ 150.582199467, -35.004625370999975 ], [ 150.582210417000056, -35.004625588999943 ], [ 150.582210682000095, -35.004616579999947 ], [ 150.582221631000039, -35.004616797999972 ], [ 150.582221897000068, -35.004607788999976 ], [ 150.582232846000011, -35.004608006999945 ], [ 150.58223311100005, -35.004598997999949 ], [ 150.582244061000097, -35.004599215999974 ], [ 150.582244326000023, -35.004590206999978 ], [ 150.582255276000069, -35.004590424999947 ], [ 150.582255806000035, -35.004572405999966 ], [ 150.582266756000081, -35.004572623999934 ], [ 150.582267021000121, -35.004563614999938 ], [ 150.58228892000011, -35.004564050999932 ], [ 150.582289185000036, -35.004555041999936 ], [ 150.582300135000082, -35.004555259999961 ], [ 150.582300400000122, -35.004546250999965 ], [ 150.582322299000111, -35.004546686999959 ], [ 150.582322564000037, -35.004537677999963 ], [ 150.582344463000027, -35.004538113999956 ], [ 150.582344728000066, -35.004529104999961 ], [ 150.582355678000113, -35.004529322999929 ], [ 150.582355943000039, -35.004520313999933 ], [ 150.582366893000085, -35.004520531999958 ], [ 150.582367158000011, -35.004511521999973 ], [ 150.582378107000068, -35.004511740999931 ], [ 150.582378638000023, -35.00449372199995 ], [ 150.58238958700008, -35.004493939999975 ], [ 150.582390383000075, -35.004466911999941 ], [ 150.582401332000018, -35.004467129999966 ], [ 150.582402128000012, -35.004440101999933 ], [ 150.582413077000069, -35.004440319999958 ], [ 150.582413608000024, -35.004422300999977 ], [ 150.582424557000081, -35.004422519999935 ], [ 150.582425353000076, -35.004395490999968 ], [ 150.582436302000019, -35.004395709999983 ], [ 150.582436833000088, -35.004377690999945 ], [ 150.582382085000063, -35.004376599999944 ], [ 150.582381555000097, -35.004394618999982 ], [ 150.582348706000062, -35.004393963999973 ], [ 150.582348971000101, -35.004384954999978 ], [ 150.582338022000044, -35.004384735999963 ], [ 150.582337492000079, -35.004402754999944 ], [ 150.582260845000064, -35.004401227999949 ], [ 150.582260580000025, -35.004410236999945 ], [ 150.582238681000035, -35.004409800999952 ], [ 150.58223815000008, -35.004427818999943 ], [ 150.582216251000091, -35.00442738299995 ], [ 150.582215721000011, -35.004445401999931 ], [ 150.582204771000079, -35.004445183999962 ], [ 150.582205037000108, -35.004436173999977 ], [ 150.582194087000062, -35.004435955999952 ], [ 150.582193557000096, -35.004453974999933 ], [ 150.58216070800006, -35.004453319999982 ], [ 150.582160178000095, -35.004471338999963 ], [ 150.582138279000105, -35.00447090199998 ], [ 150.582138809000071, -35.004452883999932 ], [ 150.582127860000014, -35.004452664999974 ], [ 150.582128125000054, -35.004443655999978 ], [ 150.582117175000121, -35.004443437999953 ], [ 150.582116910000082, -35.004452446999949 ], [ 150.582105961000025, -35.00445222899998 ], [ 150.58210543000007, -35.004470247999961 ], [ 150.58208353100008, -35.004469810999979 ], [ 150.582083266000041, -35.004478820999964 ], [ 150.582072316000108, -35.004478601999949 ], [ 150.582071521000103, -35.004505630999972 ], [ 150.582093420000092, -35.004506066999966 ], [ 150.582093154000063, -35.004515075999961 ], [ 150.582104104000109, -35.004515294999976 ], [ 150.582103839000069, -35.004524303999972 ], [ 150.582114788000013, -35.00452452199994 ], [ 150.582114523000087, -35.004533531999982 ], [ 150.582136422000076, -35.004533967999976 ], [ 150.58213589200011, -35.004551986999957 ], [ 150.582124942000064, -35.004551768999931 ], [ 150.582124147000059, -35.004578796999965 ], [ 150.582113197000012, -35.00457857899994 ], [ 150.582111871000052, -35.004623624999965 ], [ 150.582122820000109, -35.00462384399998 ], [ 150.582122555000069, -35.004632852999976 ], [ 150.582144454000058, -35.004633289999958 ], [ 150.582144189000019, -35.004642298999954 ] ] ] ] } },
{ "type": "Feature", "properties": { "OBJECTID": 757, "gridcode": 9, "Shape_Length": 3.9929162710009627e-05, "Shape_Area": 9.8701924917241871e-11 }, "geometry": { "type": "MultiPolygon", "coordinates": [ [ [ [ 150.582336772000076, -35.004799385999945 ], [ 150.582337038000105, -35.004790376999949 ], [ 150.582326088000059, -35.004790158999981 ], [ 150.582325823000019, -35.004799167999977 ], [ 150.582336772000076, -35.004799385999945 ] ] ] ] } },
{ "type": "Feature", "properties": { "OBJECTID": 806, "gridcode": 9, "Shape_Length": 0.0012581787195969419, "Shape_Area": 2.8921067899368591e-08 }, "geometry": { "type": "MultiPolygon", "coordinates": [ [ [ [ 150.582753199000081, -35.005168270999945 ], [ 150.582796998000049, -35.005169143999979 ], [ 150.582797263000089, -35.005160133999937 ], [ 150.582830112000011, -35.005160788999945 ], [ 150.582830907000016, -35.005133760999968 ], [ 150.582841857000062, -35.005133978999936 ], [ 150.582843978000028, -35.005061903999945 ], [ 150.582854927000085, -35.00506212199997 ], [ 150.58285545800004, -35.005044102999932 ], [ 150.582866407000097, -35.005044320999957 ], [ 150.582867998000097, -35.004990264999947 ], [ 150.58285704900004, -35.004990046999978 ], [ 150.58285757900012, -35.004972027999941 ], [ 150.582868529000052, -35.004972245999966 ], [ 150.582869059000018, -35.004954226999985 ], [ 150.582858109000085, -35.00495400899996 ], [ 150.58285890500008, -35.004926980999983 ], [ 150.582869854000023, -35.004927198999951 ], [ 150.582874892000063, -35.004756020999935 ], [ 150.582863942000017, -35.004755802999966 ], [ 150.582866063000097, -35.004683727999975 ], [ 150.58285511400004, -35.00468350999995 ], [ 150.582854584000074, -35.004701527999941 ], [ 150.582843634000028, -35.004701309999973 ], [ 150.582842043000028, -35.004755365999983 ], [ 150.582831094000085, -35.004755147999958 ], [ 150.582829238000045, -35.004818213999954 ], [ 150.582818288000112, -35.004817995999929 ], [ 150.582816697000112, -35.004872051999939 ], [ 150.582805748000055, -35.004871833999971 ], [ 150.582803892000015, -35.004934899999967 ], [ 150.582792942000083, -35.004934681999941 ], [ 150.582792147000077, -35.004961709999975 ], [ 150.582803096000021, -35.004961927999943 ], [ 150.582802831000095, -35.004970936999939 ], [ 150.582791881000048, -35.004970718999971 ], [ 150.582791086000043, -35.004997746999948 ], [ 150.58278013600011, -35.004997528999979 ], [ 150.58277828000007, -35.005060594999975 ], [ 150.582767331000014, -35.00506037699995 ], [ 150.582765475000087, -35.005123441999956 ], [ 150.582754525000041, -35.005123223999931 ], [ 150.582753199000081, -35.005168270999945 ] ] ] ] } },
{ "type": "Feature", "properties": { "OBJECTID": 1249, "gridcode": 9, "Shape_Length": 6.1836521411641953e-05, "Shape_Area": 1.9742844555256938e-10 }, "geometry": { "type": "MultiPolygon", "coordinates": [ [ [ [ 150.581395510000107, -35.009603469999945 ], [ 150.581417411000075, -35.009603905999938 ], [ 150.581417676000115, -35.009594896999943 ], [ 150.581395776000022, -35.00959445999996 ], [ 150.581395510000107, -35.009603469999945 ] ] ] ] } },
{ "type": "Feature", "properties": { "OBJECTID": 1279, "gridcode": 9, "Shape_Length": 3.993115243641605e-05, "Shape_Area": 9.8711927302025299e-11 }, "geometry": { "type": "MultiPolygon", "coordinates": [ [ [ [ 150.581886412000017, -35.009676358999968 ], [ 150.581886677000057, -35.009667348999983 ], [ 150.581875727000011, -35.009667130999958 ], [ 150.581875462000085, -35.009676139999954 ], [ 150.581886412000017, -35.009676358999968 ] ] ] ] } },
{ "type": "Feature", "properties": { "OBJECTID": 1334, "gridcode": 9, "Shape_Length": 0.00015584906181525837, "Shape_Area": 1.1845533046891794e-09 }, "geometry": { "type": "MultiPolygon", "coordinates": [ [ [ [ 150.581357087000015, -35.009792011999934 ], [ 150.581378988000097, -35.009792447999985 ], [ 150.581379518000062, -35.009774428999947 ], [ 150.581390469000098, -35.009774647999961 ], [ 150.581390999000064, -35.00975662899998 ], [ 150.581380049000018, -35.009756410999955 ], [ 150.581380314000057, -35.00974740099997 ], [ 150.581358414000078, -35.009746964999977 ], [ 150.581357087000015, -35.009792011999934 ] ] ] ] } },
{ "type": "Feature", "properties": { "OBJECTID": 1346, "gridcode": 9, "Shape_Length": 0.0019525322638444197, "Shape_Area": 5.3501932265542655e-08 }, "geometry": { "type": "MultiPolygon", "coordinates": [ [ [ [ 150.582003873000076, -35.00940825999993 ], [ 150.582003607000047, -35.009417269999972 ], [ 150.581992657000114, -35.009417050999957 ], [ 150.58199292200004, -35.009408041999961 ], [ 150.582003873000076, -35.00940825999993 ] ], [ [ 150.58179562700002, -35.00978272499998 ], [ 150.58179403500003, -35.009836780999933 ], [ 150.581804985000076, -35.009836998999958 ], [ 150.581805250000116, -35.009827989999962 ], [ 150.581816201000038, -35.009828207999931 ], [ 150.581816466000078, -35.009819198999935 ], [ 150.58182741600001, -35.00981941699996 ], [ 150.58182768100005, -35.009810407999964 ], [ 150.581838632000085, -35.009810625999933 ], [ 150.581839162000051, -35.009792606999952 ], [ 150.581850112000097, -35.009792825999966 ], [ 150.581852500000082, -35.009711740999933 ], [ 150.581841550000036, -35.009711522999964 ], [ 150.58184234600003, -35.009684494999931 ], [ 150.581831396000098, -35.009684276999963 ], [ 150.581831661000024, -35.009675266999977 ], [ 150.58184261100007, -35.009675485999935 ], [ 150.581843407000065, -35.009648456999969 ], [ 150.581854357000111, -35.009648675999983 ], [ 150.581854092000071, -35.009657684999979 ], [ 150.581865042000118, -35.009657902999948 ], [ 150.581865573000073, -35.009639884999956 ], [ 150.581887473000052, -35.009640320999949 ], [ 150.581887208000012, -35.009649330999935 ], [ 150.581876258000079, -35.009649111999977 ], [ 150.58187599200005, -35.009658121999962 ], [ 150.581897893000018, -35.009658557999956 ], [ 150.581897362000063, -35.009676576999937 ], [ 150.581886412000017, -35.009676358999968 ], [ 150.581886147000091, -35.009685367999964 ], [ 150.581918997000116, -35.009686022999972 ], [ 150.581918732000076, -35.009695031999968 ], [ 150.581929682, -35.009695250999982 ], [ 150.581929417000083, -35.009704259999978 ], [ 150.581951317000062, -35.009704695999972 ], [ 150.581952113000057, -35.009677667999938 ], [ 150.581974014000025, -35.009678104999978 ], [ 150.58197480900003, -35.009651076999944 ], [ 150.581963859000098, -35.009650857999929 ], [ 150.581964655000093, -35.009623829999953 ], [ 150.581953705000046, -35.009623611999984 ], [ 150.581953970000086, -35.009614602999932 ], [ 150.581964920000019, -35.009614820999957 ], [ 150.581965716000013, -35.00958779299998 ], [ 150.58197666600006, -35.009588010999948 ], [ 150.58197799300001, -35.009542963999934 ], [ 150.581988943000056, -35.009543182999948 ], [ 150.581989474000011, -35.009525163999967 ], [ 150.582000424000057, -35.009525381999936 ], [ 150.582001750000018, -35.009480334999978 ], [ 150.582012700000064, -35.009480552999946 ], [ 150.582013231000019, -35.009462534999955 ], [ 150.582002281000086, -35.00946231599994 ], [ 150.582002546000012, -35.009453306999944 ], [ 150.581980646000034, -35.009452869999961 ], [ 150.581981176000113, -35.00943485199997 ], [ 150.582003077000081, -35.009435287999963 ], [ 150.582003342000121, -35.009426278999968 ], [ 150.582014292000054, -35.009426496999936 ], [ 150.582015619000117, -35.009381449999978 ], [ 150.58202656900005, -35.009381668999936 ], [ 150.582026834000089, -35.009372658999951 ], [ 150.582004934000111, -35.009372222999957 ], [ 150.582004668000081, -35.009381231999953 ], [ 150.581993718000035, -35.009381013999985 ], [ 150.581993453000109, -35.00939002299998 ], [ 150.582004403000042, -35.009390240999949 ], [ 150.582004138000116, -35.009399250999934 ], [ 150.581982237000034, -35.009398813999951 ], [ 150.581982768000103, -35.009380795999959 ], [ 150.58196086800001, -35.009380358999977 ], [ 150.58196113300005, -35.009371349999981 ], [ 150.581939233000071, -35.009370912999941 ], [ 150.581939498000111, -35.009361903999945 ], [ 150.581917598000018, -35.009361466999962 ], [ 150.581917332000103, -35.009370476999948 ], [ 150.581906382000057, -35.009370257999933 ], [ 150.581906647000096, -35.009361248999937 ], [ 150.581873797000071, -35.009360593999929 ], [ 150.581874062000111, -35.009351584999933 ], [ 150.581863112000065, -35.009351365999976 ], [ 150.581861255000035, -35.009414431999971 ], [ 150.581850305000103, -35.009414213999946 ], [ 150.581848448000073, -35.009477278999952 ], [ 150.581837498000027, -35.009477060999984 ], [ 150.581835640000122, -35.00954012699998 ], [ 150.581824690000076, -35.009539907999965 ], [ 150.581822833000047, -35.009602973999961 ], [ 150.581811883000114, -35.009602755999936 ], [ 150.581810026000085, -35.009665820999942 ], [ 150.581799076000038, -35.009665602999974 ], [ 150.581798280000044, -35.00969263099995 ], [ 150.58180923000009, -35.009692848999975 ], [ 150.58180896500005, -35.009701858999961 ], [ 150.581798014000015, -35.009701640999936 ], [ 150.581797749000089, -35.009710649999931 ], [ 150.581819650000057, -35.009711086999971 ], [ 150.581819384000028, -35.009720095999967 ], [ 150.581808434000095, -35.009719877999942 ], [ 150.581806577000066, -35.009782942999948 ], [ 150.58179562700002, -35.00978272499998 ] ] ] ] } },
{ "type": "Feature", "properties": { "OBJECTID": 1348, "gridcode": 9, "Shape_Length": 7.5983777403373806e-05, "Shape_Area": 2.9613012623055263e-10 }, "geometry": { "type": "MultiPolygon", "coordinates": [ [ [ [ 150.581367507000095, -35.009810248999941 ], [ 150.581366711000101, -35.009837276999974 ], [ 150.581377661000033, -35.009837494999942 ], [ 150.581378457000028, -35.009810466999966 ], [ 150.581367507000095, -35.009810248999941 ] ] ] ] } },
{ "type": "Feature", "properties": { "OBJECTID": 1368, "gridcode": 9, "Shape_Length": 5.7957974944829202e-05, "Shape_Area": 1.9742749804779232e-10 }, "geometry": { "type": "MultiPolygon", "coordinates": [ [ [ [ 150.58135496400007, -35.009864086999983 ], [ 150.581354434000104, -35.009882104999974 ], [ 150.581365384000037, -35.009882323999932 ], [ 150.581365915000106, -35.009864304999951 ], [ 150.58135496400007, -35.009864086999983 ] ] ] ] } },
{ "type": "Feature", "properties": { "OBJECTID": 1406, "gridcode": 9, "Shape_Length": 9.4012599259176929e-05, "Shape_Area": 3.9486552737411199e-10 }, "geometry": { "type": "MultiPolygon", "coordinates": [ [ [ [ 150.581341891000079, -35.009935942999959 ], [ 150.581340830000045, -35.009971980999978 ], [ 150.581351780000091, -35.009972198999947 ], [ 150.581352842000115, -35.009936160999985 ], [ 150.581341891000079, -35.009935942999959 ] ] ] ] } },
{ "type": "Feature", "properties": { "OBJECTID": 1570, "gridcode": 9, "Shape_Length": 0.001605949390067439, "Shape_Area": 1.2339147771196583e-08 }, "geometry": { "type": "MultiPolygon", "coordinates": [ [ [ [ 150.581290660000036, -35.01018733199993 ], [ 150.58129039500011, -35.010196341999972 ], [ 150.581279445000064, -35.010196122999957 ], [ 150.581279710000103, -35.010187113999962 ], [ 150.581290660000036, -35.01018733199993 ] ] ], [ [ [ 150.581277587000045, -35.010259188999953 ], [ 150.581277322000119, -35.010268197999949 ], [ 150.581266371000083, -35.010267979999981 ], [ 150.581266637000112, -35.010258969999938 ], [ 150.581277587000045, -35.010259188999953 ] ] ], [ [ [ 150.58127705600009, -35.010277207999934 ], [ 150.581276525000021, -35.010295225999982 ], [ 150.581265575000089, -35.010295007999957 ], [ 150.581266106000044, -35.010276988999976 ], [ 150.58127705600009, -35.010277207999934 ] ] ], [ [ [ 150.58126504400002, -35.010313026999938 ], [ 150.581264779000094, -35.010322035999934 ], [ 150.581253829000048, -35.010321817999966 ], [ 150.581254094000087, -35.010312807999981 ], [ 150.58126504400002, -35.010313026999938 ] ] ], [ [ [ 150.581264514000054, -35.01033104499993 ], [ 150.581263718000059, -35.010358073999953 ], [ 150.581252767000024, -35.010357854999938 ], [ 150.581253563000018, -35.010330826999962 ], [ 150.581264514000054, -35.01033104499993 ] ], [ [ 150.581239429000107, -35.010438720999957 ], [ 150.581238633000112, -35.010465748999934 ], [ 150.581249583000044, -35.010465967999949 ], [ 150.581250644000079, -35.01042992999993 ], [ 150.581261595000115, -35.010430147999955 ], [ 150.581262656000035, -35.010394110999982 ], [ 150.581273606000082, -35.010394328999951 ], [ 150.581275199000061, -35.01034027299994 ], [ 150.581286149000107, -35.010340490999965 ], [ 150.581286945000102, -35.010313462999932 ], [ 150.581297895000034, -35.010313681999946 ], [ 150.581300018000093, -35.010241606999955 ], [ 150.581310969000015, -35.01024182499998 ], [ 150.581314418000034, -35.010124702999974 ], [ 150.581325369000069, -35.010124921999932 ], [ 150.58132669500003, -35.010079874999974 ], [ 150.581337646000065, -35.010080092999942 ], [ 150.58134029900009, -35.00998999899997 ], [ 150.581329349000043, -35.009989780999945 ], [ 150.581327491000025, -35.01005284699994 ], [ 150.581316541000092, -35.010052627999983 ], [ 150.581315214000028, -35.01009767499994 ], [ 150.581304264000096, -35.010097456999972 ], [ 150.581304529000022, -35.01008844699993 ], [ 150.581293579000089, -35.010088228999962 ], [ 150.5812919870001, -35.010142284999972 ], [ 150.581302937000032, -35.01014250399993 ], [ 150.581302141000037, -35.010169531999964 ], [ 150.581291191000105, -35.010169312999949 ], [ 150.581290926000065, -35.010178322999934 ], [ 150.581269025000097, -35.010177885999951 ], [ 150.581267964000062, -35.01021392399997 ], [ 150.581278914000109, -35.010214141999938 ], [ 150.581279179000035, -35.010205132999943 ], [ 150.581290129000081, -35.010205350999968 ], [ 150.581289333000086, -35.010232378999945 ], [ 150.58127838300004, -35.010232160999976 ], [ 150.581277852000085, -35.010250178999968 ], [ 150.581255952000106, -35.010249742999974 ], [ 150.581254625000042, -35.010294789999932 ], [ 150.58124367500011, -35.010294570999974 ], [ 150.581242082000017, -35.010348626999985 ], [ 150.581231132000084, -35.01034840899996 ], [ 150.581229805000021, -35.010393455999974 ], [ 150.581240756000057, -35.010393673999943 ], [ 150.581241286000022, -35.010375655999951 ], [ 150.581252237000058, -35.010375873999976 ], [ 150.581250910000108, -35.010420920999934 ], [ 150.581239959000072, -35.010420701999976 ], [ 150.581240225000101, -35.01041169299998 ], [ 150.581229274000066, -35.010411474999955 ], [ 150.581228478000071, -35.010438502999932 ], [ 150.581239429000107, -35.010438720999957 ] ] ] ] } },
{ "type": "Feature", "properties": { "OBJECTID": 1597, "gridcode": 9, "Shape_Length": 5.7957974946901695e-05, "Shape_Area": 1.9742749807794776e-10 }, "geometry": { "type": "MultiPolygon", "coordinates": [ [ [ [ 150.581204720000073, -35.010501131999945 ], [ 150.581204189000118, -35.010519149999936 ], [ 150.58121514000004, -35.010519368999951 ], [ 150.58121567000012, -35.01050134999997 ], [ 150.581204720000073, -35.010501131999945 ] ] ] ] } },
{ "type": "Feature", "properties": { "OBJECTID": 1598, "gridcode": 9, "Shape_Length": 0.00013394180180319035, "Shape_Area": 5.9226979494833293e-10 }, "geometry": { "type": "MultiPolygon", "coordinates": [ [ [ [ 150.581226886000081, -35.010492558999943 ], [ 150.581226090000087, -35.010519586999976 ], [ 150.581237040000019, -35.010519804999944 ], [ 150.581238367000083, -35.010474758999976 ], [ 150.581227417000036, -35.010474539999962 ], [ 150.581227151000121, -35.010483549999947 ], [ 150.581216201000075, -35.010483330999932 ], [ 150.581215936000035, -35.010492340999974 ], [ 150.581226886000081, -35.010492558999943 ] ] ] ] } },
{ "type": "Feature", "properties": { "OBJECTID": 1618, "gridcode": 9, "Shape_Length": 3.9930191899662345e-05, "Shape_Area": 9.8706538162717974e-11 }, "geometry": { "type": "MultiPolygon", "coordinates": [ [ [ [ 150.581202862000055, -35.010564196999951 ], [ 150.581203128000084, -35.010555187999955 ], [ 150.581192178000038, -35.01055496999993 ], [ 150.581191912000122, -35.010563978999983 ], [ 150.581202862000055, -35.010564196999951 ] ] ] ] } },
{ "type": "Feature", "properties": { "OBJECTID": 1625, "gridcode": 9, "Shape_Length": 9.7890165838926114e-05, "Shape_Area": 3.9484777147374963e-10 }, "geometry": { "type": "MultiPolygon", "coordinates": [ [ [ [ 150.581214344000045, -35.010546396999985 ], [ 150.58121381300009, -35.010564415999966 ], [ 150.581224763000023, -35.010564633999934 ], [ 150.581225559000018, -35.010537605999957 ], [ 150.581203659000039, -35.010537168999974 ], [ 150.58120339300001, -35.010546178999959 ], [ 150.581214344000045, -35.010546396999985 ] ] ] ] } },
{ "type": "Feature", "properties": { "OBJECTID": 1653, "gridcode": 9, "Shape_Length": 5.7957974944639988e-05, "Shape_Area": 1.9742749804779232e-10 }, "geometry": { "type": "MultiPolygon", "coordinates": [ [ [ [ 150.58120206600006, -35.010591224999985 ], [ 150.581201536000094, -35.010609243999966 ], [ 150.581212486000027, -35.010609461999934 ], [ 150.581213017000096, -35.010591443999942 ], [ 150.58120206600006, -35.010591224999985 ] ] ] ] } },
{ "type": "Feature", "properties": { "OBJECTID": 1729, "gridcode": 9, "Shape_Length": 3.9931162067559718e-05, "Shape_Area": 9.8710932812851087e-11 }, "geometry": { "type": "MultiPolygon", "coordinates": [ [ [ [ 150.581175389, -35.010752956999966 ], [ 150.581175654000049, -35.01074394799997 ], [ 150.581164704000116, -35.010743729999945 ], [ 150.581164438000087, -35.01075273899994 ], [ 150.581175389, -35.010752956999966 ] ] ] ] } },
{ "type": "Feature", "properties": { "OBJECTID": 1730, "gridcode": 9, "Shape_Length": 7.5985777213354424e-05, "Shape_Area": 2.9615715701745374e-10 }, "geometry": { "type": "MultiPolygon", "coordinates": [ [ [ [ 150.581176450000044, -35.010716919999936 ], [ 150.581175654000049, -35.01074394799997 ], [ 150.581186605000084, -35.010744165999938 ], [ 150.581187401000079, -35.010717137999961 ], [ 150.581176450000044, -35.010716919999936 ] ] ] ] } },
{ "type": "Feature", "properties": { "OBJECTID": 1736, "gridcode": 9, "Shape_Length": 3.9932181681895307e-05, "Shape_Area": 9.8716541253235563e-11 }, "geometry": { "type": "MultiPolygon", "coordinates": [ [ [ [ 150.581186074000016, -35.010762184999976 ], [ 150.581186339000055, -35.01075317599998 ], [ 150.581175389, -35.010752956999966 ], [ 150.581175123000094, -35.010761966999951 ], [ 150.581186074000016, -35.010762184999976 ] ] ] ] } },
{ "type": "Feature", "properties": { "OBJECTID": 1750, "gridcode": 9, "Shape_Length": 3.993115255342281e-05, "Shape_Area": 9.8711927826576352e-11 }, "geometry": { "type": "MultiPolygon", "coordinates": [ [ [ [ 150.581185543000061, -35.010780203999957 ], [ 150.5811858080001, -35.010771193999972 ], [ 150.581174858000054, -35.010770975999947 ], [ 150.581174593000014, -35.010779984999942 ], [ 150.581185543000061, -35.010780203999957 ] ] ] ] } },
{ "type": "Feature", "properties": { "OBJECTID": 1813, "gridcode": 9, "Shape_Length": 3.9932181681072676e-05, "Shape_Area": 9.871654123814364e-11 }, "geometry": { "type": "MultiPolygon", "coordinates": [ [ [ [ 150.581105440000101, -35.010895796999932 ], [ 150.581105706000017, -35.010886787999937 ], [ 150.581094755000095, -35.010886568999979 ], [ 150.581094490000055, -35.010895578999964 ], [ 150.581105440000101, -35.010895796999932 ] ] ] ] } },
{ "type": "Feature", "properties": { "OBJECTID": 1818, "gridcode": 9, "Shape_Length": 0.00043788097012269071, "Shape_Area": 5.527978490196447e-09 }, "geometry": { "type": "MultiPolygon", "coordinates": [ [ [ [ 150.581127341000069, -35.010896233999972 ], [ 150.581149242000038, -35.010896669999966 ], [ 150.581150834000027, -35.010842613999955 ], [ 150.581161785000063, -35.01084283299997 ], [ 150.581162581000058, -35.010815804999936 ], [ 150.581173531000104, -35.010816022999961 ], [ 150.581174593000014, -35.010779984999942 ], [ 150.581163642000092, -35.010779766999974 ], [ 150.581164438000087, -35.01075273899994 ], [ 150.581153488000041, -35.010752520999972 ], [ 150.581152957000086, -35.010770538999964 ], [ 150.581142007000039, -35.010770320999939 ], [ 150.581141211000045, -35.010797348999972 ], [ 150.581119310000076, -35.010796911999932 ], [ 150.581118779000121, -35.01081493099997 ], [ 150.581107829000075, -35.010814712999945 ], [ 150.581105706000017, -35.010886787999937 ], [ 150.581116656000063, -35.010887005999962 ], [ 150.581116922000092, -35.010877996999966 ], [ 150.581127872000025, -35.010878214999934 ], [ 150.581127341000069, -35.010896233999972 ] ] ] ] } },
{ "type": "Feature", "properties": { "OBJECTID": 1827, "gridcode": 9, "Shape_Length": 5.7958024201436336e-05, "Shape_Area": 1.9742433962319105e-10 }, "geometry": { "type": "MultiPolygon", "coordinates": [ [ [ [ 150.581116391000023, -35.010896014999958 ], [ 150.581115860000068, -35.010914033999939 ], [ 150.581126810000114, -35.010914252999953 ], [ 150.581127341000069, -35.010896233999972 ], [ 150.581116391000023, -35.010896014999958 ] ] ] ] } },
{ "type": "Feature", "properties": { "OBJECTID": 1902, "gridcode": 9, "Shape_Length": 3.9931162175605974e-05, "Shape_Area": 9.8710933297469648e-11 }, "geometry": { "type": "MultiPolygon", "coordinates": [ [ [ [ 150.581122564000111, -35.011058401999946 ], [ 150.581122830000027, -35.011049392999951 ], [ 150.581111879000105, -35.011049174999982 ], [ 150.581111614000065, -35.011058183999978 ], [ 150.581122564000111, -35.011058401999946 ] ] ] ] } },
{ "type": "Feature", "properties": { "OBJECTID": 1915, "gridcode": 9, "Shape_Length": 3.9932181739035547e-05, "Shape_Area": 9.8716541556921535e-11 }, "geometry": { "type": "MultiPolygon", "coordinates": [ [ [ [ 150.581122033000042, -35.011076420999984 ], [ 150.581122299000072, -35.011067411999932 ], [ 150.581111348000036, -35.011067192999974 ], [ 150.58111108300011, -35.011076202999959 ], [ 150.581122033000042, -35.011076420999984 ] ] ] ] } },
{ "type": "Feature", "properties": { "OBJECTID": 2002, "gridcode": 9, "Shape_Length": 0.00050747659524086612, "Shape_Area": 3.6524189500883815e-09 }, "geometry": { "type": "MultiPolygon", "coordinates": [ [ [ [ 150.581110021000086, -35.011112239999932 ], [ 150.581109756000046, -35.011121249999974 ], [ 150.581098806000114, -35.011121030999959 ], [ 150.58109907100004, -35.011112021999963 ], [ 150.581110021000086, -35.011112239999932 ] ] ], [ [ [ 150.581098009000016, -35.011148058999936 ], [ 150.58109774400009, -35.011157068999978 ], [ 150.581086794000043, -35.011156849999963 ], [ 150.581087059000083, -35.011147840999968 ], [ 150.581098009000016, -35.011148058999936 ] ], [ [ 150.581085997000059, -35.01118387799994 ], [ 150.581107898000027, -35.01118431499998 ], [ 150.581108960000051, -35.011148277999951 ], [ 150.581119910000098, -35.011148495999976 ], [ 150.581121768000116, -35.01108542999998 ], [ 150.58111081800007, -35.011085211999955 ], [ 150.581110287000115, -35.011103230999936 ], [ 150.581088386000033, -35.011102793999953 ], [ 150.581088917000102, -35.011084774999972 ], [ 150.581077966000066, -35.011084556999947 ], [ 150.581077701000027, -35.011093565999943 ], [ 150.581066751000094, -35.011093347999974 ], [ 150.581066485000065, -35.01110235699997 ], [ 150.581077436000101, -35.011102575999985 ], [ 150.581076905000032, -35.011120594999966 ], [ 150.58106595400011, -35.011120375999951 ], [ 150.58106568900007, -35.011129385999936 ], [ 150.581076639000116, -35.011129603999962 ], [ 150.581076109000037, -35.011147622999943 ], [ 150.581065158000115, -35.011147403999985 ], [ 150.58106436200012, -35.011174431999962 ], [ 150.581086263000088, -35.011174868999944 ], [ 150.581086528000014, -35.011165859999949 ], [ 150.58109747900005, -35.011166077999974 ], [ 150.581097213000021, -35.01117508699997 ], [ 150.581086263000088, -35.011174868999944 ], [ 150.581085997000059, -35.01118387799994 ] ] ] ] } },
{ "type": "Feature", "properties": { "OBJECTID": 2090, "gridcode": 9, "Shape_Length": 0.00024985574260270898, "Shape_Area": 1.9742704461374584e-09 }, "geometry": { "type": "MultiPolygon", "coordinates": [ [ [ [ 150.581061177000038, -35.011282544999972 ], [ 150.581060116000117, -35.011318581999944 ], [ 150.58107106600005, -35.011318800999959 ], [ 150.581071331000089, -35.011309790999974 ], [ 150.581082282000011, -35.011310009999931 ], [ 150.58108281300008, -35.01129199099995 ], [ 150.581093763000013, -35.011292208999976 ], [ 150.581094028000052, -35.01128319999998 ], [ 150.58108307800012, -35.011282980999965 ], [ 150.581083874000115, -35.011255952999932 ], [ 150.581072924000068, -35.011255734999963 ], [ 150.581073189000108, -35.011246725999968 ], [ 150.581062239000062, -35.011246506999953 ], [ 150.581062504000101, -35.011237497999957 ], [ 150.581051554000055, -35.011237279999932 ], [ 150.581050227000105, -35.011282325999957 ], [ 150.581061177000038, -35.011282544999972 ] ] ] ] } },
{ "type": "Feature", "properties": { "OBJECTID": 2099, "gridcode": 9, "Shape_Length": 5.7959983946158876e-05, "Shape_Area": 1.9744182775921226e-10 }, "geometry": { "type": "MultiPolygon", "coordinates": [ [ [ [ 150.581049165000081, -35.011318363999976 ], [ 150.581048634000012, -35.011336382999957 ], [ 150.581059585000048, -35.011336600999982 ], [ 150.581060116000117, -35.011318581999944 ], [ 150.581049165000081, -35.011318363999976 ] ] ] ] } },
{ "type": "Feature", "properties": { "OBJECTID": 2570, "gridcode": 9, "Shape_Length": 0.00013782136788692965, "Shape_Area": 5.9228463099956494e-10 }, "geometry": { "type": "MultiPolygon", "coordinates": [ [ [ [ 150.580623959000036, -35.012734199999954 ], [ 150.580623428000081, -35.012752218999935 ], [ 150.580634378000013, -35.012752436999961 ], [ 150.580634909000082, -35.01273441799998 ], [ 150.580645860000118, -35.012734636999937 ], [ 150.580646125000044, -35.012725626999952 ], [ 150.580635175000111, -35.012725408999984 ], [ 150.580635440000037, -35.012716399999931 ], [ 150.580624490000105, -35.012716180999973 ], [ 150.580624224000076, -35.012725189999969 ], [ 150.580613274000029, -35.012724971999944 ], [ 150.580613008000114, -35.01273398099994 ], [ 150.580623959000036, -35.012734199999954 ] ] ] ] } },
{ "type": "Feature", "properties": { "OBJECTID": 2796, "gridcode": 9, "Shape_Length": 0.0003979549251025434, "Shape_Area": 3.4550998924572326e-09 }, "geometry": { "type": "MultiPolygon", "coordinates": [ [ [ [ 150.580558056000086, -35.013111500999969 ], [ 150.580557790000057, -35.013120509999965 ], [ 150.580568741000093, -35.013120728999979 ], [ 150.580569007000122, -35.013111718999937 ], [ 150.580579957000054, -35.013111937999952 ], [ 150.58058048800001, -35.013093918999971 ], [ 150.580591439000045, -35.013094136999939 ], [ 150.580594890000043, -35.012977015999979 ], [ 150.580583939000121, -35.012976796999965 ], [ 150.580582877000097, -35.013012834999984 ], [ 150.580571927000051, -35.013012615999969 ], [ 150.580571396000096, -35.01303063499995 ], [ 150.58056044500006, -35.013030416999982 ], [ 150.58056018000002, -35.013039425999978 ], [ 150.580571130000067, -35.013039643999946 ], [ 150.580570865000027, -35.013048653999931 ], [ 150.580559914000105, -35.013048434999973 ], [ 150.580558587000041, -35.013093481999931 ], [ 150.580547636000119, -35.013093263999963 ], [ 150.580547105000051, -35.013111282999944 ], [ 150.580558056000086, -35.013111500999969 ] ] ] ] } },
{ "type": "Feature", "properties": { "OBJECTID": 2855, "gridcode": 9, "Shape_Length": 3.9931162175618577e-05, "Shape_Area": 9.8710933297469648e-11 }, "geometry": { "type": "MultiPolygon", "coordinates": [ [ [ [ 150.580641148000041, -35.013266406999946 ], [ 150.58064141400007, -35.013257397999951 ], [ 150.580630463000034, -35.013257179999982 ], [ 150.580630198000108, -35.013266188999978 ], [ 150.580641148000041, -35.013266406999946 ] ] ] ] } },
{ "type": "Feature", "properties": { "OBJECTID": 2868, "gridcode": 9, "Shape_Length": 3.9932181856042151e-05, "Shape_Area": 9.8716542081472602e-11 }, "geometry": { "type": "MultiPolygon", "coordinates": [ [ [ [ 150.580640617000086, -35.013284425999984 ], [ 150.580640883000115, -35.013275416999932 ], [ 150.580629932000079, -35.013275197999974 ], [ 150.580629667000039, -35.013284207999959 ], [ 150.580640617000086, -35.013284425999984 ] ] ] ] } },
{ "type": "Feature", "properties": { "OBJECTID": 3064, "gridcode": 9, "Shape_Length": 0.00095085646473897227, "Shape_Area": 7.2064876164647936e-09 }, "geometry": { "type": "MultiPolygon", "coordinates": [ [ [ [ 150.579213817000095, -35.014851553999961 ], [ 150.579279522000093, -35.014852864999966 ], [ 150.579279787000019, -35.01484385599997 ], [ 150.57925788600005, -35.014843418999931 ], [ 150.57925815100009, -35.014834408999945 ], [ 150.579247200000054, -35.014834190999977 ], [ 150.579247466000083, -35.014825180999935 ], [ 150.57921461300009, -35.014824525999984 ], [ 150.57921434800005, -35.01483353499998 ], [ 150.579170544000021, -35.014832660999957 ], [ 150.57917107600008, -35.014814641999976 ], [ 150.579149174000122, -35.014814204999936 ], [ 150.579148908000093, -35.014823214999979 ], [ 150.579137957000057, -35.014822995999964 ], [ 150.579138223000086, -35.014813986999968 ], [ 150.579094420000047, -35.014813111999956 ], [ 150.579094685000086, -35.01480410299996 ], [ 150.579018029000054, -35.01480257299994 ], [ 150.579018295000083, -35.014793563999945 ], [ 150.57894163900005, -35.014792033999981 ], [ 150.578941904000089, -35.014783024999929 ], [ 150.578887150000014, -35.014781931999948 ], [ 150.578886884000099, -35.014790940999944 ], [ 150.578897835000021, -35.014791159999959 ], [ 150.578897570000095, -35.014800168999955 ], [ 150.578941373000021, -35.014801042999977 ], [ 150.578941107000105, -35.014810052999962 ], [ 150.579017763000024, -35.014811582999982 ], [ 150.579017498000098, -35.014820591999978 ], [ 150.57907225200006, -35.014821684999959 ], [ 150.579071986000031, -35.014830693999954 ], [ 150.579126741000096, -35.014831786999935 ], [ 150.579126475000066, -35.01484079599993 ], [ 150.579214082000021, -35.014842544999965 ], [ 150.579213817000095, -35.014851553999961 ] ] ] ] } },
{ "type": "Feature", "properties": { "OBJECTID": 3097, "gridcode": 9, "Shape_Length": 0.00074594418545836114, "Shape_Area": 5.7256068399913212e-09 }, "geometry": { "type": "MultiPolygon", "coordinates": [ [ [ [ 150.579299033000098, -35.014934385999936 ], [ 150.579298767000068, -35.014943395999978 ], [ 150.579309718000104, -35.014943613999947 ], [ 150.57930998400002, -35.014934604999951 ], [ 150.579320935000055, -35.014934822999976 ], [ 150.579321200000095, -35.01492581399998 ], [ 150.579343102000053, -35.014926250999963 ], [ 150.579343633000121, -35.014908231999982 ], [ 150.579332682000086, -35.014908013999957 ], [ 150.579332948000115, -35.014899004999961 ], [ 150.579311046000043, -35.014898566999932 ], [ 150.579311312000073, -35.014889557999936 ], [ 150.579267508000044, -35.01488868399997 ], [ 150.579267774000073, -35.014879674999975 ], [ 150.579125413000042, -35.014876833999949 ], [ 150.579125678000082, -35.014867823999964 ], [ 150.579114727000047, -35.014867605999939 ], [ 150.579114462000121, -35.014876614999935 ], [ 150.579103511000085, -35.014876395999977 ], [ 150.579103776000011, -35.014867386999981 ], [ 150.579092826000078, -35.014867168999956 ], [ 150.57909229400002, -35.014885186999948 ], [ 150.579114196000091, -35.01488562399993 ], [ 150.579113930000062, -35.014894633999972 ], [ 150.579146783000056, -35.01489528899998 ], [ 150.579147049000085, -35.014886279999985 ], [ 150.57915800000012, -35.014886498999942 ], [ 150.579157734000091, -35.014895507999938 ], [ 150.579234390000011, -35.014897037999958 ], [ 150.579234124000095, -35.014906046999954 ], [ 150.579299830000082, -35.014907357999959 ], [ 150.579299298000024, -35.01492537699994 ], [ 150.579277397000055, -35.014924939999958 ], [ 150.579276865000111, -35.014942958999939 ], [ 150.579287816000033, -35.014943176999964 ], [ 150.579288082000062, -35.014934167999968 ], [ 150.579299033000098, -35.014934385999936 ] ] ] ] } },
{ "type": "Feature", "properties": { "OBJECTID": 3156, "gridcode": 9, "Shape_Length": 0.00078199878108696789, "Shape_Area": 6.120516036206206e-09 }, "geometry": { "type": "MultiPolygon", "coordinates": [ [ [ [ 150.579790229000082, -35.014998275999972 ], [ 150.579877837000026, -35.01500002299997 ], [ 150.579878102000066, -35.014991013999975 ], [ 150.579856200000108, -35.014990576999935 ], [ 150.579856466000024, -35.014981567999939 ], [ 150.579845515000102, -35.014981348999981 ], [ 150.579845781000017, -35.014972339999929 ], [ 150.579834830000095, -35.014972120999971 ], [ 150.579834564000066, -35.014981130999956 ], [ 150.57982361300003, -35.014980911999942 ], [ 150.57982387900006, -35.014971902999946 ], [ 150.579801977000102, -35.014971465999963 ], [ 150.579802243000017, -35.014962456999967 ], [ 150.579791292000095, -35.014962237999953 ], [ 150.579791026000066, -35.014971246999949 ], [ 150.579780075000031, -35.01497102899998 ], [ 150.57978034100006, -35.014962019999984 ], [ 150.579769390000024, -35.01496180099997 ], [ 150.579769124000109, -35.014970809999966 ], [ 150.579758173000073, -35.014970591999941 ], [ 150.579758439000102, -35.014961582999945 ], [ 150.579736537000031, -35.014961145999962 ], [ 150.57973680300006, -35.014952135999977 ], [ 150.579725852000024, -35.014951917999952 ], [ 150.579725586000109, -35.014960926999947 ], [ 150.579714635000073, -35.014960708999979 ], [ 150.579714901000102, -35.014951698999937 ], [ 150.579703950000066, -35.014951480999969 ], [ 150.579703685000027, -35.014960489999964 ], [ 150.579692734000105, -35.014960271999939 ], [ 150.579692999000031, -35.014951261999954 ], [ 150.579649196000105, -35.014950387999932 ], [ 150.579649461000031, -35.014941378999936 ], [ 150.579638510000109, -35.014941159999978 ], [ 150.579638245000069, -35.014950169999963 ], [ 150.579627294000034, -35.014949950999949 ], [ 150.579627560000063, -35.014940941999953 ], [ 150.579605658000105, -35.01494050499997 ], [ 150.579605392000076, -35.014949513999966 ], [ 150.579616343000112, -35.01494973299998 ], [ 150.579615812000043, -35.014967750999972 ], [ 150.57968151700004, -35.014969061999977 ], [ 150.579681252000114, -35.014978071999963 ], [ 150.579703153000082, -35.014978508999945 ], [ 150.579702888000043, -35.014987517999941 ], [ 150.579713839000078, -35.014987736999956 ], [ 150.579714104000118, -35.014978726999971 ], [ 150.57972505500004, -35.014978945999928 ], [ 150.579724790000114, -35.014987954999981 ], [ 150.579790495000111, -35.01498926599993 ], [ 150.579790229000082, -35.014998275999972 ] ] ] ] } },
{ "type": "Feature", "properties": { "OBJECTID": 3157, "gridcode": 9, "Shape_Length": 3.9933152017246907e-05, "Shape_Area": 9.8720936706736724e-11 }, "geometry": { "type": "MultiPolygon", "coordinates": [ [ [ [ 150.579910424000104, -35.015009687999964 ], [ 150.57991068900003, -35.015000678999968 ], [ 150.579899738000108, -35.015000459999953 ], [ 150.579899473000069, -35.015009469999939 ], [ 150.579910424000104, -35.015009687999964 ] ] ] ] } },
{ "type": "Feature", "properties": { "OBJECTID": 3224, "gridcode": 9, "Shape_Length": 3.9933152017247069e-05, "Shape_Area": 9.8720936706736724e-11 }, "geometry": { "type": "MultiPolygon", "coordinates": [ [ [ [ 150.579961992000108, -35.015118892999965 ], [ 150.579962257000034, -35.01510988299998 ], [ 150.579951306000112, -35.015109664999954 ], [ 150.579951041000072, -35.01511867399995 ], [ 150.579961992000108, -35.015118892999965 ] ] ] ] } },
{ "type": "Feature", "properties": { "OBJECTID": 3229, "gridcode": 9, "Shape_Length": 0.0010008260083705831, "Shape_Area": 2.0829653372357924e-08 }, "geometry": { "type": "MultiPolygon", "coordinates": [ [ [ [ 150.580531705000112, -35.015121242999953 ], [ 150.580531439000083, -35.015130251999949 ], [ 150.580542390000119, -35.015130470999964 ], [ 150.580542656000034, -35.015121460999978 ], [ 150.58055360700007, -35.015121679999936 ], [ 150.580554403000065, -35.015094651999959 ], [ 150.5805653540001, -35.015094869999984 ], [ 150.580565620000016, -35.015085860999932 ], [ 150.580576571000051, -35.015086078999957 ], [ 150.58057710200012, -35.015068060999965 ], [ 150.580588052000053, -35.015068278999934 ], [ 150.580589380000106, -35.015023231999976 ], [ 150.580600331000028, -35.015023450999934 ], [ 150.580600862000097, -35.015005431999953 ], [ 150.580622764000054, -35.015005868999936 ], [ 150.580623029000094, -35.01499685899995 ], [ 150.580644931000052, -35.014997295999933 ], [ 150.580645196000091, -35.014988286999937 ], [ 150.580699951000042, -35.014989378999928 ], [ 150.580700216000082, -35.014980369999932 ], [ 150.58072211800004, -35.014980805999983 ], [ 150.580722384000069, -35.01497179699993 ], [ 150.580733335000104, -35.014972014999955 ], [ 150.58073360000003, -35.014963005999959 ], [ 150.580722649000109, -35.014962787999934 ], [ 150.580722915000024, -35.014953777999949 ], [ 150.580711964000102, -35.014953559999981 ], [ 150.580712229000028, -35.014944549999939 ], [ 150.580701278000106, -35.01494433199997 ], [ 150.580701809000061, -35.014926312999933 ], [ 150.580690858000025, -35.014926094999964 ], [ 150.580691124000055, -35.014917085999969 ], [ 150.58070207500009, -35.014917303999937 ], [ 150.580703137000114, -35.014881266999964 ], [ 150.580692186000078, -35.01488104799995 ], [ 150.580692451000118, -35.014872038999954 ], [ 150.580659599000114, -35.014871383999946 ], [ 150.58065986400004, -35.014862373999961 ], [ 150.580648913000118, -35.014862155999936 ], [ 150.580648648000079, -35.014871164999931 ], [ 150.580615795000085, -35.01487050999998 ], [ 150.580615264000016, -35.014888528999961 ], [ 150.580604313000094, -35.014888309999947 ], [ 150.580603782000026, -35.014906328999984 ], [ 150.580592831000104, -35.014906110999959 ], [ 150.580592300000035, -35.014924128999951 ], [ 150.580581349000113, -35.014923910999983 ], [ 150.580581084000073, -35.014932919999978 ], [ 150.580570133000037, -35.014932701999953 ], [ 150.580569602000082, -35.014950719999945 ], [ 150.580558651000047, -35.014950501999976 ], [ 150.580558386000121, -35.014959510999972 ], [ 150.580569336000053, -35.01495972999993 ], [ 150.580568806000088, -35.014977748999968 ], [ 150.580557855000052, -35.014977529999953 ], [ 150.580557058000068, -35.01500455799993 ], [ 150.580546107000032, -35.015004339999962 ], [ 150.580544780000082, -35.015049386999976 ], [ 150.580533829000046, -35.015049167999962 ], [ 150.580531970000038, -35.015112233999957 ], [ 150.580521019000116, -35.015112014999943 ], [ 150.580520754000077, -35.015121024999985 ], [ 150.580531705000112, -35.015121242999953 ] ] ] ] } },
{ "type": "Feature", "properties": { "OBJECTID": 3252, "gridcode": 9, "Shape_Length": 0.00010565128902860523, "Shape_Area": 3.9486272010821367e-10 }, "geometry": { "type": "MultiPolygon", "coordinates": [ [ [ [ 150.580081389000043, -35.015157332999934 ], [ 150.580125193000072, -35.015158206999956 ], [ 150.580125459000101, -35.015149197999961 ], [ 150.580081655000072, -35.015148323999938 ], [ 150.580081389000043, -35.015157332999934 ] ] ] ] } },
{ "type": "Feature", "properties": { "OBJECTID": 3276, "gridcode": 9, "Shape_Length": 6.1840510929317725e-05, "Shape_Area": 1.9745282533173652e-10 }, "geometry": { "type": "MultiPolygon", "coordinates": [ [ [ [ 150.579947854000011, -35.01522678699996 ], [ 150.579969756000082, -35.015227223999943 ], [ 150.579970021000122, -35.015218213999958 ], [ 150.579948119000051, -35.015217776999975 ], [ 150.579947854000011, -35.01522678699996 ] ] ] ] } },
{ "type": "Feature", "properties": { "OBJECTID": 3280, "gridcode": 9, "Shape_Length": 0.00018163804571544895, "Shape_Area": 7.8973719115487793e-10 }, "geometry": { "type": "MultiPolygon", "coordinates": [ [ [ [ 150.580024245000118, -35.01523732499993 ], [ 150.580023979000089, -35.015246334999972 ], [ 150.580034930000011, -35.01524655299994 ], [ 150.58003546100008, -35.015228533999959 ], [ 150.580013559000122, -35.015228096999977 ], [ 150.580013825000037, -35.015219087999981 ], [ 150.580002874000115, -35.015218869999956 ], [ 150.580002609000076, -35.015227878999951 ], [ 150.57999165800004, -35.015227660999983 ], [ 150.57999192300008, -35.015218650999941 ], [ 150.579980972000044, -35.015218432999973 ], [ 150.579980441000089, -35.015236450999964 ], [ 150.580024245000118, -35.01523732499993 ] ] ] ] } },
{ "type": "Feature", "properties": { "OBJECTID": 3296, "gridcode": 9, "Shape_Length": 0.00024735813213403948, "Shape_Area": 1.0859338608534329e-09 }, "geometry": { "type": "MultiPolygon", "coordinates": [ [ [ [ 150.579967366000119, -35.015308307999931 ], [ 150.580011169000045, -35.015309181999953 ], [ 150.580011435000074, -35.015300171999968 ], [ 150.580000484000038, -35.015299953999943 ], [ 150.580000750000067, -35.015290943999958 ], [ 150.579989799000032, -35.015290725999932 ], [ 150.579989533000116, -35.015299734999928 ], [ 150.579978582000081, -35.01529951699996 ], [ 150.57997884800011, -35.015290506999975 ], [ 150.579924093000045, -35.015289414999984 ], [ 150.57992356200009, -35.015307433999965 ], [ 150.579934513000012, -35.015307651999933 ], [ 150.579934778000052, -35.015298642999937 ], [ 150.579967631000045, -35.015299297999945 ], [ 150.579967366000119, -35.015308307999931 ] ] ] ] } },
{ "type": "Feature", "properties": { "OBJECTID": 3505, "gridcode": 9, "Shape_Length": 3.9934181319908287e-05, "Shape_Area": 9.8725550961661382e-11 }, "geometry": { "type": "MultiPolygon", "coordinates": [ [ [ [ 150.580074458000013, -35.018366409999942 ], [ 150.580074724000042, -35.018357400999946 ], [ 150.580063772000017, -35.018357181999932 ], [ 150.580063507000091, -35.018366191999974 ], [ 150.580074458000013, -35.018366409999942 ] ] ] ] } },
{ "type": "Feature", "properties": { "OBJECTID": 3530, "gridcode": 9, "Shape_Length": 7.9867343173199465e-05, "Shape_Area": 2.9616664941248405e-10 }, "geometry": { "type": "MultiPolygon", "coordinates": [ [ [ [ 150.580051759000071, -35.018393000999936 ], [ 150.580051227000013, -35.018411019999974 ], [ 150.580062179000038, -35.018411237999942 ], [ 150.580062444000077, -35.018402228999946 ], [ 150.580073396000103, -35.018402446999971 ], [ 150.580073661000029, -35.018393437999976 ], [ 150.580051759000071, -35.018393000999936 ] ] ] ] } },
{ "type": "Feature", "properties": { "OBJECTID": 3545, "gridcode": 9, "Shape_Length": 0.00029368150666383823, "Shape_Area": 2.9616672527746067e-09 }, "geometry": { "type": "MultiPolygon", "coordinates": [ [ [ [ 150.580193064000014, -35.018431878999934 ], [ 150.580247821000057, -35.018432970999982 ], [ 150.580248086000097, -35.018423961999929 ], [ 150.580259038000122, -35.018424179999954 ], [ 150.580259303000048, -35.018415170999958 ], [ 150.580248352000012, -35.018414951999944 ], [ 150.580249414000036, -35.018378914999971 ], [ 150.580238463000114, -35.018378696999946 ], [ 150.58023872800004, -35.018369686999961 ], [ 150.580227777000118, -35.018369468999936 ], [ 150.580228308000073, -35.018351449999955 ], [ 150.580217357000038, -35.018351231999929 ], [ 150.580216560000054, -35.018378259999963 ], [ 150.580205609000018, -35.018378040999949 ], [ 150.580204281000078, -35.018423087999963 ], [ 150.580193329000053, -35.018422868999949 ], [ 150.580193064000014, -35.018431878999934 ] ] ] ] } },
{ "type": "Feature", "properties": { "OBJECTID": 3600, "gridcode": 9, "Shape_Length": 0.00013782537684473741, "Shape_Area": 7.8978439932726227e-10 }, "geometry": { "type": "MultiPolygon", "coordinates": [ [ [ [ 150.580233151000016, -35.018558883999958 ], [ 150.58023288600009, -35.018567892999954 ], [ 150.580243837000012, -35.018568110999979 ], [ 150.580244103000041, -35.018559101999983 ], [ 150.580255054000077, -35.018559320999941 ], [ 150.580255851000061, -35.018532291999975 ], [ 150.580233948000114, -35.018531855999981 ], [ 150.580233417000045, -35.018549873999973 ], [ 150.580222466, -35.018549655999948 ], [ 150.580222200000094, -35.018558664999944 ], [ 150.580233151000016, -35.018558883999958 ] ] ] ] } },
{ "type": "Feature", "properties": { "OBJECTID": 3639, "gridcode": 9, "Shape_Length": 0.00037993418003355573, "Shape_Area": 3.0604244903150189e-09 }, "geometry": { "type": "MultiPolygon", "coordinates": [ [ [ [ 150.580168240000035, -35.018530544999976 ], [ 150.580164787000058, -35.018647665999936 ], [ 150.580175739000083, -35.01864788499995 ], [ 150.580177332000062, -35.01859382899994 ], [ 150.580188284000087, -35.018594046999965 ], [ 150.580188815000042, -35.018576027999984 ], [ 150.580199766000078, -35.018576246999942 ], [ 150.580200297000033, -35.018558227999961 ], [ 150.580211249000058, -35.018558446999975 ], [ 150.580211780000013, -35.018540427999937 ], [ 150.580222731000049, -35.018540645999963 ], [ 150.580222997000078, -35.018531636999967 ], [ 150.580212045000053, -35.018531418999942 ], [ 150.580212311000082, -35.018522408999956 ], [ 150.580201360000046, -35.018522190999931 ], [ 150.580201094000017, -35.018531199999984 ], [ 150.580190143000095, -35.018530981999959 ], [ 150.580190408000021, -35.018521971999974 ], [ 150.580179457000099, -35.018521753999948 ], [ 150.58017919100007, -35.018530762999944 ], [ 150.580168240000035, -35.018530544999976 ] ] ] ] } },
{ "type": "Feature", "properties": { "OBJECTID": 3648, "gridcode": 9, "Shape_Length": 3.9933201655421194e-05, "Shape_Area": 9.8720207714453362e-11 }, "geometry": { "type": "MultiPolygon", "coordinates": [ [ [ [ 150.579988503000095, -35.018680207999978 ], [ 150.579988768000021, -35.018671198999982 ], [ 150.579977817000099, -35.018670979999968 ], [ 150.57997755100007, -35.018679988999963 ], [ 150.579988503000095, -35.018680207999978 ] ] ] ] } },
{ "type": "Feature", "properties": { "OBJECTID": 3670, "gridcode": 9, "Shape_Length": 3.9934181378959609e-05, "Shape_Area": 9.8725551167406132e-11 }, "geometry": { "type": "MultiPolygon", "coordinates": [ [ [ [ 150.579987175000042, -35.018725254999936 ], [ 150.579987440000082, -35.018716244999951 ], [ 150.579976489000046, -35.018716026999982 ], [ 150.579976223000017, -35.018725035999978 ], [ 150.579987175000042, -35.018725254999936 ] ] ] ] } },
{ "type": "Feature", "properties": { "OBJECTID": 3677, "gridcode": 9, "Shape_Length": 7.5985836126032789e-05, "Shape_Area": 2.9615737501514498e-10 }, "geometry": { "type": "MultiPolygon", "coordinates": [ [ [ [ 150.580152243000043, -35.018701503999978 ], [ 150.580151446000059, -35.018728531999955 ], [ 150.580162397000095, -35.01872874999998 ], [ 150.580163194000079, -35.018701721999946 ], [ 150.580152243000043, -35.018701503999978 ] ] ] ] } },
{ "type": "Feature", "properties": { "OBJECTID": 3700, "gridcode": 9, "Shape_Length": 3.9933161933263895e-05, "Shape_Area": 9.8719943045492189e-11 }, "geometry": { "type": "MultiPolygon", "coordinates": [ [ [ [ 150.580138901000055, -35.01878236899995 ], [ 150.580139167000084, -35.018773359999955 ], [ 150.580128215000059, -35.01877314199993 ], [ 150.580127950000019, -35.018782150999982 ], [ 150.580138901000055, -35.01878236899995 ] ] ] ] } },
{ "type": "Feature", "properties": { "OBJECTID": 3702, "gridcode": 9, "Shape_Length": 5.7960023836128391e-05, "Shape_Area": 1.9744235872876811e-10 }, "geometry": { "type": "MultiPolygon", "coordinates": [ [ [ [ 150.580139698000039, -35.018755340999974 ], [ 150.580139167000084, -35.018773359999955 ], [ 150.58015011800012, -35.018773578999969 ], [ 150.580150649000075, -35.018755559999931 ], [ 150.580139698000039, -35.018755340999974 ] ] ] ] } },
{ "type": "Feature", "properties": { "OBJECTID": 3707, "gridcode": 9, "Shape_Length": 0.00016999950434917332, "Shape_Area": 1.3820839158713721e-09 }, "geometry": { "type": "MultiPolygon", "coordinates": [ [ [ [ 150.579952462000051, -35.018787664999934 ], [ 150.579974364000122, -35.018788101999974 ], [ 150.579976223000017, -35.018725035999978 ], [ 150.579954321000059, -35.018724598999938 ], [ 150.579952462000051, -35.018787664999934 ] ] ] ] } },
{ "type": "Feature", "properties": { "OBJECTID": 4635, "gridcode": 9, "Shape_Length": 3.993423106837338e-05, "Shape_Area": 9.8724822469031687e-11 }, "geometry": { "type": "MultiPolygon", "coordinates": [ [ [ [ 150.575800479000122, -35.025060070999984 ], [ 150.575800745000038, -35.025051061999932 ], [ 150.575789793000013, -35.025050842999974 ], [ 150.575789527000097, -35.02505985199997 ], [ 150.575800479000122, -35.025060070999984 ] ] ] ] } },
{ "type": "Feature", "properties": { "OBJECTID": 4650, "gridcode": 9, "Shape_Length": 0.00011980572136642296, "Shape_Area": 6.9112018603269217e-10 }, "geometry": { "type": "MultiPolygon", "coordinates": [ [ [ [ 150.575755872000059, -35.02508622299996 ], [ 150.575777776000109, -35.025086660999932 ], [ 150.575778575000072, -35.025059632999955 ], [ 150.575745718000121, -35.025058975999968 ], [ 150.575745452000092, -35.025067985999954 ], [ 150.575756404000117, -35.025068204999968 ], [ 150.575755872000059, -35.02508622299996 ] ] ] ] } },
{ "type": "Feature", "properties": { "OBJECTID": 4722, "gridcode": 9, "Shape_Length": 0.00090936395384500217, "Shape_Area": 2.3004245576859266e-08 }, "geometry": { "type": "MultiPolygon", "coordinates": [ [ [ [ 150.578185723000047, -35.025558453999963 ], [ 150.578207627000097, -35.025558890999946 ], [ 150.578207893000013, -35.02554988199995 ], [ 150.578240750000077, -35.025550537999948 ], [ 150.578241016000106, -35.025541528999952 ], [ 150.578251968000018, -35.025541746999977 ], [ 150.578252234000047, -35.025532737999981 ], [ 150.578263186000072, -35.025532956999939 ], [ 150.578263452000101, -35.025523947999943 ], [ 150.578274405000116, -35.025524165999968 ], [ 150.578274670000042, -35.025515156999973 ], [ 150.578285623000056, -35.02551537599993 ], [ 150.578286686000069, -35.025479337999968 ], [ 150.578297638000095, -35.025479556999983 ], [ 150.578299765000111, -35.025407481999935 ], [ 150.578310717000022, -35.025407700999949 ], [ 150.578310983000051, -35.025398691999953 ], [ 150.578332888000091, -35.025399128999936 ], [ 150.578333951000104, -35.025363091999964 ], [ 150.578301094000039, -35.025362435999966 ], [ 150.578301626000098, -35.025344416999928 ], [ 150.578290674000073, -35.025344197999971 ], [ 150.578290940000102, -35.025335188999975 ], [ 150.578301892000013, -35.025335407999933 ], [ 150.578302158000042, -35.025326397999947 ], [ 150.578291205000028, -35.025326179999979 ], [ 150.578291471000057, -35.025317169999937 ], [ 150.578280519000032, -35.025316951999969 ], [ 150.578280785000061, -35.025307941999984 ], [ 150.578258880000021, -35.025307504999944 ], [ 150.57825914600005, -35.025298495999948 ], [ 150.578248194000025, -35.025298276999933 ], [ 150.578248460000054, -35.025289267999938 ], [ 150.578237508000029, -35.02528904899998 ], [ 150.578237773000069, -35.025280039999984 ], [ 150.578226821000044, -35.02527982099997 ], [ 150.57822602400006, -35.025306848999946 ], [ 150.578215071000045, -35.025306629999932 ], [ 150.578213210000058, -35.025369695999984 ], [ 150.578202258000033, -35.02536947699997 ], [ 150.578200397000046, -35.025432541999976 ], [ 150.578189445000021, -35.025432322999961 ], [ 150.578189179000105, -35.025441332999947 ], [ 150.578200131000017, -35.025441550999972 ], [ 150.578199600000062, -35.025459569999953 ], [ 150.578210552000087, -35.025459788999967 ], [ 150.578209754000113, -35.025486816999944 ], [ 150.578198802000088, -35.025486597999929 ], [ 150.578196941000101, -35.025549662999936 ], [ 150.578185989000076, -35.025549444999967 ], [ 150.578185723000047, -35.025558453999963 ] ] ] ] } },
{ "type": "Feature", "properties": { "OBJECTID": 4766, "gridcode": 9, "Shape_Length": 3.9936279904284123e-05, "Shape_Area": 9.8735045361230577e-11 }, "geometry": { "type": "MultiPolygon", "coordinates": [ [ [ [ 150.572291832000019, -35.025864309999974 ], [ 150.572292099000038, -35.025855299999932 ], [ 150.572281146000023, -35.025855080999975 ], [ 150.572280880000108, -35.02586408999997 ], [ 150.572291832000019, -35.025864309999974 ] ] ] ] } },
{ "type": "Feature", "properties": { "OBJECTID": 4769, "gridcode": 9, "Shape_Length": 5.7961171575246384e-05, "Shape_Area": 1.9745898074504583e-10 }, "geometry": { "type": "MultiPolygon", "coordinates": [ [ [ [ 150.572269395000035, -35.025881889999937 ], [ 150.572268861000111, -35.025899907999928 ], [ 150.572279814000012, -35.025900126999943 ], [ 150.57228034700006, -35.025882108999951 ], [ 150.572269395000035, -35.025881889999937 ] ] ] ] } },
{ "type": "Feature", "properties": { "OBJECTID": 5148, "gridcode": 9, "Shape_Length": 3.9937210088444573e-05, "Shape_Area": 9.8739173998748348e-11 }, "geometry": { "type": "MultiPolygon", "coordinates": [ [ [ [ 150.580088425000099, -35.030157836999933 ], [ 150.580088691000014, -35.030148827999938 ], [ 150.580077738000114, -35.03014860899998 ], [ 150.580077472000085, -35.030157618999965 ], [ 150.580088425000099, -35.030157836999933 ] ] ] ] } },
{ "type": "Feature", "properties": { "OBJECTID": 5153, "gridcode": 9, "Shape_Length": 5.7963062407153562e-05, "Shape_Area": 1.9747287260990787e-10 }, "geometry": { "type": "MultiPolygon", "coordinates": [ [ [ [ 150.57946331200003, -35.030172406999952 ], [ 150.579462780000085, -35.030190424999944 ], [ 150.5794737330001, -35.030190643999958 ], [ 150.579474265000044, -35.030172624999977 ], [ 150.57946331200003, -35.030172406999952 ] ] ] ] } },
{ "type": "Feature", "properties": { "OBJECTID": 5171, "gridcode": 9, "Shape_Length": 3.9936131787617418e-05, "Shape_Area": 9.8733347075217218e-11 }, "geometry": { "type": "MultiPolygon", "coordinates": [ [ [ [ 150.583928399000115, -35.030387644999962 ], [ 150.583928664000041, -35.030378635999966 ], [ 150.583917711000026, -35.030378417999941 ], [ 150.5839174460001, -35.030387426999937 ], [ 150.583928399000115, -35.030387644999962 ] ] ] ] } },
{ "type": "Feature", "properties": { "OBJECTID": 5254, "gridcode": 9, "Shape_Length": 3.9937210207731417e-05, "Shape_Area": 9.8739174538419759e-11 }, "geometry": { "type": "MultiPolygon", "coordinates": [ [ [ [ 150.578508599000088, -35.030586049999954 ], [ 150.578508865000117, -35.030577040999958 ], [ 150.578497912000103, -35.030576821999944 ], [ 150.578497646000073, -35.030585831999929 ], [ 150.578508599000088, -35.030586049999954 ] ] ] ] } },
{ "type": "Feature", "properties": { "OBJECTID": 5263, "gridcode": 9, "Shape_Length": 3.9937151179126591e-05, "Shape_Area": 9.8738955516159575e-11 }, "geometry": { "type": "MultiPolygon", "coordinates": [ [ [ [ 150.578529708000019, -35.03061351599996 ], [ 150.578529973000059, -35.030604505999975 ], [ 150.578519020000044, -35.03060428799995 ], [ 150.578518755000118, -35.030613296999945 ], [ 150.578529708000019, -35.03061351599996 ] ] ] ] } },
{ "type": "Feature", "properties": { "OBJECTID": 5656, "gridcode": 9, "Shape_Length": 3.9937210207731417e-05, "Shape_Area": 9.8739174538419759e-11 }, "geometry": { "type": "MultiPolygon", "coordinates": [ [ [ [ 150.579104640000082, -35.03267131399997 ], [ 150.579104906000111, -35.032662304999974 ], [ 150.579093953000097, -35.032662085999959 ], [ 150.579093687000068, -35.032671095999945 ], [ 150.579104640000082, -35.03267131399997 ] ] ] ] } },
{ "type": "Feature", "properties": { "OBJECTID": 5715, "gridcode": 9, "Shape_Length": 3.9937161043169435e-05, "Shape_Area": 9.8737960551221811e-11 }, "geometry": { "type": "MultiPolygon", "coordinates": [ [ [ [ 150.579929116000017, -35.032958207999968 ], [ 150.579929381000056, -35.032949198999972 ], [ 150.579918428000042, -35.032948980999947 ], [ 150.579918162000013, -35.032957989999943 ], [ 150.579929116000017, -35.032958207999968 ] ] ] ] } },
{ "type": "Feature", "properties": { "OBJECTID": 5717, "gridcode": 9, "Shape_Length": 3.993721026341375e-05, "Shape_Area": 9.8739174842162574e-11 }, "geometry": { "type": "MultiPolygon", "coordinates": [ [ [ [ 150.579951022000046, -35.03295864599994 ], [ 150.579951288000075, -35.032949635999955 ], [ 150.57994033500006, -35.03294941799993 ], [ 150.579940069000031, -35.032958426999983 ], [ 150.579951022000046, -35.03295864599994 ] ] ] ] } },
{ "type": "Feature", "properties": { "OBJECTID": 5718, "gridcode": 9, "Shape_Length": 3.9938180597421156e-05, "Shape_Area": 9.8743570295692143e-11 }, "geometry": { "type": "MultiPolygon", "coordinates": [ [ [ [ 150.579972929000064, -35.03295908299998 ], [ 150.579973195000093, -35.032950072999938 ], [ 150.579962241000089, -35.03294985499997 ], [ 150.57996197600005, -35.032958863999966 ], [ 150.579972929000064, -35.03295908299998 ] ] ] ] } },
{ "type": "Feature", "properties": { "OBJECTID": 5731, "gridcode": 9, "Shape_Length": 3.9937210263418934e-05, "Shape_Area": 9.8739174842162574e-11 }, "geometry": { "type": "MultiPolygon", "coordinates": [ [ [ [ 150.580016476000083, -35.032968965999942 ], [ 150.580016742000112, -35.032959956999946 ], [ 150.580005789000097, -35.032959737999931 ], [ 150.580005523000068, -35.032968747999973 ], [ 150.580016476000083, -35.032968965999942 ] ] ] ] } },
{ "type": "Feature", "properties": { "OBJECTID": 5733, "gridcode": 9, "Shape_Length": 3.9938180590723612e-05, "Shape_Area": 9.8743570270851573e-11 }, "geometry": { "type": "MultiPolygon", "coordinates": [ [ [ [ 150.580038383000101, -35.032969403999971 ], [ 150.580038649000016, -35.032960393999929 ], [ 150.580027695000012, -35.03296017599996 ], [ 150.580027430000086, -35.032969184999956 ], [ 150.580038383000101, -35.032969403999971 ] ] ] ] } },
{ "type": "Feature", "properties": { "OBJECTID": 5763, "gridcode": 9, "Shape_Length": 3.9936190700194532e-05, "Shape_Area": 9.8733565057816578e-11 }, "geometry": { "type": "MultiPolygon", "coordinates": [ [ [ [ 150.580266542000118, -35.033037057999934 ], [ 150.580266808000033, -35.033028048999938 ], [ 150.580255855000019, -35.03302783099997 ], [ 150.580255589000103, -35.033036839999966 ], [ 150.580266542000118, -35.033037057999934 ] ] ] ] } },
{ "type": "Feature", "properties": { "OBJECTID": 5773, "gridcode": 9, "Shape_Length": 3.9937210263413743e-05, "Shape_Area": 9.8739174842162574e-11 }, "geometry": { "type": "MultiPolygon", "coordinates": [ [ [ [ 150.580331996000041, -35.033047378999981 ], [ 150.58033226200007, -35.033038369999929 ], [ 150.580321309000055, -35.033038150999971 ], [ 150.580321043000026, -35.033047160999956 ], [ 150.580331996000041, -35.033047378999981 ] ] ] ] } },
{ "type": "Feature", "properties": { "OBJECTID": 5790, "gridcode": 9, "Shape_Length": 3.9937210090712202e-05, "Shape_Area": 9.8739174013868705e-11 }, "geometry": { "type": "MultiPolygon", "coordinates": [ [ [ [ 150.580419357000096, -35.033058136999955 ], [ 150.580419623000012, -35.03304912699997 ], [ 150.580408670000111, -35.033048908999945 ], [ 150.580408404000082, -35.03305791799994 ], [ 150.580419357000096, -35.033058136999955 ] ] ] ] } },
{ "type": "Feature", "properties": { "OBJECTID": 5950, "gridcode": 9, "Shape_Length": 3.9939150877182152e-05, "Shape_Area": 9.8747965445422054e-11 }, "geometry": { "type": "MultiPolygon", "coordinates": [ [ [ [ 150.582982741000023, -35.036075066999956 ], [ 150.582983006000063, -35.036066056999971 ], [ 150.582972052000059, -35.036065838999946 ], [ 150.58297178700002, -35.036074847999942 ], [ 150.582982741000023, -35.036075066999956 ] ] ] ] } },
{ "type": "Feature", "properties": { "OBJECTID": 5955, "gridcode": 9, "Shape_Length": 3.993915093286477e-05, "Shape_Area": 9.8747965749221712e-11 }, "geometry": { "type": "MultiPolygon", "coordinates": [ [ [ [ 150.583014806000051, -35.036102749999941 ], [ 150.583015071000091, -35.036093739999956 ], [ 150.583004117000087, -35.036093521999931 ], [ 150.583003852000047, -35.036102530999983 ], [ 150.583014806000051, -35.036102749999941 ] ] ] ] } },
{ "type": "Feature", "properties": { "OBJECTID": 5982, "gridcode": 9, "Shape_Length": 3.9937161043169435e-05, "Shape_Area": 9.8737960551221811e-11 }, "geometry": { "type": "MultiPolygon", "coordinates": [ [ [ [ 150.581841163000036, -35.036133439999958 ], [ 150.581841428000075, -35.036124430999962 ], [ 150.581830475000061, -35.036124212999937 ], [ 150.581830209000032, -35.036133221999933 ], [ 150.581841163000036, -35.036133439999958 ] ] ] ] } },
{ "type": "Feature", "properties": { "OBJECTID": 5999, "gridcode": 9, "Shape_Length": 3.9937161043169435e-05, "Shape_Area": 9.8737960551221811e-11 }, "geometry": { "type": "MultiPolygon", "coordinates": [ [ [ [ 150.581784801000026, -35.036186403999977 ], [ 150.581785066000066, -35.036177394999982 ], [ 150.581774113000051, -35.036177176999956 ], [ 150.581773847000022, -35.036186185999952 ], [ 150.581784801000026, -35.036186403999977 ] ] ] ] } },
{ "type": "Feature", "properties": { "OBJECTID": 6017, "gridcode": 9, "Shape_Length": 3.9937200921769098e-05, "Shape_Area": 9.8738226008459095e-11 }, "geometry": { "type": "MultiPolygon", "coordinates": [ [ [ [ 150.581695577000119, -35.036238712999932 ], [ 150.581695843000034, -35.036229703999936 ], [ 150.58168488900003, -35.036229484999978 ], [ 150.581684624000104, -35.036238493999974 ], [ 150.581695577000119, -35.036238712999932 ] ] ] ] } },
{ "type": "Feature", "properties": { "OBJECTID": 6052, "gridcode": 9, "Shape_Length": 3.9938180535035986e-05, "Shape_Area": 9.8743569967080337e-11 }, "geometry": { "type": "MultiPolygon", "coordinates": [ [ [ [ 150.58264324400011, -35.036437899999953 ], [ 150.582643510000025, -35.036428889999968 ], [ 150.582632556000021, -35.036428671999943 ], [ 150.582632291000095, -35.036437680999938 ], [ 150.58264324400011, -35.036437899999953 ] ] ] ] } },
{ "type": "Feature", "properties": { "OBJECTID": 6054, "gridcode": 9, "Shape_Length": 3.9937161034209344e-05, "Shape_Area": 9.8737960511346147e-11 }, "geometry": { "type": "MultiPolygon", "coordinates": [ [ [ [ 150.582665152000118, -35.036438335999947 ], [ 150.582665417000044, -35.036429326999951 ], [ 150.582654464000029, -35.036429108999982 ], [ 150.582654198000114, -35.036438117999978 ], [ 150.582665152000118, -35.036438335999947 ] ] ] ] } },
{ "type": "Feature", "properties": { "OBJECTID": 6070, "gridcode": 9, "Shape_Length": 3.9937161034209344e-05, "Shape_Area": 9.8737960511346147e-11 }, "geometry": { "type": "MultiPolygon", "coordinates": [ [ [ [ 150.581546539000101, -35.036461105999933 ], [ 150.581546804000027, -35.036452096999938 ], [ 150.581535851000012, -35.036451878999969 ], [ 150.581535585000097, -35.036460887999965 ], [ 150.581546539000101, -35.036461105999933 ] ] ] ] } },
{ "type": "Feature", "properties": { "OBJECTID": 6079, "gridcode": 9, "Shape_Length": 3.9939209788780204e-05, "Shape_Area": 9.8748183943131184e-11 }, "geometry": { "type": "MultiPolygon", "coordinates": [ [ [ [ 150.581721268000024, -35.036482619999958 ], [ 150.581721534000053, -35.036473610999963 ], [ 150.581710580000049, -35.036473391999948 ], [ 150.58171031400002, -35.036482401999933 ], [ 150.581721268000024, -35.036482619999958 ] ] ] ] } },
{ "type": "Feature", "properties": { "OBJECTID": 6086, "gridcode": 9, "Shape_Length": 3.9938190283063553e-05, "Shape_Area": 9.8742573962538579e-11 }, "geometry": { "type": "MultiPolygon", "coordinates": [ [ [ [ 150.581742910000116, -35.036492065999937 ], [ 150.581743176000032, -35.036483056999941 ], [ 150.581732222000028, -35.036482838999973 ], [ 150.581731956000112, -35.036491847999969 ], [ 150.581742910000116, -35.036492065999937 ] ] ] ] } },
{ "type": "Feature", "properties": { "OBJECTID": 6087, "gridcode": 9, "Shape_Length": 3.9939150760175535e-05, "Shape_Area": 9.8747964920871001e-11 }, "geometry": { "type": "MultiPolygon", "coordinates": [ [ [ [ 150.581764818000011, -35.036492502999977 ], [ 150.58176508300005, -35.036483493999981 ], [ 150.581754129000046, -35.036483274999966 ], [ 150.58175386400012, -35.036492284999952 ], [ 150.581764818000011, -35.036492502999977 ] ] ] ] } },
{ "type": "Feature", "properties": { "OBJECTID": 6135, "gridcode": 9, "Shape_Length": 3.9937160926162459e-05, "Shape_Area": 9.8737960026727574e-11 }, "geometry": { "type": "MultiPolygon", "coordinates": [ [ [ [ 150.581452003000095, -35.036693600999968 ], [ 150.581452268000021, -35.036684591999972 ], [ 150.58144131500012, -35.036684373999947 ], [ 150.581441049000091, -35.036693382999943 ], [ 150.581452003000095, -35.036693600999968 ] ] ] ] } },
{ "type": "Feature", "properties": { "OBJECTID": 6294, "gridcode": 9, "Shape_Length": 3.9938190285325633e-05, "Shape_Area": 9.8742573977658924e-11 }, "geometry": { "type": "MultiPolygon", "coordinates": [ [ [ [ 150.581647771000121, -35.03786039199997 ], [ 150.581648037000036, -35.037851382999975 ], [ 150.581637083000032, -35.03785116499995 ], [ 150.581636817000117, -35.037860173999945 ], [ 150.581647771000121, -35.03786039199997 ] ] ] ] } },
{ "type": "Feature", "properties": { "OBJECTID": 6300, "gridcode": 9, "Shape_Length": 3.9939209844467837e-05, "Shape_Area": 9.874818424690242e-11 }, "geometry": { "type": "MultiPolygon", "coordinates": [ [ [ [ 150.581701744000043, -35.037888512999984 ], [ 150.581702010000072, -35.037879502999942 ], [ 150.581691056000068, -35.037879284999974 ], [ 150.581690790000039, -35.03788829399997 ], [ 150.581701744000043, -35.037888512999984 ] ] ] ] } },
{ "type": "Feature", "properties": { "OBJECTID": 6304, "gridcode": 9, "Shape_Length": 3.9938131368224156e-05, "Shape_Area": 9.8742355964875717e-11 }, "geometry": { "type": "MultiPolygon", "coordinates": [ [ [ [ 150.581712433000121, -35.037897739999948 ], [ 150.581712698000047, -35.037888730999953 ], [ 150.581701744000043, -35.037888512999984 ], [ 150.581701479000117, -35.03789752199998 ], [ 150.581712433000121, -35.037897739999948 ] ] ] ] } },
{ "type": "Feature", "properties": { "OBJECTID": 6307, "gridcode": 9, "Shape_Length": 3.9939209671760827e-05, "Shape_Area": 9.8748183418580131e-11 }, "geometry": { "type": "MultiPolygon", "coordinates": [ [ [ [ 150.581723121000095, -35.037906967999959 ], [ 150.581723387000011, -35.037897958999963 ], [ 150.581712433000121, -35.037897739999948 ], [ 150.581712167000092, -35.037906749999934 ], [ 150.581723121000095, -35.037906967999959 ] ] ] ] } },
{ "type": "Feature", "properties": { "OBJECTID": 6327, "gridcode": 9, "Shape_Length": 3.9939150760175541e-05, "Shape_Area": 9.8747964920871001e-11 }, "geometry": { "type": "MultiPolygon", "coordinates": [ [ [ [ 150.581906949000086, -35.037991765999948 ], [ 150.581907214000012, -35.037982755999963 ], [ 150.581896260000121, -35.037982537999937 ], [ 150.581895995000082, -35.037991546999933 ], [ 150.581906949000086, -35.037991765999948 ] ] ] ] } },
{ "type": "Feature", "properties": { "OBJECTID": 6335, "gridcode": 9, "Shape_Length": 3.9938230177786251e-05, "Shape_Area": 9.8742839999658708e-11 }, "geometry": { "type": "MultiPolygon", "coordinates": [ [ [ [ 150.581620817000044, -35.038031132999947 ], [ 150.581621083000073, -35.038022123999951 ], [ 150.581610129000069, -35.038021904999937 ], [ 150.58160986300004, -35.038030913999933 ], [ 150.581620817000044, -35.038031132999947 ] ] ] ] } },
{ "type": "Feature", "properties": { "OBJECTID": 6345, "gridcode": 9, "Shape_Length": 3.993823017551379e-05, "Shape_Area": 9.8742839984538364e-11 }, "geometry": { "type": "MultiPolygon", "coordinates": [ [ [ [ 150.582069665000063, -35.038049097999931 ], [ 150.582069931000092, -35.038040088999935 ], [ 150.582058977000088, -35.038039869999977 ], [ 150.582058711000059, -35.038048878999973 ], [ 150.582069665000063, -35.038049097999931 ] ] ] ] } },
{ "type": "Feature", "properties": { "OBJECTID": 6374, "gridcode": 9, "Shape_Length": 5.7965003081944034e-05, "Shape_Area": 1.9749067274271222e-10 }, "geometry": { "type": "MultiPolygon", "coordinates": [ [ [ [ 150.582079822000082, -35.038076343999933 ], [ 150.582079291000014, -35.038094362999971 ], [ 150.582090245000018, -35.038094580999939 ], [ 150.582090776000086, -35.038076562999947 ], [ 150.582079822000082, -35.038076343999933 ] ] ] ] } }
]
}
