{
"type": "FeatureCollection",
"name": "E3_Productivity Support",
"crs": { "type": "name", "properties": { "name": "urn:ogc:def:crs:OGC:1.3:CRS84" } },
"features": [
{ "type": "Feature", "properties": { "OBJECTID": 293, "Comments": "Downloaded from SEED Map Service 20250513", "FSource": "https://mapprod3.environment.nsw.gov.au/arcgis/rest/services/Planning/EPI_Primary_Planning_Layers/MapServer/2", "SourceDate": 20250513.0, "Supplier": "DOP", "EPI_NAME": "Shoalhaven Local Environmental Plan 2014", "LGA_NAME": "SHOALHAVEN", "PUBLISHED_DATE": "20230224000000", "COMMENCED_DATE": "20230426000000", "CURRENCY_DATE": "20240823000000", "AMENDMENT": "State Environmental Planning Policy Amendment (Land Use Zones) 2023", "MAP_TYPE": "LZN", "MAP_NAME": "Land Zoning Map", "LAY_NAME": "Zone", "LAY_CLASS": "Productivity Support", "PCO_REF_KEY": "2014-179", "EPI_TYPE": "LEP", "SYM_CODE": "E3", "PURPOSE": null, "arcgisonline_objectid": 586058.0, "arcgisonline_type": "arcgisonline_polygon", "multi_reader_type": "ARCGISFEATURES", "SHAPE_Length": 255.9599829466907, "SHAPE_Area": 3340.5833743578037 }, "geometry": { "type": "MultiPolygon", "coordinates": [ [ [ [ 150.633103137566451, -35.09947358260991 ], [ 150.633076382595192, -35.099609174259342 ], [ 150.632680846641335, -35.099556432890004 ], [ 150.632707649327813, -35.099420844075027 ], [ 150.632734452774287, -35.099285263377837 ], [ 150.632761253900497, -35.099149683526548 ], [ 150.632788056333993, -35.099014092872949 ], [ 150.632814859449297, -35.098878513040013 ], [ 150.632838452736081, -35.098759175321554 ], [ 150.632841661653316, -35.098742923262911 ], [ 150.633236900824812, -35.098795631194619 ], [ 150.633210151920707, -35.098931220309261 ], [ 150.633183394118959, -35.099066810141373 ], [ 150.63315664501178, -35.099202399231608 ], [ 150.633129888077178, -35.099337989961661 ], [ 150.633103137566451, -35.09947358260991 ] ] ] ] } },
{ "type": "Feature", "properties": { "OBJECTID": 327, "Comments": "Downloaded from SEED Map Service 20250513", "FSource": "https://mapprod3.environment.nsw.gov.au/arcgis/rest/services/Planning/EPI_Primary_Planning_Layers/MapServer/2", "SourceDate": 20250513.0, "Supplier": "DOP", "EPI_NAME": "Shoalhaven Local Environmental Plan 2014", "LGA_NAME": "SHOALHAVEN", "PUBLISHED_DATE": "20230224000000", "COMMENCED_DATE": "20230426000000", "CURRENCY_DATE": "20240823000000", "AMENDMENT": "State Environmental Planning Policy Amendment (Land Use Zones) 2023", "MAP_TYPE": "LZN", "MAP_NAME": "Land Zoning Map", "LAY_NAME": "Zone", "LAY_CLASS": "Productivity Support", "PCO_REF_KEY": "2014-179", "EPI_TYPE": "LEP", "SYM_CODE": "E3", "PURPOSE": null, "arcgisonline_objectid": 586386.0, "arcgisonline_type": "arcgisonline_polygon", "multi_reader_type": "ARCGISFEATURES", "SHAPE_Length": 2947.0248579440176, "SHAPE_Area": 429302.56919833348 }, "geometry": { "type": "MultiPolygon", "coordinates": [ [ [ [ 150.530173421259008, -34.942172462201647 ], [ 150.53010976049606, -34.942407632435099 ], [ 150.530927719989791, -34.941965255928181 ], [ 150.5313636468114, -34.94217666107393 ], [ 150.531379558794555, -34.942184370296737 ], [ 150.531811826067639, -34.941748018282979 ], [ 150.531878527043176, -34.941681398541895 ], [ 150.532264595424067, -34.941868715761991 ], [ 150.531870918028886, -34.942421607147992 ], [ 150.532162264598014, -34.94256226852405 ], [ 150.529940224696901, -34.945683463630182 ], [ 150.529710550779271, -34.946013425777544 ], [ 150.529495184210674, -34.946383359127303 ], [ 150.529382326234042, -34.946353454293266 ], [ 150.528930273459736, -34.946491872778871 ], [ 150.52860045236136, -34.946514190622118 ], [ 150.528461618989809, -34.946514081313673 ], [ 150.527741819383607, -34.946513503499652 ], [ 150.527504121619103, -34.946512855461421 ], [ 150.527187693021261, -34.946511993393166 ], [ 150.525840325436974, -34.946508316951771 ], [ 150.525122830722921, -34.946595970368641 ], [ 150.524894724185714, -34.946511922991853 ], [ 150.524920648513358, -34.946233859617585 ], [ 150.524932077256125, -34.946111268601292 ], [ 150.524842024951425, -34.946105576207394 ], [ 150.523007365759128, -34.94598952308791 ], [ 150.52195864215534, -34.945855566038382 ], [ 150.521116673322865, -34.945748018435225 ], [ 150.521469623268985, -34.941645494828357 ], [ 150.52411426502843, -34.941799250577802 ], [ 150.524768088969722, -34.941837425486518 ], [ 150.528625818313827, -34.942061370457346 ], [ 150.528876235481533, -34.942075867151772 ], [ 150.530179104712289, -34.942151460161568 ], [ 150.530173421259008, -34.942172462201647 ] ] ] ] } },
{ "type": "Feature", "properties": { "OBJECTID": 428, "Comments": "Downloaded from SEED Map Service 20250513", "FSource": "https://mapprod3.environment.nsw.gov.au/arcgis/rest/services/Planning/EPI_Primary_Planning_Layers/MapServer/2", "SourceDate": 20250513.0, "Supplier": "DOP", "EPI_NAME": "Shoalhaven Local Environmental Plan 2014", "LGA_NAME": "SHOALHAVEN", "PUBLISHED_DATE": "20230915000000", "COMMENCED_DATE": "20230915000000", "CURRENCY_DATE": "20240823000000", "AMENDMENT": "Amendment No 50", "MAP_TYPE": "LZN", "MAP_NAME": "Land Zoning Map", "LAY_NAME": "Zone", "LAY_CLASS": "Productivity Support", "PCO_REF_KEY": "2014-179", "EPI_TYPE": "LEP", "SYM_CODE": "E3", "PURPOSE": null, "arcgisonline_objectid": 586612.0, "arcgisonline_type": "arcgisonline_polygon", "multi_reader_type": "ARCGISFEATURES", "SHAPE_Length": 7897.0024578772691, "SHAPE_Area": 1204608.701268835 }, "geometry": { "type": "MultiPolygon", "coordinates": [ [ [ [ 150.605125866126883, -34.903680253824717 ], [ 150.604875979130867, -34.904896372185739 ], [ 150.604874248870431, -34.904904816528557 ], [ 150.604835838136211, -34.904927513071137 ], [ 150.605118886063195, -34.904964883794634 ], [ 150.605520581383985, -34.905017950926471 ], [ 150.605630720507321, -34.904475992273099 ], [ 150.605810339772944, -34.903587084572138 ], [ 150.606246206237216, -34.903644623331637 ], [ 150.606681051053215, -34.903702020510273 ], [ 150.607114568678554, -34.903759246661508 ], [ 150.607598274895196, -34.903824702272892 ], [ 150.607479296931444, -34.90441214376218 ], [ 150.607957268702705, -34.904475344950562 ], [ 150.608057950776214, -34.904488975634393 ], [ 150.607857750109702, -34.905326781300147 ], [ 150.607826580980856, -34.905506312100236 ], [ 150.607809549613165, -34.90559764598224 ], [ 150.607795404948519, -34.905706853655744 ], [ 150.607783939013132, -34.905834992974306 ], [ 150.60777041194973, -34.905994864527941 ], [ 150.607777502307556, -34.906164051489846 ], [ 150.607796263879806, -34.90632100076585 ], [ 150.607789853691344, -34.906531375715289 ], [ 150.607788051810246, -34.906738309396886 ], [ 150.607795294657649, -34.906940177263522 ], [ 150.607803773445795, -34.907122118708912 ], [ 150.607836850670452, -34.907401328878819 ], [ 150.60784113486983, -34.907615781782432 ], [ 150.607844173412275, -34.907779338472629 ], [ 150.607848296450072, -34.908031924594034 ], [ 150.607867130615574, -34.908223376876236 ], [ 150.607890587617817, -34.908445888889851 ], [ 150.607928120239194, -34.908618499662346 ], [ 150.607957128019791, -34.908750126029211 ], [ 150.607964083656242, -34.908850280005254 ], [ 150.607977170819424, -34.908921661249863 ], [ 150.607993207525112, -34.909024934698486 ], [ 150.607997832553053, -34.909025562161887 ], [ 150.607948332702591, -34.909202384427914 ], [ 150.607939853185144, -34.909201237524215 ], [ 150.607967659401709, -34.909275513023054 ], [ 150.608016244055506, -34.909352908466786 ], [ 150.608080830045736, -34.909478313832317 ], [ 150.60813121622806, -34.909624004207259 ], [ 150.608197656653317, -34.909817698317347 ], [ 150.608270883774509, -34.910014735312984 ], [ 150.608353190368547, -34.910185695310808 ], [ 150.60836112340715, -34.910202171987358 ], [ 150.608391225214831, -34.910288664436756 ], [ 150.608435318597458, -34.910415351899836 ], [ 150.608471237485105, -34.910613769973054 ], [ 150.608530910412185, -34.91084187553998 ], [ 150.608590646809972, -34.911034008594385 ], [ 150.608648419644339, -34.911229818879811 ], [ 150.608699944072157, -34.911469038799403 ], [ 150.608703556208297, -34.911490777089469 ], [ 150.608702901438903, -34.911495616888622 ], [ 150.608730735310473, -34.911655023533001 ], [ 150.608773528725237, -34.911820785360639 ], [ 150.608809134016781, -34.912013797260904 ], [ 150.608815990850076, -34.912204263524515 ], [ 150.608825196673735, -34.912434206947879 ], [ 150.608850922655648, -34.91268336980108 ], [ 150.608850975934899, -34.912870473893278 ], [ 150.608847524967899, -34.913072100415611 ], [ 150.608822129340268, -34.913200777720391 ], [ 150.608802201971969, -34.913347230858463 ], [ 150.60877490695438, -34.9135551319361 ], [ 150.608734683777158, -34.913693329040854 ], [ 150.608684422965268, -34.913921847413647 ], [ 150.608642345251269, -34.914103313448422 ], [ 150.608537009646483, -34.914330236221751 ], [ 150.608441747825054, -34.914504611421854 ], [ 150.60834046246174, -34.914725994792846 ], [ 150.608204228231102, -34.914914478913651 ], [ 150.608095252157966, -34.915042583717124 ], [ 150.607957851231589, -34.915211311977508 ], [ 150.607785041510112, -34.915375916113312 ], [ 150.607627247968651, -34.915534587417682 ], [ 150.607479000606787, -34.915705502989923 ], [ 150.607331461513866, -34.915851211514202 ], [ 150.607138690841481, -34.916050731628971 ], [ 150.60701491512242, -34.916226165555379 ], [ 150.606904844842973, -34.916447861264061 ], [ 150.60682501985977, -34.916585700070279 ], [ 150.606740973803454, -34.916801076048458 ], [ 150.606727956964107, -34.916990458258745 ], [ 150.606700123718412, -34.917189368352176 ], [ 150.606690487225023, -34.917398426218128 ], [ 150.606717109721018, -34.917706920000491 ], [ 150.607021013982376, -34.918711287250609 ], [ 150.607265301750971, -34.919182272511129 ], [ 150.607318529229332, -34.919279082997491 ], [ 150.607440753600059, -34.919449147800115 ], [ 150.607588220609529, -34.91967408088847 ], [ 150.607700109343995, -34.919855322164764 ], [ 150.607850660206708, -34.920020753809595 ], [ 150.608002492175075, -34.92020775054533 ], [ 150.608116853956886, -34.920356526375663 ], [ 150.608238037821337, -34.92050862770656 ], [ 150.608398645745893, -34.920695293774898 ], [ 150.60852061888346, -34.920824007878394 ], [ 150.608618442692404, -34.920915799386073 ], [ 150.608750374572139, -34.92105155071895 ], [ 150.608472178136395, -34.921615080791931 ], [ 150.609169299588729, -34.92091774546661 ], [ 150.609225541261679, -34.920744982655059 ], [ 150.609633253608934, -34.919492369982187 ], [ 150.60966272867887, -34.919507085369148 ], [ 150.609677698954044, -34.919513117051011 ], [ 150.609692722968362, -34.919519069556692 ], [ 150.60970779968028, -34.919524941062711 ], [ 150.609722913749749, -34.91953073216861 ], [ 150.609738080516735, -34.919536442274818 ], [ 150.609753292324285, -34.919542071230602 ], [ 150.609768540656802, -34.919547610755004 ], [ 150.609783833742341, -34.91955307903963 ], [ 150.60979917978662, -34.919558457314778 ], [ 150.609814562094385, -34.919563755168184 ], [ 150.609829988610102, -34.919568962839875 ], [ 150.609845461233817, -34.919574090283518 ], [ 150.609860969027153, -34.919579137283847 ], [ 150.609876502432883, -34.919584093736432 ], [ 150.609892100254456, -34.919588980237577 ], [ 150.609907725069661, -34.919593766301809 ], [ 150.609923385054316, -34.919598471922647 ], [ 150.609939081276025, -34.919603098022598 ], [ 150.609954821443978, -34.919607642950368 ], [ 150.60997058964702, -34.91961208926466 ], [ 150.609986393877961, -34.91961646326574 ], [ 150.610002250208453, -34.91962073912687 ], [ 150.610018116549668, -34.919624934049423 ], [ 150.610034028139836, -34.919629040613515 ], [ 150.610049965965402, -34.91963307286867 ], [ 150.610065939404279, -34.919637009363825 ], [ 150.610081940407525, -34.919640863462845 ], [ 150.610097985591779, -34.919644628280821 ], [ 150.610114041047837, -34.919648303150453 ], [ 150.610130131646656, -34.91965189847749 ], [ 150.610146257701757, -34.919655403450271 ], [ 150.610162410462323, -34.919658817896597 ], [ 150.610178581931649, -34.919662153378376 ], [ 150.610194788024614, -34.919665389474638 ], [ 150.610211013998537, -34.919668543924942 ], [ 150.610227265244106, -34.919671619539827 ], [ 150.610243543717587, -34.919674586608792 ], [ 150.610259840716679, -34.919677481019939 ], [ 150.610276164342537, -34.919680287607463 ], [ 150.610292506183981, -34.919682994486529 ], [ 150.610308865430966, -34.919685629587207 ], [ 150.610325260368853, -34.919688166224759 ], [ 150.61034166362532, -34.919690604762067 ], [ 150.610358095225649, -34.919692971736175 ], [ 150.610374535170564, -34.919695239709071 ], [ 150.610390993875882, -34.919697426915349 ], [ 150.610407478453425, -34.919699514563753 ], [ 150.610423971920511, -34.919701522152806 ], [ 150.610440474512274, -34.919703441573752 ], [ 150.610457004928605, -34.919705269588597 ], [ 150.610473542569252, -34.919706999481619 ], [ 150.610490100037737, -34.919708649530442 ], [ 150.610506664756514, -34.919710200556473 ], [ 150.610523239484536, -34.919711670643636 ], [ 150.610539823389217, -34.919713050760741 ], [ 150.610556432852036, -34.91971434213152 ], [ 150.610573043028012, -34.919715533449377 ], [ 150.610589662066928, -34.919716645608787 ], [ 150.610606282886579, -34.919717658637715 ], [ 150.610622919184379, -34.919718590835402 ], [ 150.610639574640771, -34.919719353027261 ], [ 150.610645132355046, -34.91971969314816 ], [ 150.61077924507731, -34.920910445621466 ], [ 150.610782656292542, -34.920940725953763 ], [ 150.612582144820294, -34.921166939897233 ], [ 150.612038227327844, -34.924176138251745 ], [ 150.611962823592222, -34.924593306265514 ], [ 150.61187565534874, -34.925065958123774 ], [ 150.611556115689041, -34.926798436729648 ], [ 150.605529055208791, -34.926044049981485 ], [ 150.605542269101136, -34.925981903644228 ], [ 150.604921619105966, -34.925904874992519 ], [ 150.604590051084301, -34.925863721917018 ], [ 150.60438860239887, -34.925838721081455 ], [ 150.604291837367356, -34.925585246534077 ], [ 150.604459869954638, -34.924734420033239 ], [ 150.60466496700019, -34.924588459030169 ], [ 150.604674072607679, -34.92458197848358 ], [ 150.604750706403536, -34.924527207783157 ], [ 150.604639823510297, -34.924366474424055 ], [ 150.604640717731627, -34.924365834881783 ], [ 150.604573095132935, -34.924262779645922 ], [ 150.604491567953232, -34.924144625231406 ], [ 150.604397904077729, -34.92400888323791 ], [ 150.604325725813055, -34.923904237939425 ], [ 150.604323368649858, -34.923865530491824 ], [ 150.604440366762503, -34.923866435736805 ], [ 150.6044324611197, -34.923737175873633 ], [ 150.6044244647629, -34.923605691164525 ], [ 150.604306659994563, -34.923591098125719 ], [ 150.604289970588269, -34.923316683257248 ], [ 150.604273271367504, -34.923042269086444 ], [ 150.604391085193527, -34.923056862320969 ], [ 150.604374385662027, -34.922782447240849 ], [ 150.604256580980746, -34.92276785417819 ], [ 150.604248262835171, -34.922631072302536 ], [ 150.604239917533079, -34.922493869798018 ], [ 150.604227691657087, -34.922292852357231 ], [ 150.604218843630946, -34.922147420216326 ], [ 150.604210015310457, -34.922001988461297 ], [ 150.604201158801004, -34.921856548033958 ], [ 150.604189444764216, -34.921663902820391 ], [ 150.604156932509682, -34.921129828355419 ], [ 150.604146713981265, -34.920961636480477 ], [ 150.604136442673649, -34.920792889148991 ], [ 150.604254246971692, -34.920807473250555 ], [ 150.604245911507348, -34.920670270910115 ], [ 150.604128096729568, -34.920655677582744 ], [ 150.604093264756784, -34.920082905330695 ], [ 150.604060475343687, -34.919543893273818 ], [ 150.604013998554478, -34.918779626401829 ], [ 150.604131812023184, -34.91879420984526 ], [ 150.604123868798894, -34.918663587011736 ], [ 150.604093402020823, -34.918162690289655 ], [ 150.604078074548312, -34.917910605672105 ], [ 150.604045473592009, -34.917376031582258 ], [ 150.604034879797837, -34.917203627708773 ], [ 150.604031714046613, -34.917152308761395 ], [ 150.604029832759352, -34.917121517570813 ], [ 150.604017937338824, -34.91692804831154 ], [ 150.603990571761244, -34.91648010984877 ], [ 150.603963196681605, -34.91603212699863 ], [ 150.60395838303009, -34.91595339750446 ], [ 150.603935821538329, -34.915584189194099 ], [ 150.603920214919953, -34.915328698588326 ], [ 150.603910256178494, -34.915165779074684 ], [ 150.603885579995875, -34.914777693423957 ], [ 150.60386934661318, -34.914518734139946 ], [ 150.603857595272984, -34.914326232241237 ], [ 150.603840501275698, -34.914046287470754 ], [ 150.603806322595233, -34.913486121326336 ], [ 150.603792661587249, -34.913262532849053 ], [ 150.603778992102946, -34.913038936084398 ], [ 150.603661205770976, -34.913024343078924 ], [ 150.603644111642637, -34.912744388331845 ], [ 150.603761925152696, -34.912758973768902 ], [ 150.603741783251849, -34.912429019433844 ], [ 150.603723534706148, -34.912129891691542 ], [ 150.60369796163036, -34.911709902726393 ], [ 150.603688521407548, -34.911555060735253 ], [ 150.603685160753486, -34.911499913811596 ], [ 150.603684048325391, -34.911481564711671 ], [ 150.603672359824202, -34.911289664361121 ], [ 150.603646813479827, -34.91086963080128 ], [ 150.603619581573042, -34.910421719848415 ], [ 150.603592323541676, -34.909973809254396 ], [ 150.60356508400497, -34.90952568174054 ], [ 150.603447296409428, -34.909511079586252 ], [ 150.60344573612619, -34.909485515186503 ], [ 150.603375503948769, -34.909056678490167 ], [ 150.603537915260205, -34.908775434236489 ], [ 150.603882437559633, -34.908694964710762 ], [ 150.604144347975335, -34.908689184342286 ], [ 150.604149072020078, -34.908689076490987 ], [ 150.603159513434377, -34.908556925271924 ], [ 150.603127207552632, -34.908368995594266 ], [ 150.603443337077096, -34.908410153183176 ], [ 150.603239952871832, -34.90819500915957 ], [ 150.603129354304627, -34.908078469108851 ], [ 150.603110289191477, -34.907993677988998 ], [ 150.603139001097247, -34.907997578240462 ], [ 150.603096403773463, -34.907808205928596 ], [ 150.603027148479725, -34.907498320997121 ], [ 150.602998517240763, -34.907494287091986 ], [ 150.602940431685028, -34.907236008893378 ], [ 150.602878661808091, -34.906862695366868 ], [ 150.602906888956824, -34.906866505866944 ], [ 150.602807004848358, -34.906268169947843 ], [ 150.602802226464064, -34.906239557212615 ], [ 150.602764740064544, -34.906014991652413 ], [ 150.60270595456484, -34.905662789256674 ], [ 150.602660687194572, -34.905390508718071 ], [ 150.602584475904109, -34.90493408166531 ], [ 150.602581122580375, -34.904913966484592 ], [ 150.602570017204727, -34.904847463007897 ], [ 150.602607262425323, -34.904817452090292 ], [ 150.602568752651678, -34.904812378446316 ], [ 150.602535872588504, -34.904808030714847 ], [ 150.602503006679058, -34.904620814575317 ], [ 150.602651007382633, -34.904638809292827 ], [ 150.60266126071491, -34.904640162845276 ], [ 150.602612093567558, -34.90459871406069 ], [ 150.60258326558062, -34.904425602011656 ], [ 150.602530332183619, -34.904107543302402 ], [ 150.602456001984677, -34.903661023602091 ], [ 150.602397009441717, -34.903306616397956 ], [ 150.602350495042032, -34.903027236245791 ], [ 150.602303478642312, -34.902744846024696 ], [ 150.602881961588253, -34.902825307536617 ], [ 150.603213423067331, -34.902871400587543 ], [ 150.60393189701486, -34.90297133089274 ], [ 150.603876704683898, -34.903239504743532 ], [ 150.603822088139253, -34.903504908831117 ], [ 150.604257568279309, -34.903563471166969 ], [ 150.605125866126883, -34.903680253824717 ] ], [ [ 150.60666068716489, -34.909101493243035 ], [ 150.606703965462231, -34.909106853407629 ], [ 150.606710473536111, -34.909071195423238 ], [ 150.606667205126314, -34.909065834554639 ], [ 150.60666068716489, -34.909101493243035 ] ] ] ] } },
{ "type": "Feature", "properties": { "OBJECTID": 441, "Comments": "Downloaded from SEED Map Service 20250513", "FSource": "https://mapprod3.environment.nsw.gov.au/arcgis/rest/services/Planning/EPI_Primary_Planning_Layers/MapServer/2", "SourceDate": 20250513.0, "Supplier": "DOP", "EPI_NAME": "Shoalhaven Local Environmental Plan 2014", "LGA_NAME": "SHOALHAVEN", "PUBLISHED_DATE": "20230224000000", "COMMENCED_DATE": "20230426000000", "CURRENCY_DATE": "20240823000000", "AMENDMENT": "State Environmental Planning Policy Amendment (Land Use Zones) 2023", "MAP_TYPE": "LZN", "MAP_NAME": "Land Zoning Map", "LAY_NAME": "Zone", "LAY_CLASS": "Productivity Support", "PCO_REF_KEY": "2014-179", "EPI_TYPE": "LEP", "SYM_CODE": "E3", "PURPOSE": null, "arcgisonline_objectid": 586630.0, "arcgisonline_type": "arcgisonline_polygon", "multi_reader_type": "ARCGISFEATURES", "SHAPE_Length": 2453.6514462783953, "SHAPE_Area": 142901.92484043128 }, "geometry": { "type": "MultiPolygon", "coordinates": [ [ [ [ 150.602641262896014, -34.909195808029068 ], [ 150.602803305485452, -34.909381963089466 ], [ 150.602938849532137, -34.909376315586861 ], [ 150.602961778565373, -34.909557109805291 ], [ 150.603009690908209, -34.909555146236009 ], [ 150.603020617849836, -34.909736227353179 ], [ 150.602984672684499, -34.909737714918045 ], [ 150.603005898115782, -34.909918993856706 ], [ 150.603028800762786, -34.910099348512311 ], [ 150.603051605547364, -34.910280286292647 ], [ 150.603060309780119, -34.910423027623544 ], [ 150.60307369183036, -34.910642554940864 ], [ 150.603097921145519, -34.911004214990534 ], [ 150.603120106929936, -34.911366493679807 ], [ 150.603133031514915, -34.911577522675742 ], [ 150.603142255601142, -34.911728772520355 ], [ 150.603151891661071, -34.911886591484809 ], [ 150.603161526619971, -34.912044411325638 ], [ 150.603175771114337, -34.912277680691439 ], [ 150.603200896148849, -34.91268950242069 ], [ 150.603209258418332, -34.912826588264949 ], [ 150.603253386416867, -34.913595534160947 ], [ 150.603251928604834, -34.913595424260308 ], [ 150.603124054834666, -34.913585790848266 ], [ 150.603169563296944, -34.914328993243892 ], [ 150.602981866834796, -34.914488212253772 ], [ 150.603003092585283, -34.914522946091203 ], [ 150.603169849235883, -34.914795845210641 ], [ 150.603262132499509, -34.914946860781562 ], [ 150.603346474881477, -34.915080082984687 ], [ 150.603354219910614, -34.915207882151286 ], [ 150.603232067253174, -34.915334659554304 ], [ 150.60249138033538, -34.91523389511633 ], [ 150.601479702662289, -34.915096271735251 ], [ 150.599383184478825, -34.914811736136024 ], [ 150.599471176672495, -34.914371857383543 ], [ 150.599434280446388, -34.914366850611437 ], [ 150.599468118830515, -34.914308553487459 ], [ 150.599484523807035, -34.91426121457345 ], [ 150.599663931951056, -34.914036013796995 ], [ 150.600084715609427, -34.914093120752057 ], [ 150.600122788736456, -34.913915125384307 ], [ 150.600177066509303, -34.913643992627435 ], [ 150.599880869188951, -34.913603788881197 ], [ 150.599934967242973, -34.913333283719666 ], [ 150.600395842373473, -34.913395206865026 ], [ 150.600397123423562, -34.913388833453737 ], [ 150.600450137403357, -34.913124074281725 ], [ 150.60012097951568, -34.913079344507118 ], [ 150.600175275723416, -34.912808193141963 ], [ 150.600989896855737, -34.912918809065459 ], [ 150.601133654765505, -34.912200320935945 ], [ 150.601331140219429, -34.912227131438193 ], [ 150.601374535125814, -34.912010203755472 ], [ 150.601769516339203, -34.912063826549726 ], [ 150.601771291621674, -34.912054943234658 ], [ 150.6018256131496, -34.911783532739349 ], [ 150.601859049572141, -34.911616453126186 ], [ 150.601592523357851, -34.911580274160535 ], [ 150.601529892231298, -34.911571766953408 ], [ 150.601573842154892, -34.911341411719022 ], [ 150.601504102826397, -34.911070395713082 ], [ 150.60149068450059, -34.910850867604971 ], [ 150.601823786925792, -34.910837046155244 ], [ 150.601803977607716, -34.910513267899269 ], [ 150.601596077744148, -34.91052091100925 ], [ 150.601585022465144, -34.910340737809811 ], [ 150.601251858319642, -34.910354605205328 ], [ 150.601251248138084, -34.910344887791673 ], [ 150.601240751643729, -34.910173479005792 ], [ 150.60122965450293, -34.909992326847139 ], [ 150.60121855776535, -34.909811236894285 ], [ 150.601218360763909, -34.909808116577665 ], [ 150.601207164497083, -34.909625333472874 ], [ 150.601185830999412, -34.909275873323509 ], [ 150.601931419501483, -34.909101925233941 ], [ 150.601927317279376, -34.908914589984001 ], [ 150.601922835699867, -34.908655397233368 ], [ 150.601907857269879, -34.908548699463566 ], [ 150.601803067757714, -34.908368855391487 ], [ 150.602526749454512, -34.908467423810144 ], [ 150.60270170854875, -34.90849126764661 ], [ 150.602644176572085, -34.90874747498593 ], [ 150.602450868243722, -34.908981130029353 ], [ 150.602641262896014, -34.909195808029068 ] ] ] ] } },
{ "type": "Feature", "properties": { "OBJECTID": 753, "Comments": "Downloaded from SEED Map Service 20250513", "FSource": "https://mapprod3.environment.nsw.gov.au/arcgis/rest/services/Planning/EPI_Primary_Planning_Layers/MapServer/2", "SourceDate": 20250513.0, "Supplier": "DOP", "EPI_NAME": "Shoalhaven Local Environmental Plan 2014", "LGA_NAME": "SHOALHAVEN", "PUBLISHED_DATE": "20230224000000", "COMMENCED_DATE": "20230426000000", "CURRENCY_DATE": "20240823000000", "AMENDMENT": "State Environmental Planning Policy Amendment (Land Use Zones) 2023", "MAP_TYPE": "LZN", "MAP_NAME": "Land Zoning Map", "LAY_NAME": "Zone", "LAY_CLASS": "Productivity Support", "PCO_REF_KEY": "2014-179", "EPI_TYPE": "LEP", "SYM_CODE": "E3", "PURPOSE": null, "arcgisonline_objectid": 587476.0, "arcgisonline_type": "arcgisonline_polygon", "multi_reader_type": "ARCGISFEATURES", "SHAPE_Length": 220.1740755390887, "SHAPE_Area": 1914.9630008891561 }, "geometry": { "type": "MultiPolygon", "coordinates": [ [ [ [ 150.601191601106194, -34.889907576210931 ], [ 150.601257440010244, -34.890152427690381 ], [ 150.601216520321628, -34.890120793491178 ], [ 150.601000829636433, -34.890089956213451 ], [ 150.600886879835571, -34.889889789572493 ], [ 150.600851831032344, -34.889605344190926 ], [ 150.600699282705534, -34.889583533972235 ], [ 150.600702715960097, -34.889500329783985 ], [ 150.60070499378952, -34.889444887452193 ], [ 150.60108129989527, -34.889498691486089 ], [ 150.601118985007048, -34.889638376988295 ], [ 150.601191601106194, -34.889907576210931 ] ] ] ] } }
]
}
