{
"type": "FeatureCollection",
"name": "E4_General Industrial",
"crs": { "type": "name", "properties": { "name": "urn:ogc:def:crs:OGC:1.3:CRS84" } },
"features": [
{ "type": "Feature", "properties": { "OBJECTID": 191, "Comments": "Downloaded from SEED Map Service 20250513", "FSource": "https://mapprod3.environment.nsw.gov.au/arcgis/rest/services/Planning/EPI_Primary_Planning_Layers/MapServer/2", "SourceDate": 20250513.0, "Supplier": "DOP", "EPI_NAME": "Shoalhaven Local Environmental Plan 2014", "LGA_NAME": "SHOALHAVEN", "PUBLISHED_DATE": "20230224000000", "COMMENCED_DATE": "20230426000000", "CURRENCY_DATE": "20240823000000", "AMENDMENT": "State Environmental Planning Policy Amendment (Land Use Zones) 2023", "MAP_TYPE": "LZN", "MAP_NAME": "Land Zoning Map", "LAY_NAME": "Zone", "LAY_CLASS": "General Industrial", "PCO_REF_KEY": "2014-179", "EPI_TYPE": "LEP", "SYM_CODE": "E4", "PURPOSE": null, "arcgisonline_objectid": 585705.0, "arcgisonline_type": "arcgisonline_polygon", "multi_reader_type": "ARCGISFEATURES", "SHAPE_Length": 2298.654703339022, "SHAPE_Area": 236173.95405083877 }, "geometry": { "type": "MultiPolygon", "coordinates": [ [ [ [ 150.660981589736622, -35.027608013062995 ], [ 150.66131979051471, -35.028243989932257 ], [ 150.661480498078475, -35.02818618995709 ], [ 150.661621043869729, -35.028135417539069 ], [ 150.661697398433773, -35.028383505291941 ], [ 150.661621625834044, -35.028361723221657 ], [ 150.661420761815975, -35.028433945380172 ], [ 150.661552420048992, -35.028681698640376 ], [ 150.661552440877415, -35.028681736904183 ], [ 150.661779399719819, -35.028895259062146 ], [ 150.662002683865609, -35.029105321305202 ], [ 150.662374508966138, -35.029455059602789 ], [ 150.662374760743887, -35.029455300643775 ], [ 150.66250518751977, -35.029372196182514 ], [ 150.66263529933417, -35.029288866444531 ], [ 150.662800151789156, -35.029446556432184 ], [ 150.662670392850117, -35.029529190889953 ], [ 150.662544368546207, -35.029609482109031 ], [ 150.662540953151364, -35.029611651058737 ], [ 150.662919080552655, -35.02996737786102 ], [ 150.663468940617264, -35.03035390009903 ], [ 150.663126157968151, -35.030572284975413 ], [ 150.662866236316233, -35.030737876522075 ], [ 150.66230796881328, -35.031093549718285 ], [ 150.662303737744992, -35.031094456188406 ], [ 150.661618895617522, -35.031242101658606 ], [ 150.660823179794363, -35.031524737221019 ], [ 150.660469030708867, -35.031650528416812 ], [ 150.660114880508786, -35.031776321235654 ], [ 150.659659544680437, -35.031938049699342 ], [ 150.659204226828223, -35.032099777659383 ], [ 150.658813674586952, -35.032238495280204 ], [ 150.658535817192728, -35.03365931662303 ], [ 150.658534594283168, -35.033659807757992 ], [ 150.657955503882505, -35.033892360167208 ], [ 150.657485027397428, -35.034081294556714 ], [ 150.656353720881896, -35.032567574720105 ], [ 150.656353836726851, -35.032567087455071 ], [ 150.656480392737024, -35.032030254975908 ], [ 150.656640554638471, -35.031350866071811 ], [ 150.65674362416425, -35.030913629249824 ], [ 150.656950173378931, -35.030037480958718 ], [ 150.6569918919987, -35.029860496016198 ], [ 150.65718797244844, -35.029028718559765 ], [ 150.657188166859328, -35.029028626758191 ], [ 150.657585130747151, -35.028844248983773 ], [ 150.658062257978145, -35.028622640597334 ], [ 150.658539385075841, -35.028401023959212 ], [ 150.659016502814836, -35.028179415117982 ], [ 150.659666186526863, -35.027877633677896 ], [ 150.65970202465374, -35.02786098701236 ], [ 150.660115758087585, -35.027779199142074 ], [ 150.660386398459906, -35.02772568406688 ], [ 150.660981589736622, -35.027608013062995 ] ], [ [ 150.657228773873129, -35.030010238315214 ], [ 150.657453984487944, -35.030055524646606 ], [ 150.657455706040537, -35.03004946569186 ], [ 150.657457516974546, -35.030043423788648 ], [ 150.657459408501325, -35.03003739966865 ], [ 150.657461389383769, -35.030031393501154 ], [ 150.657463442070423, -35.030025405848619 ], [ 150.657465593996562, -35.030019435437985 ], [ 150.657467817469723, -35.030013492552143 ], [ 150.657470130298435, -35.030007567618782 ], [ 150.657472522624516, -35.030001660447461 ], [ 150.657474997502504, -35.029995779210523 ], [ 150.657477551569201, -35.029989926547437 ], [ 150.657480196138209, -35.029984090055969 ], [ 150.657482912228403, -35.029978281990275 ], [ 150.657485718280753, -35.029972509016837 ], [ 150.657488595041798, -35.029966754537156 ], [ 150.657491562022187, -35.029961026139908 ], [ 150.657257396178863, -35.029913911782252 ], [ 150.657228773873129, -35.030010238315214 ] ] ] ] } },
{ "type": "Feature", "properties": { "OBJECTID": 308, "Comments": "Downloaded from SEED Map Service 20250513", "FSource": "https://mapprod3.environment.nsw.gov.au/arcgis/rest/services/Planning/EPI_Primary_Planning_Layers/MapServer/2", "SourceDate": 20250513.0, "Supplier": "DOP", "EPI_NAME": "Shoalhaven Local Environmental Plan 2014", "LGA_NAME": "SHOALHAVEN", "PUBLISHED_DATE": "20230224000000", "COMMENCED_DATE": "20230426000000", "CURRENCY_DATE": "20240823000000", "AMENDMENT": "State Environmental Planning Policy Amendment (Land Use Zones) 2023", "MAP_TYPE": "LZN", "MAP_NAME": "Land Zoning Map", "LAY_NAME": "Zone", "LAY_CLASS": "General Industrial", "PCO_REF_KEY": "2014-179", "EPI_TYPE": "LEP", "SYM_CODE": "E4", "PURPOSE": null, "arcgisonline_objectid": 586113.0, "arcgisonline_type": "arcgisonline_polygon", "multi_reader_type": "ARCGISFEATURES", "SHAPE_Length": 1547.3219306015365, "SHAPE_Area": 112157.70772092677 }, "geometry": { "type": "MultiPolygon", "coordinates": [ [ [ [ 150.603232067253174, -34.915334659554304 ], [ 150.602704175250153, -34.916165941740985 ], [ 150.602704273068838, -34.916166491773041 ], [ 150.602894444643852, -34.917234245067327 ], [ 150.60179735638846, -34.917098721592573 ], [ 150.601795732712844, -34.917100397839953 ], [ 150.601111115096614, -34.917803844884119 ], [ 150.600953232155177, -34.917966074284692 ], [ 150.600806786332072, -34.917946047864504 ], [ 150.600704220085476, -34.91793203829242 ], [ 150.598569578106265, -34.917640268709825 ], [ 150.598548861844023, -34.91763740075136 ], [ 150.598197838099878, -34.917588869647624 ], [ 150.598226829555927, -34.917562632021777 ], [ 150.598211197677898, -34.917483893128065 ], [ 150.598226687815526, -34.917439754629363 ], [ 150.598231931016841, -34.917422866297336 ], [ 150.598225682993757, -34.917411034301836 ], [ 150.598224446612761, -34.917408694848056 ], [ 150.598249710540443, -34.917264733892679 ], [ 150.598304775598848, -34.917235607861215 ], [ 150.598269636515511, -34.917150710132688 ], [ 150.5982931113235, -34.91701743509654 ], [ 150.598301036548321, -34.916995002499171 ], [ 150.598337520322247, -34.916970413964783 ], [ 150.598335837908877, -34.91689554693226 ], [ 150.598465732072896, -34.916524991427963 ], [ 150.598566068057892, -34.916023439398991 ], [ 150.598354867143115, -34.915995310010942 ], [ 150.59842539603477, -34.915957563214462 ], [ 150.598436385974793, -34.915943525397992 ], [ 150.598520899338723, -34.915873741461418 ], [ 150.598591274810047, -34.915810607615278 ], [ 150.5986284755773, -34.915725038014159 ], [ 150.598738464106418, -34.915678622779318 ], [ 150.598780174486706, -34.915649400141284 ], [ 150.598973824253477, -34.91567506422804 ], [ 150.599076900839634, -34.915159717249011 ], [ 150.599082656000974, -34.915127949215972 ], [ 150.599170001897761, -34.91509004038268 ], [ 150.599184227754193, -34.915044108930253 ], [ 150.599168120098454, -34.915019359473206 ], [ 150.59917666271275, -34.91498507280383 ], [ 150.599249818810733, -34.914841810311657 ], [ 150.599279300901912, -34.914812659491361 ], [ 150.599284176425499, -34.914799061452442 ], [ 150.599294637509303, -34.91476991958713 ], [ 150.599276602738627, -34.914701587779 ], [ 150.599287816997986, -34.914624613754469 ], [ 150.599370492572916, -34.914476735337026 ], [ 150.599434280446388, -34.914366850611437 ], [ 150.599471176672495, -34.914371857383543 ], [ 150.599383184478825, -34.914811736136024 ], [ 150.601479702662289, -34.915096271735251 ], [ 150.60249138033538, -34.91523389511633 ], [ 150.603232067253174, -34.915334659554304 ] ] ] ] } },
{ "type": "Feature", "properties": { "OBJECTID": 360, "Comments": "Downloaded from SEED Map Service 20250513", "FSource": "https://mapprod3.environment.nsw.gov.au/arcgis/rest/services/Planning/EPI_Primary_Planning_Layers/MapServer/2", "SourceDate": 20250513.0, "Supplier": "DOP", "EPI_NAME": "Shoalhaven Local Environmental Plan 2014", "LGA_NAME": "SHOALHAVEN", "PUBLISHED_DATE": "20230224000000", "COMMENCED_DATE": "20230426000000", "CURRENCY_DATE": "20240823000000", "AMENDMENT": "State Environmental Planning Policy Amendment (Land Use Zones) 2023", "MAP_TYPE": "LZN", "MAP_NAME": "Land Zoning Map", "LAY_NAME": "Zone", "LAY_CLASS": "General Industrial", "PCO_REF_KEY": "2014-179", "EPI_TYPE": "LEP", "SYM_CODE": "E4", "PURPOSE": null, "arcgisonline_objectid": 586441.0, "arcgisonline_type": "arcgisonline_polygon", "multi_reader_type": "ARCGISFEATURES", "SHAPE_Length": 9112.0059153622915, "SHAPE_Area": 3109551.4334726944 }, "geometry": { "type": "MultiPolygon", "coordinates": [ [ [ [ 150.585445010052439, -34.902392568741817 ], [ 150.584741139364638, -34.907107670406113 ], [ 150.586930199958204, -34.907412618992211 ], [ 150.587398604853234, -34.907476139376548 ], [ 150.588859976241196, -34.907675007325828 ], [ 150.590991866046181, -34.907962896684168 ], [ 150.591339596853089, -34.908009160316936 ], [ 150.591667580066996, -34.908051793302825 ], [ 150.591670673158035, -34.908052223335851 ], [ 150.592591293527192, -34.908177584440892 ], [ 150.593719090229342, -34.908331030546123 ], [ 150.597500453827536, -34.90884542115743 ], [ 150.597797585200027, -34.908246808081245 ], [ 150.599383209390396, -34.908063810699097 ], [ 150.599607874500123, -34.908048992315713 ], [ 150.600517765622897, -34.908193760829349 ], [ 150.60171185887279, -34.90835643147382 ], [ 150.601803067757714, -34.908368855391487 ], [ 150.601907857269879, -34.908548699463566 ], [ 150.601922835699867, -34.908655397233368 ], [ 150.601927317279376, -34.908914589984001 ], [ 150.601931419501483, -34.909101925233941 ], [ 150.601185830999412, -34.909275873323509 ], [ 150.601207164497083, -34.909625333472874 ], [ 150.601218360763909, -34.909808116577665 ], [ 150.60121855776535, -34.909811236894285 ], [ 150.60122965450293, -34.909992326847139 ], [ 150.601240751643729, -34.910173479005792 ], [ 150.601251248138084, -34.910344887791673 ], [ 150.601251858319642, -34.910354605205328 ], [ 150.601585022465144, -34.910340737809811 ], [ 150.601596077744148, -34.91052091100925 ], [ 150.601803977607716, -34.910513267899269 ], [ 150.601823786925792, -34.910837046155244 ], [ 150.60149068450059, -34.910850867604971 ], [ 150.601504102826397, -34.911070395713082 ], [ 150.601573842154892, -34.911341411719022 ], [ 150.601529892231298, -34.911571766953408 ], [ 150.601592523357851, -34.911580274160535 ], [ 150.601859049572141, -34.911616453126186 ], [ 150.6018256131496, -34.911783532739349 ], [ 150.601771291621674, -34.912054943234658 ], [ 150.601769516339203, -34.912063826549726 ], [ 150.601374535125814, -34.912010203755472 ], [ 150.601331140219429, -34.912227131438193 ], [ 150.601133654765505, -34.912200320935945 ], [ 150.600989896855737, -34.912918809065459 ], [ 150.600175275723416, -34.912808193141963 ], [ 150.60012097951568, -34.913079344507118 ], [ 150.600450137403357, -34.913124074281725 ], [ 150.600397123423562, -34.913388833453737 ], [ 150.600395842373473, -34.913395206865026 ], [ 150.599934967242973, -34.913333283719666 ], [ 150.599880869188951, -34.913603788881197 ], [ 150.600177066509303, -34.913643992627435 ], [ 150.600122788736456, -34.913915125384307 ], [ 150.600084715609427, -34.914093120752057 ], [ 150.599663931951056, -34.914036013796995 ], [ 150.59953413239262, -34.914018398282032 ], [ 150.599463235078758, -34.914056846160449 ], [ 150.5993939074107, -34.914017511809341 ], [ 150.599361242601447, -34.914031316036528 ], [ 150.599324606023231, -34.914050086442728 ], [ 150.599267434146384, -34.914080205358239 ], [ 150.599242666294032, -34.914116930764841 ], [ 150.599168587145073, -34.914328830084251 ], [ 150.599170855882022, -34.914331833593508 ], [ 150.599213926992945, -34.91438889686782 ], [ 150.599231755854504, -34.914426312805112 ], [ 150.59920610145042, -34.914459129880633 ], [ 150.599172271139963, -34.914490243803577 ], [ 150.59910309512199, -34.914667443688501 ], [ 150.599027322675113, -34.914763435663005 ], [ 150.598889510021394, -34.914744730704342 ], [ 150.59848426021162, -34.914689724255375 ], [ 150.598475641865178, -34.914708086505378 ], [ 150.598472683120434, -34.91472605763429 ], [ 150.598468434979509, -34.914756428388557 ], [ 150.598448149798344, -34.914771577847965 ], [ 150.598440727294843, -34.914777520590356 ], [ 150.598332629702213, -34.914865662888687 ], [ 150.598314953172547, -34.914880749419801 ], [ 150.598291584258874, -34.91490309660243 ], [ 150.598270044104908, -34.914926644657214 ], [ 150.598250411927381, -34.914951304101997 ], [ 150.598232788224067, -34.914976968747226 ], [ 150.598217236646065, -34.915003519955469 ], [ 150.598203825709675, -34.915030859919518 ], [ 150.598192612425237, -34.91505887257491 ], [ 150.598186516418991, -34.915077428016602 ], [ 150.598170363278484, -34.915131076672182 ], [ 150.598167494883683, -34.915141063353374 ], [ 150.598160816239727, -34.915170033805893 ], [ 150.598156460010529, -34.915199301698166 ], [ 150.59815543799661, -34.915210147944642 ], [ 150.59811946486559, -34.915285544120856 ], [ 150.598114947496271, -34.915295332317875 ], [ 150.598108251430602, -34.915311306665537 ], [ 150.598089032407415, -34.915322349260357 ], [ 150.598060822155446, -34.9153405106291 ], [ 150.598034109994785, -34.915360141283884 ], [ 150.598009018341628, -34.91538117152821 ], [ 150.597985658211172, -34.915403509804555 ], [ 150.597964109057045, -34.915427058522283 ], [ 150.597944478850167, -34.915451717950397 ], [ 150.597926854964015, -34.915477381640088 ], [ 150.597911301829157, -34.915503941787264 ], [ 150.597898762416349, -34.915529497788832 ], [ 150.597897891795583, -34.915531281729642 ], [ 150.59788885571669, -34.915553341659248 ], [ 150.597824754356765, -34.915591654295461 ], [ 150.597823947908381, -34.915592137765863 ], [ 150.597779575700088, -34.915618654361552 ], [ 150.597778320367524, -34.915619406609537 ], [ 150.597750111302105, -34.915637558910312 ], [ 150.597723407721162, -34.915657189662006 ], [ 150.597698316754844, -34.915678227964548 ], [ 150.597674947678087, -34.915700566901108 ], [ 150.597653407132128, -34.915724114827981 ], [ 150.597633775665344, -34.915748774176436 ], [ 150.59761614393318, -34.915774438562842 ], [ 150.597600591995075, -34.915800989674679 ], [ 150.597587181806119, -34.915828329575341 ], [ 150.597575976940789, -34.915856342330528 ], [ 150.597572695874987, -34.915865915165256 ], [ 150.597554399293927, -34.915889006183626 ], [ 150.597539931321194, -34.91590975786373 ], [ 150.597508943373867, -34.915957115413008 ], [ 150.59750577874911, -34.915962018171783 ], [ 150.597490225380795, -34.915988578253831 ], [ 150.597476816215419, -34.916015918160433 ], [ 150.597465601702396, -34.916043921697728 ], [ 150.597456637786479, -34.916072471878991 ], [ 150.597449959840873, -34.916101444098629 ], [ 150.597445593473651, -34.916130710853309 ], [ 150.597443568563108, -34.916160148329965 ], [ 150.597443872356109, -34.916189630970607 ], [ 150.597446525770607, -34.916219041996492 ], [ 150.5974515100161, -34.916248237700323 ], [ 150.597457551435383, -34.916272780136687 ], [ 150.597445073796933, -34.916303715541794 ], [ 150.597440393729585, -34.916315888514582 ], [ 150.59742789867181, -34.916334470576814 ], [ 150.597412345175144, -34.916361031544469 ], [ 150.597402574576506, -34.916380949405003 ], [ 150.597398935916402, -34.916388371437407 ], [ 150.597387730095619, -34.916416374234934 ], [ 150.597378766341137, -34.916444916297436 ], [ 150.597372088382883, -34.916473886706925 ], [ 150.597367721934205, -34.916503154356192 ], [ 150.597365688228393, -34.916532591655283 ], [ 150.597366001568332, -34.916562083497752 ], [ 150.597366826114182, -34.916574417646956 ], [ 150.597372160329741, -34.916638079390538 ], [ 150.59737398831885, -34.916655148136194 ], [ 150.597378962737707, -34.91668434274542 ], [ 150.597383883334231, -34.916704798233525 ], [ 150.597396845707465, -34.916752845776443 ], [ 150.597399212695763, -34.916761262852489 ], [ 150.597408785647247, -34.916789678500052 ], [ 150.597413527398743, -34.916801591620221 ], [ 150.597413007781654, -34.916802559448094 ], [ 150.597399597322351, -34.916829900215703 ], [ 150.597388383776121, -34.916857902857537 ], [ 150.597379419728242, -34.916886453024908 ], [ 150.597372740841422, -34.916915416201718 ], [ 150.597368385324415, -34.916944683163521 ], [ 150.597366350215708, -34.916974130349196 ], [ 150.59736666383705, -34.917003612279188 ], [ 150.59736931640154, -34.917033014271858 ], [ 150.597374291638346, -34.917062218812696 ], [ 150.5973815893515, -34.917091082562109 ], [ 150.597389252677175, -34.917114388701307 ], [ 150.597384842438714, -34.917177324896777 ], [ 150.597380530590442, -34.917217743140434 ], [ 150.597367658280859, -34.917268363575182 ], [ 150.597363031846271, -34.917289204441431 ], [ 150.597362584254626, -34.917291230229552 ], [ 150.597358218861928, -34.917320496993653 ], [ 150.597356192745366, -34.917349935340432 ], [ 150.597356506356419, -34.917379417268705 ], [ 150.597358639515505, -34.917403135965159 ], [ 150.597354265408939, -34.917404399852117 ], [ 150.597321314212991, -34.917415918878646 ], [ 150.597289348219306, -34.917429194540354 ], [ 150.597258503051137, -34.917444154698146 ], [ 150.597233617730922, -34.917455564629869 ], [ 150.597167230813398, -34.917446386712314 ], [ 150.597022516698331, -34.917426380102299 ], [ 150.596937287253326, -34.91741460078979 ], [ 150.596701883308157, -34.91746170675637 ], [ 150.592163727255212, -34.918369925301789 ], [ 150.592156717151624, -34.918404687106964 ], [ 150.592127637995333, -34.918548791761452 ], [ 150.592100486008292, -34.918682149310442 ], [ 150.591749264000981, -34.920407453836539 ], [ 150.591718309261438, -34.920564184211536 ], [ 150.591713496975615, -34.920560210619996 ], [ 150.591563305694848, -34.920436183398451 ], [ 150.591354193440367, -34.920436128985855 ], [ 150.590889921210731, -34.920620401980138 ], [ 150.5908869635158, -34.920621576532312 ], [ 150.590700207384742, -34.920595446545825 ], [ 150.590698781327376, -34.920595257791881 ], [ 150.59069167393514, -34.920594541648924 ], [ 150.590684520553793, -34.920594200509974 ], [ 150.590677366571384, -34.920594254206506 ], [ 150.590670222122185, -34.920594693023318 ], [ 150.590669792018332, -34.920594729564606 ], [ 150.590450327344541, -34.92061482630703 ], [ 150.589713584542892, -34.920447495359575 ], [ 150.589708422471347, -34.920446428328233 ], [ 150.58970138438454, -34.920445326768693 ], [ 150.58969785340139, -34.920444922242112 ], [ 150.589005880287402, -34.920374823811621 ], [ 150.589002312740064, -34.920374509588385 ], [ 150.588995159390777, -34.920374168350904 ], [ 150.588988006526222, -34.920374221970327 ], [ 150.588987190350736, -34.920374249038247 ], [ 150.588615553553666, -34.920389183074036 ], [ 150.588609225557946, -34.920389585694856 ], [ 150.588602134373616, -34.920390411280373 ], [ 150.588595124155006, -34.920391611685261 ], [ 150.588588222168909, -34.920393190155359 ], [ 150.588581462957052, -34.920395125741038 ], [ 150.588574875736583, -34.9203974298402 ], [ 150.588568475043786, -34.92040009192376 ], [ 150.588562306780716, -34.920403076844046 ], [ 150.588556391202928, -34.920406403032828 ], [ 150.588550744731549, -34.92041003295413 ], [ 150.588545401486613, -34.920413960073638 ], [ 150.588540390514311, -34.920418164234114 ], [ 150.58853571122188, -34.920422628295725 ], [ 150.5885313999961, -34.920427343064794 ], [ 150.588527473205431, -34.920432272807204 ], [ 150.588523949972625, -34.92043739987313 ], [ 150.58852084037963, -34.920442716349491 ], [ 150.588518151029575, -34.92044818360386 ], [ 150.5885159108106, -34.920453786884721 ], [ 150.588514117548783, -34.920459488286866 ], [ 150.588512781115213, -34.920465287104804 ], [ 150.588511912593844, -34.920471141189175 ], [ 150.588511500559065, -34.920477029579111 ], [ 150.58851156213052, -34.920482928274616 ], [ 150.588512091562762, -34.920488809215783 ], [ 150.588513086391828, -34.920494644407825 ], [ 150.588514548212657, -34.920500416754344 ], [ 150.588516458100969, -34.920506099736649 ], [ 150.588518823384589, -34.920511667357353 ], [ 150.588521620579257, -34.920517099317621 ], [ 150.588524838391152, -34.920522370151744 ], [ 150.588528469098009, -34.920527444548661 ], [ 150.588532502908066, -34.920532320511015 ], [ 150.588536913213716, -34.920536972268998 ], [ 150.588541672313426, -34.920541374031146 ], [ 150.588546782975072, -34.920545506019828 ], [ 150.588552206268673, -34.920549352136881 ], [ 150.588557925009127, -34.920552901223296 ], [ 150.588563912298724, -34.920556137419808 ], [ 150.588570142412607, -34.920559042186014 ], [ 150.588576588294785, -34.920561605068379 ], [ 150.588583229346796, -34.920563819347571 ], [ 150.588590024529964, -34.920565666179058 ], [ 150.588596963169493, -34.920567136336118 ], [ 150.588603990256843, -34.920568239544224 ], [ 150.588611098688773, -34.920568956731273 ], [ 150.588618253198575, -34.920569296211802 ], [ 150.588625406052643, -34.920569243515843 ], [ 150.588626212385464, -34.920569216254975 ], [ 150.588988482296259, -34.920554658771188 ], [ 150.589663155052222, -34.920623010370598 ], [ 150.590412427594515, -34.920793192821698 ], [ 150.590417589988277, -34.920794249913769 ], [ 150.590424628090346, -34.920795352334288 ], [ 150.590431735470219, -34.920796069394441 ], [ 150.590438880116324, -34.920796410375331 ], [ 150.590446042866404, -34.920796356867207 ], [ 150.590453177488939, -34.920795917869057 ], [ 150.590453607593872, -34.92079588132858 ], [ 150.590678712493769, -34.920775264548219 ], [ 150.590823507588738, -34.920795522917089 ], [ 150.590816838559562, -34.920810394838497 ], [ 150.590878618700117, -34.920901351808673 ], [ 150.591272560414268, -34.921149242298036 ], [ 150.59149269844437, -34.921221994479303 ], [ 150.591591145135084, -34.921208334114453 ], [ 150.5912636172595, -34.922867278548317 ], [ 150.590998419791447, -34.92292358565571 ], [ 150.590964634782665, -34.9229291528072 ], [ 150.590943648862066, -34.922939327085984 ], [ 150.59092901148756, -34.922947241984723 ], [ 150.590899358458017, -34.922963843150328 ], [ 150.590884397522728, -34.922972529601111 ], [ 150.590856107438299, -34.922990729972099 ], [ 150.590838950358147, -34.922992061857414 ], [ 150.590803498439897, -34.922996167051366 ], [ 150.590768438847533, -34.923002164108667 ], [ 150.590733945873637, -34.923010043866661 ], [ 150.590721028791592, -34.923013513419768 ], [ 150.590686679271442, -34.923023149386253 ], [ 150.590665784030364, -34.923029397671606 ], [ 150.590650598974037, -34.923034443982438 ], [ 150.590621798249884, -34.923044428906628 ], [ 150.590604022365284, -34.923050901334065 ], [ 150.590572057475555, -34.92306417697074 ], [ 150.590541203442399, -34.923079138768216 ], [ 150.590517009441783, -34.923092530704302 ], [ 150.59050476447635, -34.923094162833173 ], [ 150.590469714432942, -34.923100168105435 ], [ 150.590435211549106, -34.923108047580236 ], [ 150.590401417781806, -34.923117764806392 ], [ 150.590368457870198, -34.923129283495868 ], [ 150.590336492084646, -34.923142550036289 ], [ 150.590322706172145, -34.923148967270151 ], [ 150.590318304340684, -34.923150079796535 ], [ 150.590284500699113, -34.923159796793442 ], [ 150.590251548413022, -34.923171315601699 ], [ 150.590247918607901, -34.923172713888171 ], [ 150.59024521163127, -34.923170365009646 ], [ 150.590219681487042, -34.923149695045389 ], [ 150.590192565624335, -34.923130439582025 ], [ 150.590191060234559, -34.92312944422666 ], [ 150.590170264010965, -34.923115729342406 ], [ 150.590143174343297, -34.923098984104712 ], [ 150.590133556474711, -34.923093534926437 ], [ 150.590103580770261, -34.923076933440335 ], [ 150.59008326807924, -34.923066221045886 ], [ 150.590068871572385, -34.923059238275009 ], [ 150.590012344471688, -34.923032748919134 ], [ 150.58999557269874, -34.923025211470971 ], [ 150.589963329942861, -34.923012401654951 ], [ 150.589930136110041, -34.923001348868972 ], [ 150.589896136011845, -34.922992116385174 ], [ 150.589894476524734, -34.922991712042474 ], [ 150.589889510806216, -34.922989427409078 ], [ 150.58987641500093, -34.922983590967029 ], [ 150.589844171187536, -34.922970781099004 ], [ 150.589810978456626, -34.922959729204358 ], [ 150.589776977323197, -34.922950495765697 ], [ 150.589742323444881, -34.922943110014508 ], [ 150.589707148282059, -34.922937605209526 ], [ 150.589671615149058, -34.922934010734551 ], [ 150.589615922404533, -34.922932244580096 ], [ 150.589570851682282, -34.922927305078858 ], [ 150.589547652493223, -34.922925172370448 ], [ 150.589511904298234, -34.922923504547228 ], [ 150.589476110920401, -34.92292375506441 ], [ 150.58944040778664, -34.922925933821872 ], [ 150.589404954731691, -34.922930039484889 ], [ 150.589369897014336, -34.922936045188237 ], [ 150.589335404222226, -34.922943915534944 ], [ 150.589301601397466, -34.922953641288395 ], [ 150.589268649074143, -34.922965159827903 ], [ 150.589236675510676, -34.922978426823292 ], [ 150.589205821288346, -34.922993388272886 ], [ 150.58920021815544, -34.922996354690753 ], [ 150.589157916904327, -34.923019042632625 ], [ 150.589102941404292, -34.923046885114815 ], [ 150.589096621694893, -34.923050139297402 ], [ 150.58906702217439, -34.923066731152041 ], [ 150.589049444813298, -34.923077748036697 ], [ 150.589018025701421, -34.92309828378233 ], [ 150.589007395223462, -34.923105409869017 ], [ 150.588980681570263, -34.923125041986538 ], [ 150.588955583017963, -34.923146071001334 ], [ 150.588932213778577, -34.923168409034069 ], [ 150.588910665383054, -34.923191957838874 ], [ 150.588904202441569, -34.923199694022053 ], [ 150.588896500951165, -34.923206442835962 ], [ 150.588873132745789, -34.923228781778434 ], [ 150.588851583249635, -34.923252329648548 ], [ 150.588831952956184, -34.923276981166545 ], [ 150.588814321153706, -34.923302645055401 ], [ 150.588807041993476, -34.923314521743691 ], [ 150.588779943952119, -34.923360408949364 ], [ 150.588771661066886, -34.923375091840825 ], [ 150.588758242192199, -34.923402432279929 ], [ 150.588758000187426, -34.92340299720918 ], [ 150.588754208027098, -34.923408034198836 ], [ 150.588736576170533, -34.923433698073751 ], [ 150.588721015124264, -34.923460259466907 ], [ 150.588707606088775, -34.923487599193351 ], [ 150.58869638306993, -34.923515602539787 ], [ 150.588687418702278, -34.92354414384063 ], [ 150.588685079320243, -34.923554291306623 ], [ 150.588662804484215, -34.923554452110608 ], [ 150.588627108725973, -34.923556630768601 ], [ 150.588591656465155, -34.923560736202631 ], [ 150.588556598668646, -34.923566733548491 ], [ 150.588522096530085, -34.92357461248514 ], [ 150.58848830237423, -34.923584329160867 ], [ 150.588455340915289, -34.923595848190679 ], [ 150.588423367839141, -34.923609123085534 ], [ 150.588392523083115, -34.923624084506756 ], [ 150.588362923191397, -34.923640677074971 ], [ 150.588334713650482, -34.923658828857548 ], [ 150.588308000778511, -34.923678459932262 ], [ 150.588282901859202, -34.923699489693249 ], [ 150.588277228016977, -34.923704644352647 ], [ 150.588246866752968, -34.923719389066022 ], [ 150.588217277737442, -34.923735981813131 ], [ 150.588189058261207, -34.923754134264378 ], [ 150.588162346418045, -34.923773765325798 ], [ 150.588148497015254, -34.923785033701769 ], [ 150.588091727933033, -34.923832873631056 ], [ 150.588080487088348, -34.923842635150876 ], [ 150.588057117412575, -34.923864972995005 ], [ 150.588035568555426, -34.923888522525274 ], [ 150.58801592911135, -34.923913173718965 ], [ 150.588000771236409, -34.923935000342681 ], [ 150.587938570223542, -34.924030601693644 ], [ 150.58793609677744, -34.924034446049603 ], [ 150.587927849940286, -34.924047964883862 ], [ 150.587874495934813, -34.924139262472679 ], [ 150.587867181568612, -34.924152296798709 ], [ 150.587864385396529, -34.924157593334215 ], [ 150.587842754701768, -34.924199259105428 ], [ 150.58782515057311, -34.924207774570775 ], [ 150.587791336969389, -34.92420435071508 ], [ 150.587755589381146, -34.924202682375366 ], [ 150.58771978778924, -34.924202933100482 ], [ 150.587684082989455, -34.924205111294562 ], [ 150.587648631484541, -34.924209217362083 ], [ 150.587613582107849, -34.924215214594703 ], [ 150.587579079619672, -34.924223093247711 ], [ 150.5875452763201, -34.924232810371613 ], [ 150.587513276124128, -34.924243970512563 ], [ 150.587505916179765, -34.92424458064292 ], [ 150.587470455097218, -34.924248676551251 ], [ 150.587435405720072, -34.924254672830216 ], [ 150.587400903148392, -34.924262553233049 ], [ 150.587369171226641, -34.924271615517092 ], [ 150.587340799957246, -34.924276625706426 ], [ 150.587324718496149, -34.924280050052722 ], [ 150.587322585562077, -34.924279404588773 ], [ 150.587288585518564, -34.924270163258072 ], [ 150.587253921512939, -34.924262776588648 ], [ 150.587218755793657, -34.924257273044844 ], [ 150.587183213496019, -34.924253677649325 ], [ 150.587172465183386, -34.924252970088531 ], [ 150.587117050897206, -34.924249778557481 ], [ 150.58709206715119, -34.924248810684396 ], [ 150.587056265548966, -34.924249061212855 ], [ 150.587020562647183, -34.924251248263197 ], [ 150.587001585705707, -34.924253193403878 ], [ 150.586948904269519, -34.924259387293532 ], [ 150.586943346258721, -34.924260060238737 ], [ 150.586909632755578, -34.924260356722215 ], [ 150.586873930137898, -34.924262533818585 ], [ 150.586838477488044, -34.92426663962501 ], [ 150.586826483738463, -34.92426846838358 ], [ 150.586807076240774, -34.924271622834361 ], [ 150.586790251137984, -34.924268037766439 ], [ 150.586755085455536, -34.924262534089458 ], [ 150.586719552199099, -34.924258929723273 ], [ 150.586717033466101, -34.924258750759414 ], [ 150.586666360242049, -34.924255200695683 ], [ 150.586658561133305, -34.924254698638428 ], [ 150.586640696609749, -34.924250092253686 ], [ 150.586606041459191, -34.924242704674882 ], [ 150.586570867025529, -34.924237201672497 ], [ 150.586535333527337, -34.924233606262668 ], [ 150.586499585091417, -34.924231930324183 ], [ 150.58646929976922, -34.924232036092619 ], [ 150.585026489643639, -34.923433280252894 ], [ 150.582154836743314, -34.921842462934279 ], [ 150.582118021449418, -34.921815830535628 ], [ 150.582092482136886, -34.921800816394438 ], [ 150.582068127879467, -34.921786446058412 ], [ 150.582041414194947, -34.921771431963656 ], [ 150.582018234811841, -34.921757716945059 ], [ 150.581991906082692, -34.921743347848448 ], [ 150.581964414384913, -34.921727023725758 ], [ 150.581940606199993, -34.921714223792641 ], [ 150.581914969981312, -34.921700052369587 ], [ 150.581889385427644, -34.921685799034108 ], [ 150.581863874125247, -34.921671474132296 ], [ 150.581838425135572, -34.921657077446405 ], [ 150.581813030775294, -34.921642609724941 ], [ 150.581787698992287, -34.921628061209972 ], [ 150.581762438510907, -34.921613432976727 ], [ 150.581737231089136, -34.92159874990336 ], [ 150.581712087629484, -34.921583976147936 ], [ 150.581687015180677, -34.9215691325848 ], [ 150.581661996320491, -34.921554216162654 ], [ 150.58163704961791, -34.921539228152781 ], [ 150.581612165228336, -34.921524168359184 ], [ 150.581587354090288, -34.921509036999723 ], [ 150.581562604435902, -34.921493824825319 ], [ 150.581537909120328, -34.921478551526228 ], [ 150.581513284948016, -34.921463203914989 ], [ 150.581488732077588, -34.921447776585943 ], [ 150.581464252167905, -34.921432287601689 ], [ 150.581439824753204, -34.921416725737004 ], [ 150.581415469469874, -34.921401093185892 ], [ 150.581391186370837, -34.921385388146518 ], [ 150.581366956860734, -34.921369610248583 ], [ 150.581342808206358, -34.921353762739628 ], [ 150.581318721891734, -34.921337842546443 ], [ 150.581294716485758, -34.921321850940437 ], [ 150.581270764377877, -34.921305796386442 ], [ 150.581246884427912, -34.9212896702454 ], [ 150.581223075542084, -34.92127347249555 ], [ 150.581199347591394, -34.921257202432074 ], [ 150.581175683021542, -34.921240861508323 ], [ 150.581152081620843, -34.921224456931931 ], [ 150.581128559770548, -34.921207989930707 ], [ 150.581105101592044, -34.921191442158865 ], [ 150.581081714213212, -34.921174831787987 ], [ 150.581058407743171, -34.921158150004665 ], [ 150.581035164177848, -34.921141413578411 ], [ 150.581011992179384, -34.921124588425677 ], [ 150.580988901654479, -34.921107709901435 ], [ 150.580965881126446, -34.921090758846098 ], [ 150.580942934706087, -34.921073744356377 ], [ 150.580920057373959, -34.921056651007213 ], [ 150.580897252817579, -34.921039502310485 ], [ 150.580874528905525, -34.921022291211194 ], [ 150.580851877151559, -34.921005008525526 ], [ 150.580829288540457, -34.920987663088745 ], [ 150.580806789853483, -34.920970237404809 ], [ 150.5807843614636, -34.920952766240411 ], [ 150.580762005469921, -34.92093521538127 ], [ 150.580739729882481, -34.920917610228344 ], [ 150.580717525623868, -34.92089992445802 ], [ 150.580695402600753, -34.920882193425278 ], [ 150.580673352000304, -34.920864381797017 ], [ 150.580651380712197, -34.920846515853349 ], [ 150.580629481555775, -34.92082857922469 ], [ 150.580607663043622, -34.920810580193944 ], [ 150.580585916213408, -34.920792525794432 ], [ 150.580564259280806, -34.920774392049204 ], [ 150.580542674832913, -34.920756212867516 ], [ 150.580521169106191, -34.920737962230845 ], [ 150.580499736366846, -34.920719649039746 ], [ 150.580478384562724, -34.920701263536387 ], [ 150.580457122718229, -34.92068283384635 ], [ 150.580435922119904, -34.920664331451853 ], [ 150.580414821590267, -34.920645776057412 ], [ 150.580393782253878, -34.920627149760485 ], [ 150.580372842209812, -34.920608459630515 ], [ 150.580351974650313, -34.920589724064456 ], [ 150.580331187973087, -34.9205709179883 ], [ 150.580310472095476, -34.920552049314502 ], [ 150.580289845639157, -34.920533117512647 ], [ 150.580269299324186, -34.920514140427386 ], [ 150.58024883610554, -34.920495091974857 ], [ 150.580228451369805, -34.920475980176441 ], [ 150.580208165873273, -34.920456806347225 ], [ 150.580187933974969, -34.920437596622165 ], [ 150.580167809528348, -34.920418306099016 ], [ 150.580147757804269, -34.920398962031605 ], [ 150.580127785656828, -34.920379554640313 ], [ 150.580107903468587, -34.920360103063068 ], [ 150.580088103071063, -34.920340587304651 ], [ 150.580068399698405, -34.920321010373094 ], [ 150.580048760297615, -34.920301379723099 ], [ 150.580029218001073, -34.92028168519721 ], [ 150.580009756912972, -34.9202619463112 ], [ 150.579990385483939, -34.920242136189202 ], [ 150.579971096357156, -34.920222281728933 ], [ 150.579951876988758, -34.92020236284803 ], [ 150.579932756594616, -34.920182390946387 ], [ 150.579913735174614, -34.920162366024087 ], [ 150.579894785436011, -34.920142285734336 ], [ 150.579875916314592, -34.920122143944887 ], [ 150.579857154944364, -34.920101948408316 ], [ 150.579838465202499, -34.920081699306301 ], [ 150.579819864378493, -34.920061404195231 ], [ 150.579801354042502, -34.920041046879845 ], [ 150.579782932862457, -34.920020635446953 ], [ 150.579764593155119, -34.920000170644919 ], [ 150.579746341483371, -34.91997965260461 ], [ 150.579728180916931, -34.919959088599029 ], [ 150.579710108650715, -34.919938462345726 ], [ 150.579692127701463, -34.91991778291964 ], [ 150.579674235643324, -34.919897058385764 ], [ 150.579656433005539, -34.919876270725119 ], [ 150.57963872032613, -34.919855438879523 ], [ 150.579621097631559, -34.919834561948022 ], [ 150.579603564092537, -34.919813630899398 ], [ 150.579586111223165, -34.919792636549751 ], [ 150.579568755942319, -34.919771599068838 ], [ 150.579551492057533, -34.919750505712578 ], [ 150.579534317839745, -34.91972937808201 ], [ 150.57951724944931, -34.919708187651985 ], [ 150.579500245885498, -34.919686951634937 ], [ 150.579483348978158, -34.919665661849791 ], [ 150.579466540670239, -34.919644336867734 ], [ 150.579449831626647, -34.919622948955563 ], [ 150.579433204081454, -34.919601506774029 ], [ 150.579416674979967, -34.91958002959187 ], [ 150.579400243810568, -34.919558497566449 ], [ 150.579383892728032, -34.919536922061354 ], [ 150.579367641765174, -34.919515291756667 ], [ 150.579351479666087, -34.919493617245827 ], [ 150.579335416063373, -34.919471905932639 ], [ 150.579319450630749, -34.919450131667858 ], [ 150.579303567207717, -34.919428322976628 ], [ 150.579287781716431, -34.919406459442399 ], [ 150.579272085917779, -34.919384560733469 ], [ 150.579256496774889, -34.919362608256975 ], [ 150.579240990223695, -34.919340601533285 ], [ 150.579225588440181, -34.91931856804878 ], [ 150.579210279092621, -34.91929648051336 ], [ 150.579195057514511, -34.919274348750321 ], [ 150.579179935499553, -34.919252181108043 ], [ 150.579164912509754, -34.919229958644856 ], [ 150.579150400288995, -34.919209610614757 ], [ 150.579135142699045, -34.919185390306993 ], [ 150.579120406039976, -34.919163033817249 ], [ 150.579105768652596, -34.919140651358887 ], [ 150.579091219616629, -34.919118204852211 ], [ 150.579075927480574, -34.919099892126333 ], [ 150.579062427571841, -34.919073215165945 ], [ 150.579048174180627, -34.919050652848448 ], [ 150.579034001730662, -34.919028055182295 ], [ 150.579019946900075, -34.919005403066215 ], [ 150.579005990273373, -34.918982724059006 ], [ 150.578992122800315, -34.918959990935932 ], [ 150.578978363375256, -34.918937231118029 ], [ 150.578964684326792, -34.918914417910848 ], [ 150.578951112232431, -34.918891577987083 ], [ 150.578937638871054, -34.918868693153328 ], [ 150.5789242738486, -34.918845771714402 ], [ 150.578910999046798, -34.918822797082598 ], [ 150.578897813406627, -34.918799805295841 ], [ 150.578884743223966, -34.918776758114923 ], [ 150.578871763561381, -34.918753684791469 ], [ 150.578858882340143, -34.91873057646864 ], [ 150.578846108893117, -34.918707413500051 ], [ 150.578833424898619, -34.918684223466236 ], [ 150.578820848148638, -34.918660996805684 ], [ 150.578808370078036, -34.918637727037328 ], [ 150.578795991303991, -34.918614430400098 ], [ 150.578783711050306, -34.918591096060815 ], [ 150.578771528381992, -34.918567718592016 ], [ 150.578759454880725, -34.918544313549724 ], [ 150.578747469975951, -34.918520873312055 ], [ 150.578735600800883, -34.918497405631776 ], [ 150.578723822727483, -34.918473891988398 ], [ 150.578712152083284, -34.918450335411904 ], [ 150.578700578309167, -34.918426760031657 ], [ 150.578689104095702, -34.918403148773287 ], [ 150.578677738193221, -34.918379501811252 ], [ 150.578666479507831, -34.918355819123775 ], [ 150.578655301523412, -34.918332109197017 ], [ 150.578644239744733, -34.918308355610804 ], [ 150.578633285535346, -34.918284591547589 ], [ 150.578622421544964, -34.918260774292094 ], [ 150.578611664506525, -34.918236930320802 ], [ 150.578601015540244, -34.918213058754553 ], [ 150.578590465604407, -34.918189169329366 ], [ 150.578580022294204, -34.918165227039111 ], [ 150.578569668170132, -34.918141266693695 ], [ 150.578559431159476, -34.918117269017451 ], [ 150.578549293390722, -34.918093246274765 ], [ 150.578539253822953, -34.918069196641966 ], [ 150.578529330274591, -34.91804510965661 ], [ 150.578519507088146, -34.91802099672573 ], [ 150.578509780770361, -34.917996864991544 ], [ 150.578500152891507, -34.917972698258758 ], [ 150.578490643166333, -34.917948496019036 ], [ 150.578481221532712, -34.917924275702525 ], [ 150.578471925497354, -34.917900027239348 ], [ 150.578462720217544, -34.917875744525965 ], [ 150.578453629306637, -34.917851443358316 ], [ 150.57844462130916, -34.917827114094486 ], [ 150.57843573800119, -34.917802750355619 ], [ 150.578426953722214, -34.917778368758178 ], [ 150.578418275326129, -34.917753959522592 ], [ 150.578409697317483, -34.917729523440769 ], [ 150.57840123581181, -34.917705070750316 ], [ 150.57839287255868, -34.917680589368175 ], [ 150.578384616202527, -34.917656083072615 ], [ 150.578376459219044, -34.917631547206227 ], [ 150.578368409961314, -34.917606995457753 ], [ 150.578360467653226, -34.91758241699403 ], [ 150.578352642218249, -34.917557809308505 ], [ 150.578344905649516, -34.917533194379665 ], [ 150.578337286968065, -34.917508552953691 ], [ 150.578329756906186, -34.917483875432282 ], [ 150.578322361728993, -34.917459188880777 ], [ 150.578315056026668, -34.917434474364192 ], [ 150.578307848231759, -34.917409742868422 ], [ 150.57830075832365, -34.917384984875611 ], [ 150.578293775981507, -34.917360216406564 ], [ 150.578286899441366, -34.917335423002498 ], [ 150.578280123313533, -34.91731060185154 ], [ 150.578273462354986, -34.917285772178957 ], [ 150.578266901570288, -34.917260922868039 ], [ 150.57826045645777, -34.917236047917498 ], [ 150.578254100528113, -34.917211154912437 ], [ 150.578247870969989, -34.917186244594433 ], [ 150.578241739344804, -34.917161316396424 ], [ 150.578235715549567, -34.917136368712804 ], [ 150.578229799504669, -34.917111404246441 ], [ 150.578223990971793, -34.917086431105886 ], [ 150.578218289148282, -34.917061439358918 ], [ 150.578212696459872, -34.91703642094059 ], [ 150.578207210215879, -34.917011392925353 ], [ 150.578201831986576, -34.916986339117962 ], [ 150.578196569807204, -34.916961284018484 ], [ 150.578191397876992, -34.91693621178738 ], [ 150.578186350129641, -34.916911122199821 ], [ 150.57818140252823, -34.916886013875065 ], [ 150.57817656243796, -34.916860896876187 ], [ 150.578171829029685, -34.916835762171914 ], [ 150.57816721190909, -34.916810618067103 ], [ 150.578162703657824, -34.916785456300545 ], [ 150.578158302943791, -34.916760284958968 ], [ 150.578154008911383, -34.916735095912031 ], [ 150.578149813612725, -34.91670989891751 ], [ 150.578145735695017, -34.916684692544287 ], [ 150.578141764749887, -34.916659458555301 ], [ 150.578137899929914, -34.916634225780896 ], [ 150.578132701704448, -34.916617049958255 ], [ 150.578086277408886, -34.916426771734386 ], [ 150.578071468448286, -34.916367206134801 ], [ 150.578058802641181, -34.916317052318327 ], [ 150.578046242671121, -34.916266872665268 ], [ 150.578033792701092, -34.916216674470505 ], [ 150.578021440434611, -34.916166466503633 ], [ 150.578009212598744, -34.916116233071072 ], [ 150.577997084918366, -34.916065980900591 ], [ 150.57798506366467, -34.916015720033506 ], [ 150.577973150752143, -34.915965422562245 ], [ 150.577961337147229, -34.915915135183496 ], [ 150.577949648316093, -34.915864810626843 ], [ 150.577938048357595, -34.91581447882659 ], [ 150.577926564986484, -34.915764127714766 ], [ 150.577915189637849, -34.915713750810276 ], [ 150.577903921834775, -34.915663364330221 ], [ 150.577892762406037, -34.915612977305898 ], [ 150.577881710170203, -34.915562555457676 ], [ 150.577870764650385, -34.915512115002642 ], [ 150.577859926410554, -34.915461673981596 ], [ 150.577849197285758, -34.915411207189834 ], [ 150.577838574849949, -34.915360722692256 ], [ 150.577828059693502, -34.915310237628731 ], [ 150.577817652875524, -34.915259715961348 ], [ 150.577807352189836, -34.915209195508147 ], [ 150.577797160406362, -34.91515865649189 ], [ 150.577787076404633, -34.915108099791738 ], [ 150.57777710869621, -34.915057533690778 ], [ 150.577767239992568, -34.915006950632403 ], [ 150.577757478002837, -34.914956348967415 ], [ 150.577747832305818, -34.914905737901677 ], [ 150.577738285613009, -34.914855109878559 ], [ 150.577728846488952, -34.914804471379263 ], [ 150.577719523842319, -34.91475381717261 ], [ 150.577710308790529, -34.914703151588839 ], [ 150.577701201200938, -34.914652479132727 ], [ 150.577692200853477, -34.914601770051142 ], [ 150.577683309705122, -34.914551069457005 ], [ 150.577674524148676, -34.914500351135572 ], [ 150.577665837621424, -34.914449614955927 ], [ 150.577657277228553, -34.914398869572025 ], [ 150.577648815308379, -34.91434812524988 ], [ 150.577640461458117, -34.914297353333687 ], [ 150.577632222804141, -34.914246571995086 ], [ 150.577624092757276, -34.914195782004221 ], [ 150.577616060644687, -34.914144974133443 ], [ 150.577608154638767, -34.914094157959404 ], [ 150.577600337578417, -34.914043331839501 ], [ 150.577592637874346, -34.913992497241871 ], [ 150.57758504597399, -34.913941644059761 ], [ 150.577577569215521, -34.913890783257251 ], [ 150.57757019124557, -34.913839912705257 ], [ 150.577562931724799, -34.913789033697412 ], [ 150.577555769069505, -34.913738135886966 ], [ 150.577548723504435, -34.913687238608354 ], [ 150.577541784648105, -34.913636322723512 ], [ 150.577534954396469, -34.913585398186505 ], [ 150.577528231629145, -34.913534465876502 ], [ 150.577521616425344, -34.913483523090626 ], [ 150.577515117481852, -34.913432571805345 ], [ 150.577508715940013, -34.91338162065928 ], [ 150.57750243337523, -34.913330643038471 ], [ 150.577496255920835, -34.913279663907694 ], [ 150.577492804818263, -34.9132507910833 ], [ 150.577490572820096, -34.913217042145632 ], [ 150.577488215819471, -34.913183301532335 ], [ 150.577485760066111, -34.913149569766922 ], [ 150.57748319592838, -34.913115839445467 ], [ 150.577480525434964, -34.913082116017343 ], [ 150.577477736449083, -34.913048402846307 ], [ 150.577474841054851, -34.913014698370489 ], [ 150.577471847438147, -34.912980984723568 ], [ 150.577468727434933, -34.912947289289612 ], [ 150.577465509800078, -34.912913601824393 ], [ 150.577462183516985, -34.912879924812636 ], [ 150.577458741512288, -34.912846238280736 ], [ 150.577455200226495, -34.912812578615686 ], [ 150.577451534443043, -34.912778910156923 ], [ 150.577447769378779, -34.912745268565018 ], [ 150.577443898172163, -34.912711626658769 ], [ 150.577439908792371, -34.912677984198218 ], [ 150.577435820105649, -34.912644369505458 ], [ 150.577431616792012, -34.912610745314332 ], [ 150.577427305951517, -34.912577130697478 ], [ 150.577422894737254, -34.91254354292564 ], [ 150.577418072561272, -34.912516713442983 ], [ 150.577413312665357, -34.91248422843411 ], [ 150.577407951827411, -34.912448695264125 ], [ 150.577404052878393, -34.912420055999959 ], [ 150.577400798461497, -34.912386727487295 ], [ 150.577395769855514, -34.912353183291167 ], [ 150.577390633167568, -34.912319667589195 ], [ 150.577385370890283, -34.912286143071576 ], [ 150.577380011574462, -34.912252643662448 ], [ 150.577374543613018, -34.912219154706648 ], [ 150.577355360534199, -34.91210668422633 ], [ 150.577353022424745, -34.912063702942788 ], [ 150.577346989071913, -34.912030275727609 ], [ 150.577340857773123, -34.911996867292373 ], [ 150.577334619241157, -34.911963458520837 ], [ 150.577328263905457, -34.91193007716786 ], [ 150.57732180109852, -34.911896703587082 ], [ 150.577315229673786, -34.911863339558586 ], [ 150.577308561132611, -34.911830003341315 ], [ 150.577301775277135, -34.911796674699843 ], [ 150.577294890647721, -34.911763355806947 ], [ 150.577292025719686, -34.911744254056707 ], [ 150.577285339479289, -34.911711781099996 ], [ 150.577278253692214, -34.911680056512516 ], [ 150.577270921872071, -34.911646799013354 ], [ 150.577263490987235, -34.911613561173162 ], [ 150.577255952102774, -34.911580349124016 ], [ 150.5772483144452, -34.911547146823345 ], [ 150.577240560541753, -34.911513953021164 ], [ 150.577232698321268, -34.911480795821369 ], [ 150.577224729963348, -34.911447638306839 ], [ 150.577216653579939, -34.911414507484274 ], [ 150.577208478450558, -34.911381385509152 ], [ 150.577200186546236, -34.911348290051407 ], [ 150.577191786855195, -34.911315213176984 ], [ 150.577183289247387, -34.911282154181293 ], [ 150.577174675103379, -34.911249113594344 ], [ 150.577168532249885, -34.911225855551301 ], [ 150.576441541584302, -34.909096921011951 ], [ 150.576656775626702, -34.908892731640513 ], [ 150.578073712308708, -34.907548469707429 ], [ 150.579139082095679, -34.906537703616792 ], [ 150.579259342917794, -34.906423610458319 ], [ 150.579434598177301, -34.906257329418416 ], [ 150.580179318066484, -34.905550763994377 ], [ 150.580681489930754, -34.905074293833941 ], [ 150.581255402156529, -34.904529761272947 ], [ 150.581470609980101, -34.904325562203795 ], [ 150.581520826863311, -34.904277920026708 ], [ 150.581786260925043, -34.904026076539878 ], [ 150.582087550250151, -34.903740189608541 ], [ 150.582123433982474, -34.903706163569836 ], [ 150.582352985091546, -34.903488348411067 ], [ 150.58261839997175, -34.903236497177666 ], [ 150.582820448566707, -34.9030447859856 ], [ 150.582824312557193, -34.903041307439828 ], [ 150.582828399394486, -34.90303799108721 ], [ 150.582832685346744, -34.903034862598389 ], [ 150.582837167133249, -34.903031921908067 ], [ 150.582841836808257, -34.903029178774389 ], [ 150.582846651404168, -34.903026643160082 ], [ 150.582851643834886, -34.903024312114148 ], [ 150.582856770868659, -34.90302220460886 ], [ 150.582862023941686, -34.903020314163456 ], [ 150.582867385107249, -34.903018655745946 ], [ 150.582872852981211, -34.903017239245067 ], [ 150.582878391712484, -34.90301605583408 ], [ 150.582884003461857, -34.903015106457474 ], [ 150.582889677647358, -34.903014416146078 ], [ 150.582895379183867, -34.903013949945567 ], [ 150.58290109829241, -34.903013742819041 ], [ 150.582906835422136, -34.903013779450276 ], [ 150.58291254552401, -34.903014066154711 ], [ 150.582918237584607, -34.90301459499787 ], [ 150.582923892722221, -34.903015375520305 ], [ 150.582929487432239, -34.903016388323259 ], [ 150.582935009130438, -34.903017652087421 ], [ 150.582940441085157, -34.90301914033698 ], [ 150.582945775139308, -34.903020870037729 ], [ 150.582954102332593, -34.903023855558295 ], [ 150.582963729621014, -34.903026911119717 ], [ 150.582973536355183, -34.903029556471857 ], [ 150.582983495237045, -34.903031752307889 ], [ 150.58299357917474, -34.903033526936092 ], [ 150.583003763490666, -34.903034863638723 ], [ 150.583014017642967, -34.903035759103666 ], [ 150.583024317466595, -34.903036216455973 ], [ 150.58303462497571, -34.903036225023577 ], [ 150.583044916058071, -34.903035786129607 ], [ 150.583055189408583, -34.903034906960009 ], [ 150.583065371887699, -34.903033581552101 ], [ 150.583075474008666, -34.903031824538751 ], [ 150.583085424607873, -34.903029637208483 ], [ 150.583095240115597, -34.903027018986791 ], [ 150.58310486769534, -34.90302398054164 ], [ 150.58311429726686, -34.903020529785863 ], [ 150.583123485888962, -34.90301667578138 ], [ 150.583132423217279, -34.903012435450528 ], [ 150.583141082714661, -34.903007818181678 ], [ 150.583149427119338, -34.903002825937939 ], [ 150.583157450223666, -34.902997483837275 ], [ 150.583165114316841, -34.902991809159083 ], [ 150.583172411690839, -34.902985803553008 ], [ 150.583179322988457, -34.902979492776879 ], [ 150.583185821408534, -34.902972895228622 ], [ 150.583191899861362, -34.902966028796826 ], [ 150.583197511031472, -34.902958902456469 ], [ 150.583202673573737, -34.902951551736436 ], [ 150.58320736201847, -34.902943986947825 ], [ 150.583211565783841, -34.902936233121594 ], [ 150.583215269533099, -34.902928290854135 ], [ 150.583218459652073, -34.902920213963377 ], [ 150.583221140251283, -34.902912011545993 ], [ 150.58322329106494, -34.902903703031321 ], [ 150.583224923436148, -34.902895312083558 ], [ 150.583225998481566, -34.902886858663152 ], [ 150.58322654469859, -34.902878378494798 ], [ 150.583226554141703, -34.902869881336692 ], [ 150.58322601620273, -34.902861393120695 ], [ 150.583224950630296, -34.902852949397392 ], [ 150.583223336672518, -34.902844548852457 ], [ 150.583221203550664, -34.902836239845648 ], [ 150.583218540117656, -34.902828029366979 ], [ 150.583215358493192, -34.902819951913798 ], [ 150.583211664895771, -34.902812019328998 ], [ 150.583207479390779, -34.902804256351729 ], [ 150.583202800330213, -34.902796681880197 ], [ 150.583197654314631, -34.902789321685006 ], [ 150.583192043214467, -34.902782186621089 ], [ 150.583185983523805, -34.902775311272755 ], [ 150.583179502318615, -34.902768705193452 ], [ 150.583172599953002, -34.902762393631555 ], [ 150.583165312436677, -34.902756380007894 ], [ 150.583157657700497, -34.902750687216169 ], [ 150.583149643621766, -34.902745345161811 ], [ 150.583141297883742, -34.902740342676339 ], [ 150.583404221064768, -34.902490866803646 ], [ 150.583595567130942, -34.902304623334587 ], [ 150.583716106915688, -34.902187302780014 ], [ 150.585445010052439, -34.902392568741817 ] ], [ [ 150.577497680727959, -34.913059669750041 ], [ 150.577527961913404, -34.913219955030542 ], [ 150.577657822592272, -34.913204062060736 ], [ 150.57764819498226, -34.913147964952501 ], [ 150.577630321284261, -34.913044172106389 ], [ 150.577497680727959, -34.913059669750041 ] ] ] ] } },
{ "type": "Feature", "properties": { "OBJECTID": 381, "Comments": "Downloaded from SEED Map Service 20250513", "FSource": "https://mapprod3.environment.nsw.gov.au/arcgis/rest/services/Planning/EPI_Primary_Planning_Layers/MapServer/2", "SourceDate": 20250513.0, "Supplier": "DOP", "EPI_NAME": "Shoalhaven Local Environmental Plan 2014", "LGA_NAME": "SHOALHAVEN", "PUBLISHED_DATE": "20230224000000", "COMMENCED_DATE": "20230426000000", "CURRENCY_DATE": "20240823000000", "AMENDMENT": "State Environmental Planning Policy Amendment (Land Use Zones) 2023", "MAP_TYPE": "LZN", "MAP_NAME": "Land Zoning Map", "LAY_NAME": "Zone", "LAY_CLASS": "General Industrial", "PCO_REF_KEY": "2014-179", "EPI_TYPE": "LEP", "SYM_CODE": "E4", "PURPOSE": null, "arcgisonline_objectid": 586472.0, "arcgisonline_type": "arcgisonline_polygon", "multi_reader_type": "ARCGISFEATURES", "SHAPE_Length": 1380.8113515680161, "SHAPE_Area": 51359.483726725834 }, "geometry": { "type": "MultiPolygon", "coordinates": [ [ [ [ 150.589778183454939, -34.888698331579462 ], [ 150.589409542374426, -34.890553489953966 ], [ 150.589343530479596, -34.890885676375831 ], [ 150.588960258017295, -34.890833991081493 ], [ 150.588999393438144, -34.891031914695191 ], [ 150.589146607428518, -34.891776444067091 ], [ 150.588909474023154, -34.891810372106711 ], [ 150.58855060876698, -34.891861717914999 ], [ 150.588373255768005, -34.891887094544217 ], [ 150.58825460801387, -34.891899393785451 ], [ 150.588076215748714, -34.891917876447138 ], [ 150.587906150269248, -34.891935509097564 ], [ 150.586907372058704, -34.892039024834958 ], [ 150.586395617419896, -34.892092063751797 ], [ 150.586040356245917, -34.892128887701496 ], [ 150.586369285363617, -34.890482431006468 ], [ 150.587972558888509, -34.890700561253212 ], [ 150.58814985808857, -34.890724683569871 ], [ 150.58816224549733, -34.890726359232765 ], [ 150.588603965038317, -34.890785934868944 ], [ 150.588714267447216, -34.890800814279309 ], [ 150.588746663558595, -34.890805180369114 ], [ 150.588778368701952, -34.89064563965097 ], [ 150.589137139872037, -34.88884018744254 ], [ 150.589172485907284, -34.888662323139279 ], [ 150.589181324140441, -34.888617834557827 ], [ 150.589766861022724, -34.888696798914083 ], [ 150.589778183454939, -34.888698331579462 ] ] ] ] } },
{ "type": "Feature", "properties": { "OBJECTID": 495, "Comments": "Downloaded from SEED Map Service 20250513", "FSource": "https://mapprod3.environment.nsw.gov.au/arcgis/rest/services/Planning/EPI_Primary_Planning_Layers/MapServer/2", "SourceDate": 20250513.0, "Supplier": "DOP", "EPI_NAME": "Shoalhaven Local Environmental Plan 2014", "LGA_NAME": "SHOALHAVEN", "PUBLISHED_DATE": "20230224000000", "COMMENCED_DATE": "20230426000000", "CURRENCY_DATE": "20240823000000", "AMENDMENT": "State Environmental Planning Policy Amendment (Land Use Zones) 2023", "MAP_TYPE": "LZN", "MAP_NAME": "Land Zoning Map", "LAY_NAME": "Zone", "LAY_CLASS": "General Industrial", "PCO_REF_KEY": "2014-179", "EPI_TYPE": "LEP", "SYM_CODE": "E4", "PURPOSE": null, "arcgisonline_objectid": 586750.0, "arcgisonline_type": "arcgisonline_polygon", "multi_reader_type": "ARCGISFEATURES", "SHAPE_Length": 412.14322776095912, "SHAPE_Area": 10108.276326730413 }, "geometry": { "type": "MultiPolygon", "coordinates": [ [ [ [ 150.594591413216193, -34.889943820092462 ], [ 150.595426153793824, -34.890164831082579 ], [ 150.595838834528763, -34.890274094068268 ], [ 150.595699510292974, -34.890393574604701 ], [ 150.595560129404276, -34.89051310793851 ], [ 150.595426754944612, -34.890627488102716 ], [ 150.595420802172043, -34.890632588074581 ], [ 150.595281421540648, -34.890752121973769 ], [ 150.595141968704411, -34.890871941846385 ], [ 150.595138715370297, -34.890871475387272 ], [ 150.594714585467102, -34.890810868972693 ], [ 150.594271138745086, -34.890747499573791 ], [ 150.594176049954967, -34.890733918995025 ], [ 150.594168510133443, -34.890694137769408 ], [ 150.594161957086612, -34.890654247171526 ], [ 150.594156400811812, -34.890614241990534 ], [ 150.594151846617081, -34.890574127740592 ], [ 150.594144818765045, -34.890519832849932 ], [ 150.594142793228571, -34.890498390618518 ], [ 150.594142362955495, -34.89047581976773 ], [ 150.594142999814807, -34.890465538338354 ], [ 150.594144209821707, -34.890455749650862 ], [ 150.594146477781436, -34.890443898584792 ], [ 150.594149641379829, -34.890431573945847 ], [ 150.594153728488436, -34.89041872039386 ], [ 150.594158775530786, -34.890405139422143 ], [ 150.594171559325133, -34.89037612320066 ], [ 150.594191951603648, -34.890335543762951 ], [ 150.594206357408609, -34.890309207313287 ], [ 150.594223414993024, -34.890281266444504 ], [ 150.594243575120515, -34.890251120678244 ], [ 150.594268817534299, -34.890215749578928 ], [ 150.594301876334697, -34.890167424772862 ], [ 150.594316667938699, -34.890147739881741 ], [ 150.594325236734988, -34.890137798510622 ], [ 150.59433381609594, -34.890129032882712 ], [ 150.594342556268401, -34.890121243139156 ], [ 150.594351537819819, -34.890114367771375 ], [ 150.594361218450615, -34.890107868641429 ], [ 150.594371303010263, -34.890101737200624 ], [ 150.594381791167365, -34.890095947299258 ], [ 150.594392682212543, -34.890090523263233 ], [ 150.594403985340136, -34.890085449949289 ], [ 150.594415692922354, -34.89008072630476 ], [ 150.594427802535932, -34.890076360394957 ], [ 150.594440325089124, -34.890072353337189 ], [ 150.594503557795434, -34.890081443718614 ], [ 150.594543671113115, -34.889931180811523 ], [ 150.594591413216193, -34.889943820092462 ] ] ] ] } },
{ "type": "Feature", "properties": { "OBJECTID": 672, "Comments": "Downloaded from SEED Map Service 20250513", "FSource": "https://mapprod3.environment.nsw.gov.au/arcgis/rest/services/Planning/EPI_Primary_Planning_Layers/MapServer/2", "SourceDate": 20250513.0, "Supplier": "DOP", "EPI_NAME": "Shoalhaven Local Environmental Plan 2014", "LGA_NAME": "SHOALHAVEN", "PUBLISHED_DATE": "20230224000000", "COMMENCED_DATE": "20230426000000", "CURRENCY_DATE": "20240823000000", "AMENDMENT": "State Environmental Planning Policy Amendment (Land Use Zones) 2023", "MAP_TYPE": "LZN", "MAP_NAME": "Land Zoning Map", "LAY_NAME": "Zone", "LAY_CLASS": "General Industrial", "PCO_REF_KEY": "2014-179", "EPI_TYPE": "LEP", "SYM_CODE": "E4", "PURPOSE": null, "arcgisonline_objectid": 587194.0, "arcgisonline_type": "arcgisonline_polygon", "multi_reader_type": "ARCGISFEATURES", "SHAPE_Length": 1827.4651629473549, "SHAPE_Area": 141181.86610318106 }, "geometry": { "type": "MultiPolygon", "coordinates": [ [ [ [ 150.617720703360675, -35.091228966566916 ], [ 150.617344341571993, -35.093038347528314 ], [ 150.616140954380029, -35.092868650541746 ], [ 150.614975062860282, -35.09317684134701 ], [ 150.614860969799963, -35.093043707860041 ], [ 150.613731480963736, -35.091916353100807 ], [ 150.613422295323602, -35.091645829341012 ], [ 150.613056636460385, -35.091392290293946 ], [ 150.612939361161438, -35.091322784375976 ], [ 150.612923037838925, -35.091314063015659 ], [ 150.612722845148852, -35.091207095853896 ], [ 150.612321150500776, -35.091031490218313 ], [ 150.611894178165386, -35.090892853571916 ], [ 150.611461540058258, -35.090796858358836 ], [ 150.610792110356272, -35.090731179297585 ], [ 150.611000028842938, -35.089710260852122 ], [ 150.611001598419961, -35.08970277629669 ], [ 150.611003247539628, -35.089695309535564 ], [ 150.611004986356221, -35.08968785085284 ], [ 150.611006797252969, -35.089680402605588 ], [ 150.611008697583685, -35.089672971446177 ], [ 150.611010687322022, -35.089665558275534 ], [ 150.611012749166775, -35.08965815463943 ], [ 150.611014900471702, -35.0896507671902 ], [ 150.611017132362718, -35.089643399358742 ], [ 150.611019454757383, -35.089636049537638 ], [ 150.611021846855863, -35.089628716415376 ], [ 150.611024330554073, -35.089621401325097 ], [ 150.611026893768496, -35.089614104930007 ], [ 150.611029538717588, -35.089606826372389 ], [ 150.611032262972515, -35.089599573717528 ], [ 150.61103506893582, -35.089592339801072 ], [ 150.611037955511335, -35.089585124601406 ], [ 150.611040923584909, -35.089577935347677 ], [ 150.611043970104703, -35.089570763866568 ], [ 150.611047099166058, -35.089563620154891 ], [ 150.611050308629217, -35.089556502367536 ], [ 150.611053588839525, -35.089549403102488 ], [ 150.611056959316699, -35.089542329956181 ], [ 150.611060401374175, -35.089535284363237 ], [ 150.61106393367217, -35.089528265789966 ], [ 150.61106753757673, -35.089521273869096 ], [ 150.611071211965537, -35.089514309479902 ], [ 150.611074977717124, -35.089507371231079 ], [ 150.611078813742608, -35.089500467721471 ], [ 150.611082722681033, -35.089493583678276 ], [ 150.611086720500879, -35.089486735642559 ], [ 150.611090779799383, -35.089479923074158 ], [ 150.61109493072351, -35.089473127636609 ], [ 150.61109915270211, -35.089466377771231 ], [ 150.61110344628716, -35.089459654558134 ], [ 150.611107812285638, -35.08945296792934 ], [ 150.611112258659432, -35.08944630812568 ], [ 150.611116776376804, -35.089439683983741 ], [ 150.611121374232908, -35.089433094775451 ], [ 150.61112603573352, -35.08942654197854 ], [ 150.611130777320227, -35.08942002591715 ], [ 150.611135591372886, -35.089413544638091 ], [ 150.611140476742747, -35.089407099921679 ], [ 150.611145434578503, -35.089400689987592 ], [ 150.611150462635408, -35.089394316594522 ], [ 150.611155562869016, -35.089387987894135 ], [ 150.611160735515909, -35.08938169577798 ], [ 150.611165979506325, -35.08937543932344 ], [ 150.611171295699705, -35.089369226660637 ], [ 150.611176673108702, -35.089363058474468 ], [ 150.611182122904722, -35.08935692777338 ], [ 150.611187636371398, -35.089350832582653 ], [ 150.611193220918636, -35.089344782062959 ], [ 150.611198877379735, -35.08933878524536 ], [ 150.611204596678249, -35.089332814907053 ], [ 150.611210386768164, -35.089326899150116 ], [ 150.611216240292208, -35.089321027012019 ], [ 150.611222156338187, -35.089315192164499 ], [ 150.611228144324286, -35.089309410118069 ], [ 150.611234186116036, -35.089303663387476 ], [ 150.611240298672925, -35.089297972139171 ], [ 150.611246475759998, -35.08929232453125 ], [ 150.611252714062658, -35.089286721399816 ], [ 150.611259016553788, -35.089281173621025 ], [ 150.611265381382879, -35.089275669439367 ], [ 150.611271808497378, -35.089270210656721 ], [ 150.611755440913242, -35.088863280805278 ], [ 150.614752818247837, -35.089975755770588 ], [ 150.614481918332558, -35.090468631920444 ], [ 150.615306765988407, -35.090774707043373 ], [ 150.615318285346035, -35.090778920890529 ], [ 150.615329848247285, -35.090783070688055 ], [ 150.615341438696305, -35.090787140796273 ], [ 150.615353064727287, -35.090791156614273 ], [ 150.61536472660265, -35.090795109132571 ], [ 150.615376424820994, -35.090798981233156 ], [ 150.615388141293124, -35.090802791490781 ], [ 150.615399427206512, -35.090806359796154 ], [ 150.615410738527629, -35.090809846567232 ], [ 150.615422070058457, -35.090813279647101 ], [ 150.615433444508767, -35.090816632438681 ], [ 150.61544483836127, -35.09081992160705 ], [ 150.615456275967006, -35.090823139518164 ], [ 150.615467732088604, -35.09082628657692 ], [ 150.615479206280042, -35.090829378099386 ], [ 150.615490715691664, -35.090832390083499 ], [ 150.615502252152055, -35.090835339496259 ], [ 150.615513815923521, -35.090838217328233 ], [ 150.615525486813766, -35.090841032361361 ], [ 150.615537193836587, -35.090843774184286 ], [ 150.615548919348953, -35.090846446055707 ], [ 150.615560662070948, -35.090849054260687 ], [ 150.615572439750594, -35.090851591936705 ], [ 150.615584228325446, -35.090854056807395 ], [ 150.615596042616573, -35.090856467193618 ], [ 150.615607883594748, -35.090858789760333 ], [ 150.615619734109544, -35.090861048509595 ], [ 150.615631611935186, -35.090863235677936 ], [ 150.615643507206443, -35.09086535107128 ], [ 150.615655159909693, -35.09086735982558 ], [ 150.615666830609513, -35.090869277884984 ], [ 150.61567851055716, -35.0908711420374 ], [ 150.615690209308781, -35.090872925426908 ], [ 150.615701925243513, -35.090874646050892 ], [ 150.615713650064464, -35.090876287519784 ], [ 150.615725401986111, -35.090877864615308 ], [ 150.61573716282021, -35.090879361654771 ], [ 150.615748923272918, -35.090880796484598 ], [ 150.615760711062336, -35.090882158832528 ], [ 150.615772507527964, -35.090883449232926 ], [ 150.615784312643541, -35.090884668586689 ], [ 150.615796127531439, -35.090885816014463 ], [ 150.615807951357795, -35.090886882485194 ], [ 150.615819783597885, -35.090887886017839 ], [ 150.61583142822181, -35.09088885430706 ], [ 150.615843080924151, -35.090889733509172 ], [ 150.615854724501986, -35.090890549428181 ], [ 150.615866396486211, -35.090891293787813 ], [ 150.615878058512124, -35.090891965833301 ], [ 150.615889720444869, -35.090892565758729 ], [ 150.615901400892454, -35.090893094831621 ], [ 150.615913081246816, -35.090893551784454 ], [ 150.61592476148175, -35.090893937518153 ], [ 150.615936440789596, -35.090894242100752 ], [ 150.615948130414552, -35.090894493698805 ], [ 150.61595982817002, -35.09089465440784 ], [ 150.61597151674826, -35.090894753635652 ], [ 150.615983206329247, -35.090894780764955 ], [ 150.615994894982975, -35.090894726743144 ], [ 150.616006593146153, -35.090894609804778 ], [ 150.616018272555323, -35.09089442128073 ], [ 150.616029961972288, -35.090894152722122 ], [ 150.616041633495229, -35.090893820707912 ], [ 150.616053717018048, -35.090893426483021 ], [ 150.616065790555837, -35.090892960844876 ], [ 150.61607784755796, -35.090892422763112 ], [ 150.616089913235527, -35.090891812733695 ], [ 150.616101961254969, -35.090891131140069 ], [ 150.616114008058361, -35.09089037830568 ], [ 150.616126055837867, -35.090889554273623 ], [ 150.616138084889315, -35.090888657754839 ], [ 150.616150106436351, -35.0908876799555 ], [ 150.616162127600973, -35.090886639946419 ], [ 150.616174129984955, -35.090885529252532 ], [ 150.616186123532174, -35.090884345365041 ], [ 150.616198116959225, -35.090883090258345 ], [ 150.616210083932657, -35.090881764315903 ], [ 150.616222041806907, -35.090880374189354 ], [ 150.616233991027912, -35.090878904562601 ], [ 150.616245931359515, -35.090877363544124 ], [ 150.616257844219916, -35.090875748965523 ], [ 150.616269747902379, -35.090874072905684 ], [ 150.616281644053799, -35.090872316466232 ], [ 150.616293512445395, -35.090870496377086 ], [ 150.616305362056011, -35.090868605603184 ], [ 150.616317033395575, -35.090866659938193 ], [ 150.616328677756627, -35.0908646614565 ], [ 150.61634030448522, -35.090862590509758 ], [ 150.616351921490377, -35.090860439140329 ], [ 150.616363511831679, -35.090858224142835 ], [ 150.616375066089773, -35.090855930007145 ], [ 150.61638662111352, -35.090853571881453 ], [ 150.616398148587081, -35.090851142898586 ], [ 150.616409649370382, -35.090848651188622 ], [ 150.616421141552451, -35.090846078176611 ], [ 150.616432597152823, -35.090843443144458 ], [ 150.61644402632524, -35.09084073637576 ], [ 150.616455427737407, -35.090837965957476 ], [ 150.616466813682905, -35.090835124018255 ], [ 150.616478169885681, -35.090832211178771 ], [ 150.616489464631115, -35.090829261972367 ], [ 150.616500723083249, -35.090826240835419 ], [ 150.616511955678817, -35.090823166002501 ], [ 150.616523159889994, -35.090820011281451 ], [ 150.616534338533086, -35.09081679295398 ], [ 150.616545480594255, -35.090813512606438 ], [ 150.616556596227213, -35.090810160522423 ], [ 150.616567665727729, -35.090806735412947 ], [ 150.616578719236713, -35.090803256801543 ], [ 150.616589727630725, -35.090799707889104 ], [ 150.616600715937125, -35.090796095478105 ], [ 150.616611661373184, -35.0907924110073 ], [ 150.616622571323319, -35.090788664538032 ], [ 150.616633452678997, -35.090784845388271 ], [ 150.616644289779629, -35.090780964067633 ], [ 150.616657816785875, -35.090776043072474 ], [ 150.616671344220975, -35.090771031937798 ], [ 150.616684834003422, -35.090765957860071 ], [ 150.617720703360675, -35.091228966566916 ] ] ] ] } },
{ "type": "Feature", "properties": { "OBJECTID": 673, "Comments": "Downloaded from SEED Map Service 20250513", "FSource": "https://mapprod3.environment.nsw.gov.au/arcgis/rest/services/Planning/EPI_Primary_Planning_Layers/MapServer/2", "SourceDate": 20250513.0, "Supplier": "DOP", "EPI_NAME": "Shoalhaven Local Environmental Plan 2014", "LGA_NAME": "SHOALHAVEN", "PUBLISHED_DATE": "20230224000000", "COMMENCED_DATE": "20230426000000", "CURRENCY_DATE": "20240823000000", "AMENDMENT": "State Environmental Planning Policy Amendment (Land Use Zones) 2023", "MAP_TYPE": "LZN", "MAP_NAME": "Land Zoning Map", "LAY_NAME": "Zone", "LAY_CLASS": "General Industrial", "PCO_REF_KEY": "2014-179", "EPI_TYPE": "LEP", "SYM_CODE": "E4", "PURPOSE": null, "arcgisonline_objectid": 587195.0, "arcgisonline_type": "arcgisonline_polygon", "multi_reader_type": "ARCGISFEATURES", "SHAPE_Length": 1471.151652483808, "SHAPE_Area": 97808.663905799593 }, "geometry": { "type": "MultiPolygon", "coordinates": [ [ [ [ 150.603963596323354, -35.086596548972693 ], [ 150.60339244500156, -35.089574637071806 ], [ 150.602262608566861, -35.088824459625521 ], [ 150.602097384751346, -35.088947830525946 ], [ 150.601295082421785, -35.087949152660713 ], [ 150.600586785921223, -35.087375771452102 ], [ 150.599942402325723, -35.086854120257385 ], [ 150.599298028179675, -35.086332461441081 ], [ 150.599262790861076, -35.086303938040359 ], [ 150.59902169620446, -35.086108756322744 ], [ 150.598881043335552, -35.085862659225 ], [ 150.598939595783804, -35.085542753209715 ], [ 150.598971623161816, -35.085375233737281 ], [ 150.599478929303785, -35.085509621531273 ], [ 150.601737980930864, -35.086057159161456 ], [ 150.603482383463728, -35.08647992713297 ], [ 150.603963596323354, -35.086596548972693 ] ] ] ] } },
{ "type": "Feature", "properties": { "OBJECTID": 674, "Comments": "Downloaded from SEED Map Service 20250513", "FSource": "https://mapprod3.environment.nsw.gov.au/arcgis/rest/services/Planning/EPI_Primary_Planning_Layers/MapServer/2", "SourceDate": 20250513.0, "Supplier": "DOP", "EPI_NAME": "Shoalhaven Local Environmental Plan 2014", "LGA_NAME": "SHOALHAVEN", "PUBLISHED_DATE": "20230224000000", "COMMENCED_DATE": "20230426000000", "CURRENCY_DATE": "20240823000000", "AMENDMENT": "State Environmental Planning Policy Amendment (Land Use Zones) 2023", "MAP_TYPE": "LZN", "MAP_NAME": "Land Zoning Map", "LAY_NAME": "Zone", "LAY_CLASS": "General Industrial", "PCO_REF_KEY": "2014-179", "EPI_TYPE": "LEP", "SYM_CODE": "E4", "PURPOSE": null, "arcgisonline_objectid": 587198.0, "arcgisonline_type": "arcgisonline_polygon", "multi_reader_type": "ARCGISFEATURES", "SHAPE_Length": 1626.2532589446189, "SHAPE_Area": 157383.23414185981 }, "geometry": { "type": "MultiPolygon", "coordinates": [ [ [ [ 150.562807515881957, -35.087949150764175 ], [ 150.562766765455393, -35.08815267783627 ], [ 150.561129645316043, -35.087931883654633 ], [ 150.561053711827753, -35.087921567254007 ], [ 150.559910687340761, -35.087079040572497 ], [ 150.559102745903459, -35.085403026842044 ], [ 150.55953261982458, -35.082676545337939 ], [ 150.559632065878844, -35.082690053914469 ], [ 150.55989779283837, -35.082726151814143 ], [ 150.561750522689124, -35.08297783540435 ], [ 150.562902057394638, -35.085917248347329 ], [ 150.563206375011191, -35.085956861062783 ], [ 150.562843129842747, -35.087771243313192 ], [ 150.562807515881957, -35.087949150764175 ] ] ] ] } },
{ "type": "Feature", "properties": { "OBJECTID": 697, "Comments": "Downloaded from SEED Map Service 20250513", "FSource": "https://mapprod3.environment.nsw.gov.au/arcgis/rest/services/Planning/EPI_Primary_Planning_Layers/MapServer/2", "SourceDate": 20250513.0, "Supplier": "DOP", "EPI_NAME": "Shoalhaven Local Environmental Plan 2014", "LGA_NAME": "SHOALHAVEN", "PUBLISHED_DATE": "20230224000000", "COMMENCED_DATE": "20230426000000", "CURRENCY_DATE": "20240823000000", "AMENDMENT": "State Environmental Planning Policy Amendment (Land Use Zones) 2023", "MAP_TYPE": "LZN", "MAP_NAME": "Land Zoning Map", "LAY_NAME": "Zone", "LAY_CLASS": "General Industrial", "PCO_REF_KEY": "2014-179", "EPI_TYPE": "LEP", "SYM_CODE": "E4", "PURPOSE": null, "arcgisonline_objectid": 587368.0, "arcgisonline_type": "arcgisonline_polygon", "multi_reader_type": "ARCGISFEATURES", "SHAPE_Length": 1484.4695820523523, "SHAPE_Area": 102336.30856856398 }, "geometry": { "type": "MultiPolygon", "coordinates": [ [ [ [ 150.603634730161133, -34.919792696218224 ], [ 150.60369391685083, -34.920766158458044 ], [ 150.603768152955695, -34.921986956006521 ], [ 150.603880986927919, -34.923842270090532 ], [ 150.603838424507927, -34.924471550651354 ], [ 150.603836810466106, -34.924495394545033 ], [ 150.60191308453264, -34.924579647700178 ], [ 150.601718562526003, -34.920939647110536 ], [ 150.60165380952094, -34.91987441183511 ], [ 150.601631373124349, -34.919505284385416 ], [ 150.603612284574893, -34.919423578681098 ], [ 150.603634730161133, -34.919792696218224 ] ] ] ] } }
]
}
