{
"type": "FeatureCollection",
"name": "MU1_Mixed Use",
"crs": { "type": "name", "properties": { "name": "urn:ogc:def:crs:OGC:1.3:CRS84" } },
"features": [
{ "type": "Feature", "properties": { "OBJECTID": 48, "Comments": "Downloaded from SEED Map Service 20250513", "FSource": "https://mapprod3.environment.nsw.gov.au/arcgis/rest/services/Planning/EPI_Primary_Planning_Layers/MapServer/2", "SourceDate": 20250513.0, "Supplier": "DOP", "EPI_NAME": "Shoalhaven Local Environmental Plan 2014", "LGA_NAME": "SHOALHAVEN", "PUBLISHED_DATE": "20230224000000", "COMMENCED_DATE": "20230426000000", "CURRENCY_DATE": "20240823000000", "AMENDMENT": "State Environmental Planning Policy Amendment (Land Use Zones) 2023", "MAP_TYPE": "LZN", "MAP_NAME": "Land Zoning Map", "LAY_NAME": "Zone", "LAY_CLASS": "Mixed Use", "PCO_REF_KEY": "2014-179", "EPI_TYPE": "LEP", "SYM_CODE": "MU1", "PURPOSE": null, "arcgisonline_objectid": 585048.0, "arcgisonline_type": "arcgisonline_polygon", "multi_reader_type": "ARCGISFEATURES", "SHAPE_Length": 550.97656199125277, "SHAPE_Area": 12433.294524158558 }, "geometry": { "type": "MultiPolygon", "coordinates": [ [ [ [ 150.670817051999222, -35.038682114835368 ], [ 150.67042477631216, -35.038628662035563 ], [ 150.670481770586605, -35.038257212932251 ], [ 150.670506771643915, -35.038094221048425 ], [ 150.670518407169681, -35.038018385572926 ], [ 150.670707915174887, -35.038122717649046 ], [ 150.670919403746666, -35.038181628494343 ], [ 150.670960575560713, -35.038192663663658 ], [ 150.671000349162739, -35.038204728504297 ], [ 150.671071047695875, -35.03820492603424 ], [ 150.671078631843841, -35.03820425403768 ], [ 150.671178741403736, -35.038193093308777 ], [ 150.671234229784744, -35.038180973778033 ], [ 150.671251081188245, -35.038177290283443 ], [ 150.671312306320175, -35.038154592899566 ], [ 150.671376560273586, -35.038134236196967 ], [ 150.67137041086832, -35.03816151327473 ], [ 150.671825935783261, -35.038224278888521 ], [ 150.671819338270069, -35.038256845403048 ], [ 150.671817195654711, -35.038267458893657 ], [ 150.672010343177277, -35.038294063582299 ], [ 150.672012853055207, -35.038281747025096 ], [ 150.672023296811318, -35.038230517914037 ], [ 150.672539911719554, -35.038205140937499 ], [ 150.672622281905916, -35.038216364036082 ], [ 150.672481097418682, -35.038909010525828 ], [ 150.672398717802963, -35.038897787137806 ], [ 150.672303053839187, -35.038884744638231 ], [ 150.671901089211275, -35.038829930571005 ], [ 150.67175319133915, -35.038809761090235 ], [ 150.671696959774124, -35.038802097067041 ], [ 150.671674549530792, -35.038799040784959 ], [ 150.67141684312864, -35.038763902028123 ], [ 150.671248768133211, -35.038740980813678 ], [ 150.671143315057037, -35.038726602738379 ], [ 150.670817051999222, -35.038682114835368 ] ] ] ] } },
{ "type": "Feature", "properties": { "OBJECTID": 56, "Comments": "Downloaded from SEED Map Service 20250513", "FSource": "https://mapprod3.environment.nsw.gov.au/arcgis/rest/services/Planning/EPI_Primary_Planning_Layers/MapServer/2", "SourceDate": 20250513.0, "Supplier": "DOP", "EPI_NAME": "Shoalhaven Local Environmental Plan 2014", "LGA_NAME": "SHOALHAVEN", "PUBLISHED_DATE": "20230224000000", "COMMENCED_DATE": "20230426000000", "CURRENCY_DATE": "20240823000000", "AMENDMENT": "State Environmental Planning Policy Amendment (Land Use Zones) 2023", "MAP_TYPE": "LZN", "MAP_NAME": "Land Zoning Map", "LAY_NAME": "Zone", "LAY_CLASS": "Mixed Use", "PCO_REF_KEY": "2014-179", "EPI_TYPE": "LEP", "SYM_CODE": "MU1", "PURPOSE": null, "arcgisonline_objectid": 585076.0, "arcgisonline_type": "arcgisonline_polygon", "multi_reader_type": "ARCGISFEATURES", "SHAPE_Length": 640.0762587967597, "SHAPE_Area": 27939.57376853341 }, "geometry": { "type": "MultiPolygon", "coordinates": [ [ [ [ 150.673208054479403, -35.049853373422089 ], [ 150.6733437432502, -35.050018453886914 ], [ 150.673371406556413, -35.050052105134249 ], [ 150.673564176380836, -35.050286629168021 ], [ 150.67357407409466, -35.050545276564421 ], [ 150.673584632037574, -35.050821339721892 ], [ 150.67290647632899, -35.051434583653048 ], [ 150.671494399216414, -35.051203223070814 ], [ 150.67166316673007, -35.05050651611127 ], [ 150.671869636882747, -35.049654399743034 ], [ 150.672528008290953, -35.049752276786158 ], [ 150.672906649496412, -35.049808562301195 ], [ 150.672911623890371, -35.04980930593473 ], [ 150.673208054479403, -35.049853373422089 ] ] ] ] } },
{ "type": "Feature", "properties": { "OBJECTID": 195, "Comments": "Downloaded from SEED Map Service 20250513", "FSource": "https://mapprod3.environment.nsw.gov.au/arcgis/rest/services/Planning/EPI_Primary_Planning_Layers/MapServer/2", "SourceDate": 20250513.0, "Supplier": "DOP", "EPI_NAME": "Shoalhaven Local Environmental Plan 2014", "LGA_NAME": "SHOALHAVEN", "PUBLISHED_DATE": "20230224000000", "COMMENCED_DATE": "20230426000000", "CURRENCY_DATE": "20240823000000", "AMENDMENT": "State Environmental Planning Policy Amendment (Land Use Zones) 2023", "MAP_TYPE": "LZN", "MAP_NAME": "Land Zoning Map", "LAY_NAME": "Zone", "LAY_CLASS": "Mixed Use", "PCO_REF_KEY": "2014-179", "EPI_TYPE": "LEP", "SYM_CODE": "MU1", "PURPOSE": null, "arcgisonline_objectid": 585719.0, "arcgisonline_type": "arcgisonline_polygon", "multi_reader_type": "ARCGISFEATURES", "SHAPE_Length": 455.95823897182839, "SHAPE_Area": 12189.020908092942 }, "geometry": { "type": "MultiPolygon", "coordinates": [ [ [ [ 150.675048738082268, -35.049095745680361 ], [ 150.675035864480492, -35.049157130468579 ], [ 150.675035171060017, -35.049157036039382 ], [ 150.674672706302601, -35.049107229058016 ], [ 150.674220148763965, -35.049042105833379 ], [ 150.674125479526424, -35.048981392530948 ], [ 150.674147163802957, -35.048893850875707 ], [ 150.674213040297474, -35.048627915204804 ], [ 150.67430103260341, -35.048272681859522 ], [ 150.674388180350604, -35.04792083711768 ], [ 150.674419115417948, -35.047740194650608 ], [ 150.674490380404592, -35.047750242692544 ], [ 150.674990787666303, -35.047820708551967 ], [ 150.675322930956611, -35.04786748294574 ], [ 150.675272705533587, -35.048092524359163 ], [ 150.675063627379473, -35.049029071779294 ], [ 150.675048738082268, -35.049095745680361 ] ] ] ] } },
{ "type": "Feature", "properties": { "OBJECTID": 196, "Comments": "Downloaded from SEED Map Service 20250513", "FSource": "https://mapprod3.environment.nsw.gov.au/arcgis/rest/services/Planning/EPI_Primary_Planning_Layers/MapServer/2", "SourceDate": 20250513.0, "Supplier": "DOP", "EPI_NAME": "Shoalhaven Local Environmental Plan 2014", "LGA_NAME": "SHOALHAVEN", "PUBLISHED_DATE": "20230224000000", "COMMENCED_DATE": "20230426000000", "CURRENCY_DATE": "20240823000000", "AMENDMENT": "State Environmental Planning Policy Amendment (Land Use Zones) 2023", "MAP_TYPE": "LZN", "MAP_NAME": "Land Zoning Map", "LAY_NAME": "Zone", "LAY_CLASS": "Mixed Use", "PCO_REF_KEY": "2014-179", "EPI_TYPE": "LEP", "SYM_CODE": "MU1", "PURPOSE": null, "arcgisonline_objectid": 585720.0, "arcgisonline_type": "arcgisonline_polygon", "multi_reader_type": "ARCGISFEATURES", "SHAPE_Length": 1418.1485766480992, "SHAPE_Area": 51551.963823949285 }, "geometry": { "type": "MultiPolygon", "coordinates": [ [ [ [ 150.676114539791882, -35.044161859691592 ], [ 150.67578794329097, -35.045728308302571 ], [ 150.675461940429585, -35.045682340880781 ], [ 150.67514902296972, -35.045638731134183 ], [ 150.675087959989469, -35.045630215112155 ], [ 150.674923282120034, -35.045607258379135 ], [ 150.674857647582485, -35.045598105582471 ], [ 150.674932597031102, -35.045240568739047 ], [ 150.675007213008769, -35.044884599413486 ], [ 150.675083193518816, -35.044522114113313 ], [ 150.675157362181295, -35.044168260852537 ], [ 150.674915682645661, -35.044134556111175 ], [ 150.674619358434342, -35.044093223090712 ], [ 150.674691823867931, -35.043751363244141 ], [ 150.674750856858964, -35.043481367984789 ], [ 150.674659814927622, -35.043468639437755 ], [ 150.674665054794986, -35.043441796400636 ], [ 150.674387631442073, -35.043408051586248 ], [ 150.674069300286135, -35.043365266625955 ], [ 150.673876260277268, -35.043339334148726 ], [ 150.673810276455441, -35.043330468003056 ], [ 150.673548150053847, -35.043295231585894 ], [ 150.673267360283745, -35.043257510809596 ], [ 150.673337380037424, -35.042905351443622 ], [ 150.673371648665579, -35.04273300091895 ], [ 150.673408823675203, -35.042546057047623 ], [ 150.673427540877782, -35.042451855138346 ], [ 150.673451007952679, -35.042333834330051 ], [ 150.673481601907383, -35.042179914378664 ], [ 150.673508495073975, -35.042044665238812 ], [ 150.673529712836626, -35.041937922070346 ], [ 150.673552749614828, -35.04182203669879 ], [ 150.673625144737741, -35.04145791036035 ], [ 150.67398373252712, -35.041506700726053 ], [ 150.67418137982898, -35.041533593052513 ], [ 150.67424422632547, -35.041542148187325 ], [ 150.674244309355004, -35.041542157893105 ], [ 150.674400838061842, -35.041563451835209 ], [ 150.674512923103322, -35.041578698956052 ], [ 150.674798230933732, -35.041617522055844 ], [ 150.675015377755869, -35.041647580616633 ], [ 150.675124458233142, -35.041662221468648 ], [ 150.675122249445536, -35.041673014948991 ], [ 150.674756671196945, -35.043459083037874 ], [ 150.67621977804464, -35.043657089725762 ], [ 150.676114539791882, -35.044161859691592 ] ] ] ] } },
{ "type": "Feature", "properties": { "OBJECTID": 369, "Comments": "Downloaded from SEED Map Service 20250513", "FSource": "https://mapprod3.environment.nsw.gov.au/arcgis/rest/services/Planning/EPI_Primary_Planning_Layers/MapServer/2", "SourceDate": 20250513.0, "Supplier": "DOP", "EPI_NAME": "Shoalhaven Local Environmental Plan 2014", "LGA_NAME": "SHOALHAVEN", "PUBLISHED_DATE": "20230224000000", "COMMENCED_DATE": "20230426000000", "CURRENCY_DATE": "20240823000000", "AMENDMENT": "State Environmental Planning Policy Amendment (Land Use Zones) 2023", "MAP_TYPE": "LZN", "MAP_NAME": "Land Zoning Map", "LAY_NAME": "Zone", "LAY_CLASS": "Mixed Use", "PCO_REF_KEY": "2014-179", "EPI_TYPE": "LEP", "SYM_CODE": "MU1", "PURPOSE": null, "arcgisonline_objectid": 586450.0, "arcgisonline_type": "arcgisonline_polygon", "multi_reader_type": "ARCGISFEATURES", "SHAPE_Length": 482.48356475233982, "SHAPE_Area": 8733.8981199396221 }, "geometry": { "type": "MultiPolygon", "coordinates": [ [ [ [ 150.601697957618029, -34.891785264455997 ], [ 150.601672617589571, -34.8918074140432 ], [ 150.601301097204527, -34.891754095561474 ], [ 150.601111536106686, -34.891726897935015 ], [ 150.600898103348044, -34.891696267244676 ], [ 150.600854520661784, -34.891436142237765 ], [ 150.60083999043357, -34.891349389371975 ], [ 150.60082770080885, -34.891275956018383 ], [ 150.601009821447491, -34.891255250076227 ], [ 150.60099902869672, -34.891102020694021 ], [ 150.600988208625324, -34.890948414849738 ], [ 150.600977389696737, -34.890794808123232 ], [ 150.60095895098064, -34.890453138162989 ], [ 150.600925451545351, -34.890448354179895 ], [ 150.600960976324529, -34.890279452955859 ], [ 150.601000829636433, -34.890089956213451 ], [ 150.601216520321628, -34.890120793491178 ], [ 150.601257440010244, -34.890152427690381 ], [ 150.601304985917551, -34.89032866742658 ], [ 150.601353767257962, -34.890509533617248 ], [ 150.601426133676142, -34.890777734333604 ], [ 150.601463313205954, -34.890915653654446 ], [ 150.601500974289166, -34.891055114094016 ], [ 150.601538596874605, -34.891194585481202 ], [ 150.601581291705827, -34.891352834860541 ], [ 150.60162478487274, -34.891513772888288 ], [ 150.601697957618029, -34.891785264455997 ] ] ] ] } },
{ "type": "Feature", "properties": { "OBJECTID": 425, "Comments": "Downloaded from SEED Map Service 20250513", "FSource": "https://mapprod3.environment.nsw.gov.au/arcgis/rest/services/Planning/EPI_Primary_Planning_Layers/MapServer/2", "SourceDate": 20250513.0, "Supplier": "DOP", "EPI_NAME": "Shoalhaven Local Environmental Plan 2014", "LGA_NAME": "SHOALHAVEN", "PUBLISHED_DATE": "20230224000000", "COMMENCED_DATE": "20230426000000", "CURRENCY_DATE": "20240823000000", "AMENDMENT": "State Environmental Planning Policy Amendment (Land Use Zones) 2023", "MAP_TYPE": "LZN", "MAP_NAME": "Land Zoning Map", "LAY_NAME": "Zone", "LAY_CLASS": "Mixed Use", "PCO_REF_KEY": "2014-179", "EPI_TYPE": "LEP", "SYM_CODE": "MU1", "PURPOSE": null, "arcgisonline_objectid": 586609.0, "arcgisonline_type": "arcgisonline_polygon", "multi_reader_type": "ARCGISFEATURES", "SHAPE_Length": 1032.6595421198249, "SHAPE_Area": 33337.524326060498 }, "geometry": { "type": "MultiPolygon", "coordinates": [ [ [ [ 150.621732183541809, -34.90309500752123 ], [ 150.621741550751977, -34.903099659591412 ], [ 150.621750963553922, -34.903104248547834 ], [ 150.62176042931722, -34.903108784451092 ], [ 150.621769931063454, -34.90311324893905 ], [ 150.621779477307825, -34.903117650291769 ], [ 150.621789068884027, -34.903121997540495 ], [ 150.621798696443136, -34.903126273373843 ], [ 150.621808368240409, -34.903130495081754 ], [ 150.621818077114227, -34.903134645395703 ], [ 150.621827829392458, -34.903138732552975 ], [ 150.621837618487234, -34.903142757326044 ], [ 150.621847452054055, -34.903146719864822 ], [ 150.621857311527037, -34.903150618904313 ], [ 150.621867216825564, -34.903154446721068 ], [ 150.621877158706724, -34.903158220262441 ], [ 150.621887135476953, -34.903161922366955 ], [ 150.621897148229948, -34.903165553056049 ], [ 150.621907196471852, -34.903169129448273 ], [ 150.621917271947353, -34.903172634253778 ], [ 150.621927392154646, -34.903176067815075 ], [ 150.621937539361596, -34.903179437898451 ], [ 150.621947713542198, -34.903182745404834 ], [ 150.621957933548174, -34.903185981688416 ], [ 150.621968169617332, -34.903189154279943 ], [ 150.621978442476887, -34.903192265388121 ], [ 150.621988742595846, -34.903195304008527 ], [ 150.621999077603704, -34.903198271191997 ], [ 150.622009440704744, -34.90320117491887 ], [ 150.622019820076815, -34.903204007745806 ], [ 150.622030236550927, -34.903206768277627 ], [ 150.622040679972571, -34.903209467133372 ], [ 150.622051140550866, -34.903212102318413 ], [ 150.622061637371445, -34.903214657078074 ], [ 150.622072152416308, -34.903217149089393 ], [ 150.622082694460573, -34.903219577622679 ], [ 150.622093254129197, -34.90322192626757 ], [ 150.622103839677493, -34.903224212313972 ], [ 150.622114444803515, -34.90322642662364 ], [ 150.622125075835157, -34.903228577433808 ], [ 150.622135715741962, -34.903230648184319 ], [ 150.622146383715659, -34.903232656379124 ], [ 150.622157076761113, -34.903234592043219 ], [ 150.622167780609061, -34.903236456700249 ], [ 150.622178501587484, -34.903238258587471 ], [ 150.62218924021596, -34.903239979685303 ], [ 150.622199997068464, -34.903241638034721 ], [ 150.622210771311188, -34.90324322460453 ], [ 150.622221555288576, -34.903244739244847 ], [ 150.622232356656184, -34.903246182105548 ], [ 150.622243167732393, -34.90324755393776 ], [ 150.622253996224714, -34.90324885308933 ], [ 150.623561395069316, -34.903428252581932 ], [ 150.623700498682126, -34.903447184383154 ], [ 150.62371321824611, -34.903448896319439 ], [ 150.623725956033184, -34.903450545506693 ], [ 150.623738702719805, -34.903452113732683 ], [ 150.623751467343737, -34.903453629120399 ], [ 150.623764240867217, -34.903455063546915 ], [ 150.623777023890398, -34.903456434152197 ], [ 150.623789815501453, -34.903457734608011 ], [ 150.623802625361321, -34.903458971413755 ], [ 150.623815434018098, -34.903460136075523 ], [ 150.623828262225032, -34.903461229900742 ], [ 150.623841088969101, -34.903462260591802 ], [ 150.623854195186681, -34.90346323815146 ], [ 150.623867308976202, -34.90346414283723 ], [ 150.623880432472902, -34.903464976493844 ], [ 150.623893555834059, -34.903465738928787 ], [ 150.623906696609822, -34.903466428682371 ], [ 150.623919829594428, -34.903467047064524 ], [ 150.623932978873995, -34.903467593644891 ], [ 150.623946120362291, -34.903468068853805 ], [ 150.623959270489991, -34.9034684721112 ], [ 150.62397243032467, -34.903468804339425 ], [ 150.623985588981839, -34.903469063522614 ], [ 150.623998738987723, -34.903469243204121 ], [ 150.62401189846679, -34.903469359965293 ], [ 150.624025066585034, -34.903469404774917 ], [ 150.624038226103806, -34.903469368280902 ], [ 150.624051385226949, -34.903469269575027 ], [ 150.624064544214065, -34.903469099647431 ], [ 150.624077693507957, -34.903468848394816 ], [ 150.6240908533685, -34.903468534243224 ], [ 150.624104003509757, -34.903468139667616 ], [ 150.624117153255241, -34.903467682880112 ], [ 150.624130294400999, -34.903467144788983 ], [ 150.624143435410502, -34.903466535476142 ], [ 150.624156568394568, -34.903465862900696 ], [ 150.624169700408373, -34.903465110072339 ], [ 150.62418282356262, -34.903464284950189 ], [ 150.624195937571727, -34.903463397445009 ], [ 150.624209042954931, -34.903462429537186 ], [ 150.624222148227688, -34.903461389506688 ], [ 150.624235235606022, -34.903460286922055 ], [ 150.624248314358368, -34.903459103934807 ], [ 150.624261393000126, -34.903457848824871 ], [ 150.624274454007036, -34.903456522150996 ], [ 150.624287504800861, -34.903455132171743 ], [ 150.624300539287105, -34.903453662541132 ], [ 150.624313572309376, -34.903452129776269 ], [ 150.62432658798221, -34.903450515536683 ], [ 150.624339585734475, -34.903448839643978 ], [ 150.624352574886359, -34.903447082447691 ], [ 150.624365546143565, -34.903445262697289 ], [ 150.624378507421142, -34.903443371532731 ], [ 150.624391442574023, -34.903441399623333 ], [ 150.624404368607202, -34.903439364429993 ], [ 150.624417277005165, -34.903437257672749 ], [ 150.62443017625742, -34.903435088532547 ], [ 150.624443048291198, -34.903432838626145 ], [ 150.624455902689675, -34.903430517155883 ], [ 150.624468739219139, -34.903428132230573 ], [ 150.62448155701955, -34.903425675720001 ], [ 150.624494358511839, -34.903423139558129 ], [ 150.624507132032704, -34.903420548758561 ], [ 150.624519887083977, -34.903417877363943 ], [ 150.624532625593417, -34.903415134426837 ], [ 150.624545336364918, -34.903412328743258 ], [ 150.624558020751721, -34.903409451324727 ], [ 150.624570686435248, -34.903406501420008 ], [ 150.624583325448413, -34.903403489691172 ], [ 150.624595938076823, -34.903400406227426 ], [ 150.624608531975838, -34.903397251178461 ], [ 150.624621099515991, -34.903394023493632 ], [ 150.624633640385667, -34.9033907339847 ], [ 150.624646145027668, -34.90338737254843 ], [ 150.624658631800202, -34.90338394765719 ], [ 150.62467109242138, -34.903380442922249 ], [ 150.624683516295647, -34.903376884279616 ], [ 150.624695921699896, -34.903373245042012 ], [ 150.624708284054861, -34.903369542758604 ], [ 150.624720627420686, -34.903365777899857 ], [ 150.624726157621495, -34.903364074943894 ], [ 150.624875884036697, -34.903693275736927 ], [ 150.624996397156792, -34.903958232129135 ], [ 150.625054008997694, -34.904084884539053 ], [ 150.625331786101867, -34.904122325128199 ], [ 150.625666510084983, -34.904167449138448 ], [ 150.62591180039098, -34.904200506828722 ], [ 150.625845154701238, -34.904522860504095 ], [ 150.621204664995588, -34.903891314782761 ], [ 150.621312571582564, -34.903353583381644 ], [ 150.621293128496262, -34.903350939915903 ], [ 150.621308698831172, -34.903273221910077 ], [ 150.62155074304809, -34.903147204947224 ], [ 150.621641046600359, -34.903045158539754 ], [ 150.621649939064213, -34.903050411629366 ], [ 150.621658884775428, -34.903055601755227 ], [ 150.621667875818588, -34.90306073777716 ], [ 150.621676920083132, -34.903065811736283 ], [ 150.621686009679621, -34.903070831591506 ], [ 150.621695153617054, -34.903075788504303 ], [ 150.621704340933093, -34.903080683161541 ], [ 150.621713573840964, -34.903085514705033 ], [ 150.621722852080723, -34.903090292144583 ], [ 150.621732183541809, -34.90309500752123 ] ] ] ] } },
{ "type": "Feature", "properties": { "OBJECTID": 675, "Comments": "Downloaded from SEED Map Service 20250513", "FSource": "https://mapprod3.environment.nsw.gov.au/arcgis/rest/services/Planning/EPI_Primary_Planning_Layers/MapServer/2", "SourceDate": 20250513.0, "Supplier": "DOP", "EPI_NAME": "Shoalhaven Local Environmental Plan 2014", "LGA_NAME": "SHOALHAVEN", "PUBLISHED_DATE": "20230224000000", "COMMENCED_DATE": "20230426000000", "CURRENCY_DATE": "20240823000000", "AMENDMENT": "State Environmental Planning Policy Amendment (Land Use Zones) 2023", "MAP_TYPE": "LZN", "MAP_NAME": "Land Zoning Map", "LAY_NAME": "Zone", "LAY_CLASS": "Mixed Use", "PCO_REF_KEY": "2014-179", "EPI_TYPE": "LEP", "SYM_CODE": "MU1", "PURPOSE": null, "arcgisonline_objectid": 587204.0, "arcgisonline_type": "arcgisonline_polygon", "multi_reader_type": "ARCGISFEATURES", "SHAPE_Length": 513.30450888271832, "SHAPE_Area": 12371.271396607895 }, "geometry": { "type": "MultiPolygon", "coordinates": [ [ [ [ 150.597166498427953, -35.099765013163228 ], [ 150.597162606951343, -35.09976653698677 ], [ 150.597159721513833, -35.099767792292973 ], [ 150.597156887793318, -35.099769154095284 ], [ 150.597154100467321, -35.099770616879418 ], [ 150.597151366007495, -35.099772184379582 ], [ 150.597148686171295, -35.099773834094101 ], [ 150.597146069252545, -35.099775582413741 ], [ 150.597143514181397, -35.099777428415813 ], [ 150.597142716400555, -35.099778038208157 ], [ 150.597141953763924, -35.099778683854261 ], [ 150.597141182686528, -35.099779355475306 ], [ 150.597140448590238, -35.099780037745703 ], [ 150.597139740327492, -35.099780736754653 ], [ 150.597139049669181, -35.099781471269559 ], [ 150.597138378214083, -35.099782224194428 ], [ 150.597137741045032, -35.099783004842948 ], [ 150.597137123396607, -35.099783793090239 ], [ 150.597136531528861, -35.0997845998779 ], [ 150.597135975334339, -35.099785424500688 ], [ 150.597135428476889, -35.099786267337791 ], [ 150.597134873396215, -35.099786643056277 ], [ 150.597132892126439, -35.099787961364363 ], [ 150.597131350503304, -35.099788875522563 ], [ 150.597129727467689, -35.099789797982382 ], [ 150.597128023771944, -35.099790740477694 ], [ 150.5971262316219, -35.099791744321031 ], [ 150.597119866880263, -35.099795428573131 ], [ 150.597113180273425, -35.099799614864885 ], [ 150.597106465645737, -35.099803970976247 ], [ 150.597103391282758, -35.099805907643145 ], [ 150.597096498442085, -35.099806956374309 ], [ 150.597089461441925, -35.099807610111881 ], [ 150.597081716446354, -35.099807870295137 ], [ 150.597071112160535, -35.099806776577942 ], [ 150.597069920391391, -35.099808103329458 ], [ 150.59706862901163, -35.099809385737096 ], [ 150.597067239170428, -35.099810622020698 ], [ 150.597065768619132, -35.099811805320627 ], [ 150.597064219312188, -35.099812943788763 ], [ 150.597062586600117, -35.099814046347475 ], [ 150.597060149273261, -35.099815543113806 ], [ 150.597057603527674, -35.099816959303197 ], [ 150.597054949930595, -35.099818312956046 ], [ 150.597052207647039, -35.099819586423223 ], [ 150.597049355610437, -35.099820787400091 ], [ 150.597046407504735, -35.099821898128852 ], [ 150.597043376734518, -35.099822947721954 ], [ 150.597039038602787, -35.099824292308263 ], [ 150.597034584340463, -35.099825520106208 ], [ 150.597030226658774, -35.099826596571297 ], [ 150.597027735326151, -35.099826757205882 ], [ 150.59702530583553, -35.099826828920946 ], [ 150.597016225659388, -35.099831320210853 ], [ 150.597006005661797, -35.099834771149503 ], [ 150.596998441196916, -35.099837998001682 ], [ 150.596972741084841, -35.0998460035145 ], [ 150.596959025808673, -35.099849587961216 ], [ 150.596943097246765, -35.099856490052268 ], [ 150.596937029601008, -35.099856966486712 ], [ 150.596924675697352, -35.099866709648481 ], [ 150.59692435423662, -35.099867309954945 ], [ 150.596923241941198, -35.099868171325546 ], [ 150.596921718050112, -35.099869452726253 ], [ 150.596920238602024, -35.099870752136056 ], [ 150.596918814571126, -35.099872106732356 ], [ 150.596917432843696, -35.099873477492402 ], [ 150.596916922092475, -35.09987402446464 ], [ 150.596916428642999, -35.099874579893147 ], [ 150.596915962928477, -35.099875162013966 ], [ 150.596915532531682, -35.099875736722069 ], [ 150.596915121390992, -35.099876328038327 ], [ 150.59691473496116, -35.099876936972358 ], [ 150.596914359467235, -35.099877547024697 ], [ 150.596914017745036, -35.099878164958476 ], [ 150.596913704234055, -35.099878793367779 ], [ 150.596913418181884, -35.099879420518704 ], [ 150.596913148875927, -35.099880075045512 ], [ 150.596912916036757, -35.099880720379474 ], [ 150.596912709507336, -35.099881366235209 ], [ 150.596911643230413, -35.099885292575792 ], [ 150.596910764013188, -35.099889236147973 ], [ 150.596910056191035, -35.099893207458607 ], [ 150.596909545559299, -35.099897187187189 ], [ 150.596908559375294, -35.09990514734001 ], [ 150.596907277009933, -35.0999130709694 ], [ 150.596906559888311, -35.099917060124746 ], [ 150.596905860835506, -35.099921031609242 ], [ 150.596905161809076, -35.099925002192798 ], [ 150.596904480057816, -35.099928982133527 ], [ 150.59690380790812, -35.099932971279259 ], [ 150.59690306408578, -35.099940895672852 ], [ 150.596901962175224, -35.099948837304218 ], [ 150.596899002523116, -35.099964237720314 ], [ 150.596898509938683, -35.099966183214882 ], [ 150.596897900835472, -35.099968137216138 ], [ 150.596897192753289, -35.09997010007195 ], [ 150.596896359355952, -35.099972072161464 ], [ 150.596895426979614, -35.099974053105527 ], [ 150.596894369552672, -35.099976034273951 ], [ 150.596893221916616, -35.099978024470843 ], [ 150.596884526622944, -35.099994473117 ], [ 150.59686608834653, -35.100034847059241 ], [ 150.596855340244787, -35.100058673092889 ], [ 150.596844673575646, -35.100082489922876 ], [ 150.59684371412169, -35.100084757894699 ], [ 150.596842825723257, -35.100087071447177 ], [ 150.596842037464683, -35.100089411325051 ], [ 150.59684132961354, -35.100091777136967 ], [ 150.596840693347076, -35.100094170510864 ], [ 150.596840154736924, -35.100096600076974 ], [ 150.596839689363236, -35.100099038307185 ], [ 150.596839312044267, -35.100101503524591 ], [ 150.596839025501595, -35.10010397775396 ], [ 150.596838398737873, -35.100111426695392 ], [ 150.596837805946507, -35.100116373861873 ], [ 150.596837035038163, -35.100121260703943 ], [ 150.596836094450481, -35.100126136067715 ], [ 150.596835905978963, -35.100126988715381 ], [ 150.596834381832906, -35.100130968174959 ], [ 150.596830035702254, -35.100141213595478 ], [ 150.596825354864592, -35.100151352315812 ], [ 150.596816311447895, -35.100171736129631 ], [ 150.596806746879423, -35.100196270738913 ], [ 150.59680201385018, -35.100208560204351 ], [ 150.596796697889715, -35.10022067945166 ], [ 150.596790817207392, -35.100232718086303 ], [ 150.59678450717314, -35.100244585942754 ], [ 150.596781888939262, -35.100249291912974 ], [ 150.596776887635144, -35.100258390302393 ], [ 150.59677670897247, -35.100258722101501 ], [ 150.596771760351317, -35.100267856692426 ], [ 150.59676840728946, -35.100273755141217 ], [ 150.596764786773548, -35.100279572562968 ], [ 150.596760904549399, -35.100285300056967 ], [ 150.59675264970673, -35.100296496515945 ], [ 150.596748767745396, -35.100302215000148 ], [ 150.596745137069576, -35.100308042135758 ], [ 150.596741767031233, -35.100313958276189 ], [ 150.596736038845705, -35.100324463847102 ], [ 150.596733161287432, -35.100329708252232 ], [ 150.59673028399331, -35.100334943647965 ], [ 150.596727379859857, -35.100340196540458 ], [ 150.596720396536057, -35.100353364464262 ], [ 150.596713897425587, -35.100366702450877 ], [ 150.596705131435215, -35.10038682582686 ], [ 150.596704655290552, -35.100388099158465 ], [ 150.596701098088118, -35.100397026963769 ], [ 150.596697430644099, -35.1004073182919 ], [ 150.596694402078896, -35.100416883095377 ], [ 150.59669171170853, -35.100426510496867 ], [ 150.596690700201606, -35.100430364001539 ], [ 150.596688718289158, -35.100438090756718 ], [ 150.59668774130617, -35.100441963876754 ], [ 150.596686772287796, -35.100445827238673 ], [ 150.596685966531084, -35.100449098876162 ], [ 150.596685159651656, -35.100452371392841 ], [ 150.596684370338494, -35.100455643356476 ], [ 150.596683581592345, -35.1004589333605 ], [ 150.596682810941672, -35.100462204792784 ], [ 150.596682040026337, -35.100465485234402 ], [ 150.596681295420865, -35.100468766197835 ], [ 150.596676510225137, -35.100491795499138 ], [ 150.59667348888857, -35.100510153270264 ], [ 150.596672045409434, -35.10052292715222 ], [ 150.596671166508486, -35.100527606318266 ], [ 150.596670952265413, -35.100529336474878 ], [ 150.596670807932412, -35.100531039171415 ], [ 150.596670755434502, -35.10053271484275 ], [ 150.596670791429915, -35.100534365225514 ], [ 150.596670852826321, -35.100535673557893 ], [ 150.59667095237495, -35.100536803256752 ], [ 150.596671103812838, -35.100537734762504 ], [ 150.596671426410239, -35.100538963538447 ], [ 150.596671507440817, -35.100539528557093 ], [ 150.596671848112038, -35.10054092626423 ], [ 150.596672053828968, -35.100542549363652 ], [ 150.596672153005159, -35.100544027919526 ], [ 150.596672116782713, -35.100545336118657 ], [ 150.596672019155562, -35.100546680961138 ], [ 150.596671865869467, -35.100548053546319 ], [ 150.596671651257992, -35.100549460072088 ], [ 150.596671373049332, -35.1005509031977 ], [ 150.596671050170585, -35.100552373382541 ], [ 150.596669392395881, -35.100558997772325 ], [ 150.596667527524545, -35.100565577488858 ], [ 150.596666463693651, -35.100569531820227 ], [ 150.596665439433394, -35.100573483330578 ], [ 150.59666409407086, -35.100578172175311 ], [ 150.596662776469799, -35.100582886811502 ], [ 150.596661467876658, -35.100587593513183 ], [ 150.59666015851613, -35.100592326341932 ], [ 150.596658859550757, -35.100597041347662 ], [ 150.596656295591686, -35.100606435073068 ], [ 150.596653705560186, -35.100615820168159 ], [ 150.596650989051142, -35.100625179316673 ], [ 150.596648003650188, -35.100634394307249 ], [ 150.596639784305779, -35.100656893044388 ], [ 150.596639443108273, -35.100657754381388 ], [ 150.596637972881609, -35.100660307898664 ], [ 150.596635948210007, -35.100663588713296 ], [ 150.596633796229725, -35.100666834550303 ], [ 150.59663154605164, -35.100670025253514 ], [ 150.596629171286423, -35.100673163003933 ], [ 150.596626687599127, -35.100676237294721 ], [ 150.596624813757984, -35.100678415912817 ], [ 150.596622860355382, -35.100680539766806 ], [ 150.596620816084851, -35.100682620351357 ], [ 150.596618701287412, -35.100684637336379 ], [ 150.596616504709488, -35.100686600414711 ], [ 150.596614236773007, -35.10068849086241 ], [ 150.596611897133926, -35.100690320391656 ], [ 150.596603704595225, -35.100696666425577 ], [ 150.596595680908479, -35.100703201508452 ], [ 150.596592069462332, -35.100706131732885 ], [ 150.596588358578288, -35.10070897434634 ], [ 150.596584547795118, -35.100711707704654 ], [ 150.596580658455679, -35.100714352063257 ], [ 150.596576669164193, -35.100716888968542 ], [ 150.596572617219579, -35.100719318258911 ], [ 150.596568476549976, -35.100721631304076 ], [ 150.596564272724578, -35.100723853852038 ], [ 150.596559986989803, -35.100725952176859 ], [ 150.596555710871513, -35.100728021845583 ], [ 150.596551488885439, -35.100730227806608 ], [ 150.596547339206609, -35.100732548785452 ], [ 150.596543134273276, -35.100734995773799 ], [ 150.596539011725014, -35.100737550768194 ], [ 150.596534995705753, -35.100740213346086 ], [ 150.596531123778988, -35.100742974336512 ], [ 150.596527367415831, -35.100745834075084 ], [ 150.596523763083496, -35.100748783369106 ], [ 150.596515749936714, -35.100755631461503 ], [ 150.596507781470223, -35.100762489454141 ], [ 150.59650000976805, -35.100769445100816 ], [ 150.596492578329446, -35.100776579674786 ], [ 150.596491538411414, -35.10077766513681 ], [ 150.59603239358168, -35.100718502517658 ], [ 150.596058389197907, -35.10058270694924 ], [ 150.596084375490904, -35.100447001331823 ], [ 150.59611035291465, -35.100311295528584 ], [ 150.596136338744401, -35.100175598896868 ], [ 150.59616231706579, -35.100039893091747 ], [ 150.596187756188584, -35.099904205426917 ], [ 150.59620858853944, -35.099795624265468 ], [ 150.596229412030283, -35.099687043823394 ], [ 150.596258454802182, -35.099537775933555 ], [ 150.596287032650508, -35.099388498808914 ], [ 150.596359802024608, -35.099008443277427 ], [ 150.596587523375945, -35.098964170544193 ], [ 150.596815253274656, -35.098919897546459 ], [ 150.597166498427953, -35.099765013163228 ] ] ] ] } },
{ "type": "Feature", "properties": { "OBJECTID": 676, "Comments": "Downloaded from SEED Map Service 20250513", "FSource": "https://mapprod3.environment.nsw.gov.au/arcgis/rest/services/Planning/EPI_Primary_Planning_Layers/MapServer/2", "SourceDate": 20250513.0, "Supplier": "DOP", "EPI_NAME": "Shoalhaven Local Environmental Plan 2014", "LGA_NAME": "SHOALHAVEN", "PUBLISHED_DATE": "20230224000000", "COMMENCED_DATE": "20230426000000", "CURRENCY_DATE": "20240823000000", "AMENDMENT": "State Environmental Planning Policy Amendment (Land Use Zones) 2023", "MAP_TYPE": "LZN", "MAP_NAME": "Land Zoning Map", "LAY_NAME": "Zone", "LAY_CLASS": "Mixed Use", "PCO_REF_KEY": "2014-179", "EPI_TYPE": "LEP", "SYM_CODE": "MU1", "PURPOSE": null, "arcgisonline_objectid": 587205.0, "arcgisonline_type": "arcgisonline_polygon", "multi_reader_type": "ARCGISFEATURES", "SHAPE_Length": 1344.6910035556975, "SHAPE_Area": 109774.95963139001 }, "geometry": { "type": "MultiPolygon", "coordinates": [ [ [ [ 150.597610708520023, -35.095129216752198 ], [ 150.597643640958609, -35.095133492594329 ], [ 150.599624357171336, -35.09539061622371 ], [ 150.60057939603783, -35.095514579991928 ], [ 150.600606486455547, -35.095518093913448 ], [ 150.600613799620589, -35.09551904371925 ], [ 150.601112484009604, -35.09558373721493 ], [ 150.601329205365232, -35.095611857347372 ], [ 150.60154592822613, -35.095639969011117 ], [ 150.601719309192703, -35.095662468214023 ], [ 150.601613193974686, -35.09613496061047 ], [ 150.601307263673334, -35.096380645132037 ], [ 150.601369607569836, -35.096846565550663 ], [ 150.601052749964282, -35.098136457054942 ], [ 150.59961408536202, -35.098188734142717 ], [ 150.599362341845591, -35.098068472064789 ], [ 150.599131868473194, -35.097958368466379 ], [ 150.597558913923422, -35.097206933894221 ], [ 150.597272631812785, -35.097070036005903 ], [ 150.597170872071644, -35.097021370460318 ], [ 150.597035328069779, -35.096956551432925 ], [ 150.59677646661504, -35.096832758882087 ], [ 150.596987030740337, -35.095734545886707 ], [ 150.597023459290455, -35.095544561898848 ], [ 150.597115413141921, -35.095064917783027 ], [ 150.597377375471154, -35.095098927084315 ], [ 150.597610708520023, -35.095129216752198 ] ] ] ] } },
{ "type": "Feature", "properties": { "OBJECTID": 677, "Comments": "Downloaded from SEED Map Service 20250513", "FSource": "https://mapprod3.environment.nsw.gov.au/arcgis/rest/services/Planning/EPI_Primary_Planning_Layers/MapServer/2", "SourceDate": 20250513.0, "Supplier": "DOP", "EPI_NAME": "Shoalhaven Local Environmental Plan 2014", "LGA_NAME": "SHOALHAVEN", "PUBLISHED_DATE": "20230224000000", "COMMENCED_DATE": "20230426000000", "CURRENCY_DATE": "20240823000000", "AMENDMENT": "State Environmental Planning Policy Amendment (Land Use Zones) 2023", "MAP_TYPE": "LZN", "MAP_NAME": "Land Zoning Map", "LAY_NAME": "Zone", "LAY_CLASS": "Mixed Use", "PCO_REF_KEY": "2014-179", "EPI_TYPE": "LEP", "SYM_CODE": "MU1", "PURPOSE": null, "arcgisonline_objectid": 587206.0, "arcgisonline_type": "arcgisonline_polygon", "multi_reader_type": "ARCGISFEATURES", "SHAPE_Length": 1636.4125525915795, "SHAPE_Area": 129092.95722253271 }, "geometry": { "type": "MultiPolygon", "coordinates": [ [ [ [ 150.601681467835448, -35.0907901542706 ], [ 150.601544794277316, -35.09139552786435 ], [ 150.601529152084339, -35.091465914426465 ], [ 150.601452501806335, -35.091805478488403 ], [ 150.601412208622577, -35.091983969760847 ], [ 150.60137665886333, -35.09214145801959 ], [ 150.600743873937034, -35.0920593298803 ], [ 150.597765578236448, -35.091672703533192 ], [ 150.597791600228391, -35.091537016005411 ], [ 150.597818241278475, -35.091401121684186 ], [ 150.597844272130288, -35.09126542439607 ], [ 150.597870303978823, -35.091129727117824 ], [ 150.597896326906096, -35.090994031455814 ], [ 150.597922949989226, -35.090855259278342 ], [ 150.597947519094163, -35.090727091718186 ], [ 150.597948389009929, -35.090722636818406 ], [ 150.597950047471528, -35.09071399584392 ], [ 150.59800044299044, -35.090451243783413 ], [ 150.598001983772264, -35.090443211665011 ], [ 150.598026446730728, -35.090315699136994 ], [ 150.598052486625875, -35.090180002850595 ], [ 150.598078528375908, -35.090044314704237 ], [ 150.598091256541466, -35.089978016689308 ], [ 150.598104576867428, -35.089908617666971 ], [ 150.598115874062444, -35.089849748163473 ], [ 150.598126878509049, -35.08979240804247 ], [ 150.598130616464232, -35.08977292134503 ], [ 150.598156658180216, -35.089637224153741 ], [ 150.598174155203338, -35.089546051095525 ], [ 150.598208738857323, -35.089365838701511 ], [ 150.5982347879212, -35.089230142527668 ], [ 150.598260827020738, -35.089094446146454 ], [ 150.598285568115585, -35.088965570621696 ], [ 150.59828686797519, -35.088958757905267 ], [ 150.598312907998377, -35.088823060621138 ], [ 150.598316654911002, -35.088803564175016 ], [ 150.598338957760518, -35.088687364421595 ], [ 150.598364998680893, -35.088551667135484 ], [ 150.598391038379305, -35.088415970716753 ], [ 150.598417077740464, -35.088280282394607 ], [ 150.598912022942415, -35.088345074056519 ], [ 150.598938045213316, -35.088209377151053 ], [ 150.598964076127089, -35.088073681308401 ], [ 150.598990099321696, -35.087937983500012 ], [ 150.599016130063092, -35.087802286732739 ], [ 150.599042153032514, -35.087666589801607 ], [ 150.599068174780115, -35.087530893737885 ], [ 150.599094206345796, -35.087395196055844 ], [ 150.599120229017075, -35.0872594990892 ], [ 150.599146250466532, -35.087123802989943 ], [ 150.601253167172274, -35.088179975061493 ], [ 150.600799897539531, -35.090675729108575 ], [ 150.601681467835448, -35.0907901542706 ] ] ] ] } },
{ "type": "Feature", "properties": { "OBJECTID": 754, "Comments": "Downloaded from SEED Map Service 20250513", "FSource": "https://mapprod3.environment.nsw.gov.au/arcgis/rest/services/Planning/EPI_Primary_Planning_Layers/MapServer/2", "SourceDate": 20250513.0, "Supplier": "DOP", "EPI_NAME": "Shoalhaven Local Environmental Plan 2014", "LGA_NAME": "SHOALHAVEN", "PUBLISHED_DATE": "20230224000000", "COMMENCED_DATE": "20230426000000", "CURRENCY_DATE": "20240823000000", "AMENDMENT": "State Environmental Planning Policy Amendment (Land Use Zones) 2023", "MAP_TYPE": "LZN", "MAP_NAME": "Land Zoning Map", "LAY_NAME": "Zone", "LAY_CLASS": "Mixed Use", "PCO_REF_KEY": "2014-179", "EPI_TYPE": "LEP", "SYM_CODE": "MU1", "PURPOSE": null, "arcgisonline_objectid": 587477.0, "arcgisonline_type": "arcgisonline_polygon", "multi_reader_type": "ARCGISFEATURES", "SHAPE_Length": 881.94858917780834, "SHAPE_Area": 45765.768268512089 }, "geometry": { "type": "MultiPolygon", "coordinates": [ [ [ [ 150.633974059304848, -34.907930878166738 ], [ 150.633941994427147, -34.907951090637944 ], [ 150.633908684561419, -34.907969879735916 ], [ 150.633874228212619, -34.907987206811384 ], [ 150.633838694976589, -34.908003011016298 ], [ 150.633802219684043, -34.908017246295742 ], [ 150.633764875349272, -34.908029885223556 ], [ 150.633726778106933, -34.908040884986804 ], [ 150.633688027556929, -34.908050206958073 ], [ 150.633648738774014, -34.908057845265169 ], [ 150.633609010264649, -34.908063761259619 ], [ 150.633568958249271, -34.908067947288806 ], [ 150.633528701420204, -34.908070385832097 ], [ 150.633488336104222, -34.908071076061553 ], [ 150.633447990319837, -34.908070018668283 ], [ 150.63340776804975, -34.908067212973833 ], [ 150.633367780071808, -34.908062650318811 ], [ 150.633328132356269, -34.90805637513828 ], [ 150.633288932606575, -34.908048371501287 ], [ 150.633250324917441, -34.908038689994939 ], [ 150.633212380097603, -34.908027341915911 ], [ 150.633175206588731, -34.908014361831512 ], [ 150.633138919316934, -34.907999787139978 ], [ 150.633103619902357, -34.907983661290828 ], [ 150.633072308524305, -34.907969506271897 ], [ 150.633037098248366, -34.90795546007589 ], [ 150.633001052727252, -34.907942910294494 ], [ 150.632964282508851, -34.907931894239347 ], [ 150.63292687657696, -34.907922437983991 ], [ 150.632888940346845, -34.907914567020853 ], [ 150.632850557255892, -34.907908310020098 ], [ 150.632811832349773, -34.907903667225433 ], [ 150.632772883074068, -34.907900664364021 ], [ 150.632733791480547, -34.907899302133245 ], [ 150.632694673603396, -34.907899579188324 ], [ 150.632655608711815, -34.907901516906861 ], [ 150.632616722469436, -34.907905083481388 ], [ 150.632580838804756, -34.907909915658919 ], [ 150.632366295506216, -34.907943504660118 ], [ 150.632343239654432, -34.907947377002735 ], [ 150.632315110671556, -34.907933375774192 ], [ 150.632287036235425, -34.907919418874037 ], [ 150.632221319894768, -34.907742156201579 ], [ 150.631791933485829, -34.907006420907337 ], [ 150.631809655445267, -34.906995386908072 ], [ 150.633121695637584, -34.906178556316753 ], [ 150.633255480392393, -34.905524086399097 ], [ 150.633848475758327, -34.905599497664824 ], [ 150.634594494688542, -34.905694360695342 ], [ 150.634249620284578, -34.907536380208128 ], [ 150.634242404057147, -34.907569107109332 ], [ 150.634233118049309, -34.907601467358639 ], [ 150.634221768960771, -34.907633379951875 ], [ 150.634208395260657, -34.907664762700556 ], [ 150.634193031482965, -34.90769551801408 ], [ 150.634175721772721, -34.907725556602408 ], [ 150.634156520488034, -34.907754814616126 ], [ 150.634135464842473, -34.907783177388282 ], [ 150.634112633367408, -34.907810615796869 ], [ 150.634088071191428, -34.907837006314118 ], [ 150.634061861712752, -34.907862302784402 ], [ 150.634034064415687, -34.907886415314749 ], [ 150.634004770277414, -34.907909300601624 ], [ 150.633974059304848, -34.907930878166738 ] ] ] ] } }
]
}
