{
"type": "FeatureCollection",
"name": "RU5_Village",
"crs": { "type": "name", "properties": { "name": "urn:ogc:def:crs:OGC:1.3:CRS84" } },
"features": [
{ "type": "Feature", "properties": { "OBJECTID": 54, "Comments": "Downloaded from SEED Map Service 20250513", "FSource": "https://mapprod3.environment.nsw.gov.au/arcgis/rest/services/Planning/EPI_Primary_Planning_Layers/MapServer/2", "SourceDate": 20250513.0, "Supplier": "DOP", "EPI_NAME": "Shoalhaven Local Environmental Plan 2014", "LGA_NAME": "SHOALHAVEN", "PUBLISHED_DATE": "20140408000000", "COMMENCED_DATE": "20140422000000", "CURRENCY_DATE": "20240823000000", "AMENDMENT": null, "MAP_TYPE": "LZN", "MAP_NAME": "Land Zoning Map", "LAY_NAME": "Zone", "LAY_CLASS": "Village", "PCO_REF_KEY": "2014-179", "EPI_TYPE": "LEP", "SYM_CODE": "RU5", "PURPOSE": null, "arcgisonline_objectid": 585059.0, "arcgisonline_type": "arcgisonline_polygon", "multi_reader_type": "ARCGISFEATURES", "SHAPE_Length": 2642.5608066310479, "SHAPE_Area": 101919.38510214453 }, "geometry": { "type": "MultiPolygon", "coordinates": [ [ [ [ 150.661082357010542, -35.017405060532646 ], [ 150.66478772049669, -35.017543651794014 ], [ 150.665178210668273, -35.017447305904938 ], [ 150.665669869023105, -35.017490495545367 ], [ 150.665584447144539, -35.017572677955492 ], [ 150.665535111672227, -35.017620141797146 ], [ 150.665404497418308, -35.017745807343339 ], [ 150.665273881640474, -35.017871473610597 ], [ 150.665143266810986, -35.01799713073018 ], [ 150.665012651322115, -35.01812279670083 ], [ 150.66488234136051, -35.018248686561051 ], [ 150.664659838938888, -35.018542065749685 ], [ 150.664730355861849, -35.018548740306528 ], [ 150.664689765395138, -35.018725964914374 ], [ 150.664635117974854, -35.019178019201796 ], [ 150.664464991516695, -35.01919586632328 ], [ 150.664441075213205, -35.01919837621837 ], [ 150.664291592055122, -35.019144879610877 ], [ 150.664132167265223, -35.019087823434745 ], [ 150.664045405616264, -35.019056772389142 ], [ 150.663974778498897, -35.019022225943658 ], [ 150.663689096730934, -35.018882476769235 ], [ 150.663515213398284, -35.018768679610631 ], [ 150.663254909152897, -35.018719081592891 ], [ 150.663131268166211, -35.01869552385093 ], [ 150.662912833719986, -35.018653904828994 ], [ 150.662701123047924, -35.018613567071235 ], [ 150.662535720009203, -35.018582048948829 ], [ 150.662370315963472, -35.018550532386492 ], [ 150.662204786827346, -35.018518987948262 ], [ 150.662166134844085, -35.018511627929023 ], [ 150.66203628997809, -35.018543173464629 ], [ 150.66181267487508, -35.018597494821826 ], [ 150.661588986649804, -35.01865183418272 ], [ 150.661365370946982, -35.018706156492605 ], [ 150.661115014035204, -35.018888017502171 ], [ 150.660897207991923, -35.019046232347414 ], [ 150.660731973805383, -35.019166260570266 ], [ 150.660682284938332, -35.019297403776889 ], [ 150.660632596996578, -35.019428546975419 ], [ 150.660591856267132, -35.019536078890972 ], [ 150.660552108575587, -35.01964098409001 ], [ 150.660510165787457, -35.019751697557524 ], [ 150.660443796237502, -35.019926880875126 ], [ 150.660447470574468, -35.020123435271778 ], [ 150.660452291270502, -35.020381158430133 ], [ 150.660457095194516, -35.020638200637052 ], [ 150.660458134934657, -35.020693651946083 ], [ 150.660553638651209, -35.020913330881505 ], [ 150.660610304905902, -35.021146825962703 ], [ 150.660691804574526, -35.021359739522083 ], [ 150.660858380840864, -35.021794949579231 ], [ 150.660968425479211, -35.021197876138771 ], [ 150.661064285749831, -35.021385724815154 ], [ 150.661076862050578, -35.021408977662425 ], [ 150.661083163393386, -35.021420621918914 ], [ 150.661089438708899, -35.021432256658379 ], [ 150.661095703860838, -35.02144390201935 ], [ 150.66110197016107, -35.021455545599203 ], [ 150.661108227418708, -35.021467198920675 ], [ 150.661120713462793, -35.021490505013709 ], [ 150.661126943318806, -35.021502158707378 ], [ 150.661133163901127, -35.021513830251571 ], [ 150.6611455880861, -35.021537154080541 ], [ 150.661151782387691, -35.02154882511708 ], [ 150.661164161977268, -35.021572176030283 ], [ 150.66129751795043, -35.021815432351367 ], [ 150.661368449246368, -35.021952079129228 ], [ 150.661411663431039, -35.022022105601657 ], [ 150.661476831160542, -35.022114200813974 ], [ 150.661540924576002, -35.02220739131652 ], [ 150.66158961540421, -35.022273634317948 ], [ 150.661628018013801, -35.022324120273801 ], [ 150.661657195332225, -35.022374390509107 ], [ 150.661671617873367, -35.022413858698172 ], [ 150.661687886888672, -35.022462791988914 ], [ 150.661698698195693, -35.022502082379617 ], [ 150.66171755746106, -35.022537372983273 ], [ 150.661740379167441, -35.022573362894846 ], [ 150.661772022877898, -35.022609533684992 ], [ 150.661802069916916, -35.02263985822443 ], [ 150.661819415825363, -35.022656531070581 ], [ 150.66185770010506, -35.022695524380218 ], [ 150.661897714785056, -35.022733325017768 ], [ 150.661939441896664, -35.022769871334376 ], [ 150.661982773403054, -35.022805108959872 ], [ 150.662040690558001, -35.022851937711806 ], [ 150.662096732996361, -35.022900297079126 ], [ 150.662149494878264, -35.022948873552281 ], [ 150.662131844442087, -35.023041883671397 ], [ 150.662440267419328, -35.023253648155901 ], [ 150.662022705058405, -35.023616861321599 ], [ 150.661098894922674, -35.023481577857098 ], [ 150.661014831083207, -35.023469260731453 ], [ 150.660879124976532, -35.023449387557527 ], [ 150.660837532613499, -35.023216198657522 ], [ 150.660739075132398, -35.02266400804524 ], [ 150.660729520171259, -35.02261041184606 ], [ 150.660722967868253, -35.022573696116027 ], [ 150.660740170708408, -35.022473756013035 ], [ 150.660781593521193, -35.022233019818415 ], [ 150.6608374404953, -35.021908460671376 ], [ 150.660290236958701, -35.021308680731416 ], [ 150.660233961452548, -35.021119674001461 ], [ 150.660170219892564, -35.020883662368483 ], [ 150.660109453599262, -35.020658692659076 ], [ 150.660092592841465, -35.020601691207034 ], [ 150.660011057064196, -35.020326192057986 ], [ 150.65993205037563, -35.020059208368373 ], [ 150.659950838386692, -35.019865380689083 ], [ 150.659968418825912, -35.01968411890681 ], [ 150.659983119857657, -35.019532555899588 ], [ 150.659997687140105, -35.019382338022517 ], [ 150.660012298672996, -35.019231680168183 ], [ 150.660038860279627, -35.018957758737287 ], [ 150.660078708003454, -35.018546867190921 ], [ 150.660123861115267, -35.018081187560135 ], [ 150.660090399924627, -35.017815907337074 ], [ 150.659987943241305, -35.017364104538167 ], [ 150.661082357010542, -35.017405060532646 ] ] ] ] } },
{ "type": "Feature", "properties": { "OBJECTID": 216, "Comments": "Downloaded from SEED Map Service 20250513", "FSource": "https://mapprod3.environment.nsw.gov.au/arcgis/rest/services/Planning/EPI_Primary_Planning_Layers/MapServer/2", "SourceDate": 20250513.0, "Supplier": "DOP", "EPI_NAME": "Shoalhaven Local Environmental Plan 2014", "LGA_NAME": "SHOALHAVEN", "PUBLISHED_DATE": "20140408000000", "COMMENCED_DATE": "20140422000000", "CURRENCY_DATE": "20240823000000", "AMENDMENT": null, "MAP_TYPE": "LZN", "MAP_NAME": "Land Zoning Map", "LAY_NAME": "Zone", "LAY_CLASS": "Village", "PCO_REF_KEY": "2014-179", "EPI_TYPE": "LEP", "SYM_CODE": "RU5", "PURPOSE": null, "arcgisonline_objectid": 585758.0, "arcgisonline_type": "arcgisonline_polygon", "multi_reader_type": "ARCGISFEATURES", "SHAPE_Length": 701.06908630820021, "SHAPE_Area": 17251.682954837808 }, "geometry": { "type": "MultiPolygon", "coordinates": [ [ [ [ 150.660592627784979, -35.02319126955652 ], [ 150.660081529100239, -35.023122965035242 ], [ 150.66005115917369, -35.023045784729369 ], [ 150.660019830022719, -35.022966158219759 ], [ 150.659958132543295, -35.022809341488717 ], [ 150.659896433906283, -35.022652534621578 ], [ 150.659834744251611, -35.022495727897656 ], [ 150.659773046080772, -35.022338920077885 ], [ 150.659711348104508, -35.022182113133262 ], [ 150.659649658272116, -35.022025297300878 ], [ 150.659587959641073, -35.02186849028346 ], [ 150.659526260109317, -35.021711684120078 ], [ 150.659464570680711, -35.021554877220076 ], [ 150.659462642638061, -35.02154997381583 ], [ 150.659448373347345, -35.021513704996167 ], [ 150.65940174365636, -35.02135630701094 ], [ 150.659354369531059, -35.021196352463015 ], [ 150.65925190339226, -35.020850441669339 ], [ 150.659163227119848, -35.02056562261982 ], [ 150.659167664741091, -35.020566062541015 ], [ 150.659875896738981, -35.020636246590797 ], [ 150.659960344970671, -35.020921319853144 ], [ 150.660003183320981, -35.021065900253134 ], [ 150.660050620441012, -35.021226032479788 ], [ 150.660080928033693, -35.021328329590254 ], [ 150.660091450728146, -35.021363835530757 ], [ 150.660100065514769, -35.021385734652362 ], [ 150.660161754716484, -35.021542550264563 ], [ 150.660223443855898, -35.021699375761791 ], [ 150.660285142259994, -35.021856191491359 ], [ 150.660346832096707, -35.022013007927079 ], [ 150.6604085210584, -35.022169824315846 ], [ 150.660458343004166, -35.022296467247045 ], [ 150.66046403439438, -35.022328280350841 ], [ 150.660493588041049, -35.022493585442525 ], [ 150.660511633073241, -35.022594528090664 ], [ 150.660523133308288, -35.022658880447672 ], [ 150.660552686059987, -35.02282418550493 ], [ 150.660583907367624, -35.022998929702126 ], [ 150.660605903864479, -35.023121995194842 ], [ 150.660592627784979, -35.02319126955652 ] ] ] ] } },
{ "type": "Feature", "properties": { "OBJECTID": 235, "Comments": "Downloaded from SEED Map Service 20250513", "FSource": "https://mapprod3.environment.nsw.gov.au/arcgis/rest/services/Planning/EPI_Primary_Planning_Layers/MapServer/2", "SourceDate": 20250513.0, "Supplier": "DOP", "EPI_NAME": "Shoalhaven Local Environmental Plan 2014", "LGA_NAME": "SHOALHAVEN", "PUBLISHED_DATE": "20140408000000", "COMMENCED_DATE": "20140422000000", "CURRENCY_DATE": "20240823000000", "AMENDMENT": null, "MAP_TYPE": "LZN", "MAP_NAME": "Land Zoning Map", "LAY_NAME": "Zone", "LAY_CLASS": "Village", "PCO_REF_KEY": "2014-179", "EPI_TYPE": "LEP", "SYM_CODE": "RU5", "PURPOSE": null, "arcgisonline_objectid": 585832.0, "arcgisonline_type": "arcgisonline_polygon", "multi_reader_type": "ARCGISFEATURES", "SHAPE_Length": 698.78716253344533, "SHAPE_Area": 18181.36916305617 }, "geometry": { "type": "MultiPolygon", "coordinates": [ [ [ [ 150.65972509033827, -35.01990878325249 ], [ 150.659709249514663, -35.020072976523792 ], [ 150.659364046252705, -35.020050308154644 ], [ 150.659229004852904, -35.019860611316986 ], [ 150.659110169582618, -35.019693836268232 ], [ 150.658977194027528, -35.019506553536139 ], [ 150.658966863388599, -35.019492003461885 ], [ 150.658971116622098, -35.019468742565913 ], [ 150.658993522887044, -35.019346195684768 ], [ 150.659020182301674, -35.019200386993845 ], [ 150.659047450886732, -35.019051234731286 ], [ 150.659074720426759, -35.018902083377426 ], [ 150.659101998613778, -35.018752932179254 ], [ 150.659129205583838, -35.018603430721832 ], [ 150.659156412208006, -35.018453937359894 ], [ 150.659183626615146, -35.018304436023612 ], [ 150.659210832958621, -35.018154944436859 ], [ 150.659238040334003, -35.018005451055856 ], [ 150.659265245635567, -35.017855949510327 ], [ 150.659292461491816, -35.01770645807359 ], [ 150.659319667659275, -35.017556956522391 ], [ 150.659346873480843, -35.017407463066682 ], [ 150.659367326514314, -35.01725637078389 ], [ 150.659374216700456, -35.017257220414493 ], [ 150.659749609061492, -35.017303535395818 ], [ 150.659785428210853, -35.017461489197807 ], [ 150.659821085994764, -35.01761872680261 ], [ 150.659856744479924, -35.01777598243946 ], [ 150.659872609938702, -35.017845928051301 ], [ 150.659892420213566, -35.017933290683878 ], [ 150.659908698252138, -35.018005102205869 ], [ 150.659901518342338, -35.018079574906288 ], [ 150.659900783376827, -35.018087175551585 ], [ 150.659886216084232, -35.018238246247194 ], [ 150.659871640499659, -35.018389297845744 ], [ 150.659857072486062, -35.018540350485857 ], [ 150.659842496248274, -35.018691420089496 ], [ 150.659827929190385, -35.018842472736111 ], [ 150.659813379949526, -35.018993282320196 ], [ 150.659798839375156, -35.019144092967032 ], [ 150.659784291090489, -35.019294902557675 ], [ 150.659770064094715, -35.019442396378146 ], [ 150.65975584688934, -35.019589890381823 ], [ 150.659738338740596, -35.019771330211832 ], [ 150.65972509033827, -35.01990878325249 ] ] ] ] } },
{ "type": "Feature", "properties": { "OBJECTID": 348, "Comments": "Downloaded from SEED Map Service 20250513", "FSource": "https://mapprod3.environment.nsw.gov.au/arcgis/rest/services/Planning/EPI_Primary_Planning_Layers/MapServer/2", "SourceDate": 20250513.0, "Supplier": "DOP", "EPI_NAME": "Shoalhaven Local Environmental Plan 2014", "LGA_NAME": "SHOALHAVEN", "PUBLISHED_DATE": "20180216000000", "COMMENCED_DATE": "20180216000000", "CURRENCY_DATE": "20240823000000", "AMENDMENT": "Amendment No 18", "MAP_TYPE": "LZN", "MAP_NAME": "Land Zoning Map", "LAY_NAME": "Zone", "LAY_CLASS": "Village", "PCO_REF_KEY": "2014-179", "EPI_TYPE": "LEP", "SYM_CODE": "RU5", "PURPOSE": null, "arcgisonline_objectid": 586424.0, "arcgisonline_type": "arcgisonline_polygon", "multi_reader_type": "ARCGISFEATURES", "SHAPE_Length": 206.97663745330297, "SHAPE_Area": 2382.4681087311374 }, "geometry": { "type": "MultiPolygon", "coordinates": [ [ [ [ 150.533799274185526, -35.085735579003256 ], [ 150.533202532458461, -35.085748810596293 ], [ 150.533183754307487, -35.08553129894883 ], [ 150.533157338975371, -35.085437741986354 ], [ 150.533140593333314, -35.085429682950092 ], [ 150.533923496999051, -35.085383787226846 ], [ 150.533852637519857, -35.085734395981895 ], [ 150.533799274185526, -35.085735579003256 ] ] ] ] } },
{ "type": "Feature", "properties": { "OBJECTID": 536, "Comments": "Downloaded from SEED Map Service 20250513", "FSource": "https://mapprod3.environment.nsw.gov.au/arcgis/rest/services/Planning/EPI_Primary_Planning_Layers/MapServer/2", "SourceDate": 20250513.0, "Supplier": "DOP", "EPI_NAME": "Shoalhaven Local Environmental Plan 2014", "LGA_NAME": "SHOALHAVEN", "PUBLISHED_DATE": "20140408000000", "COMMENCED_DATE": "20140422000000", "CURRENCY_DATE": "20240823000000", "AMENDMENT": null, "MAP_TYPE": "LZN", "MAP_NAME": "Land Zoning Map", "LAY_NAME": "Zone", "LAY_CLASS": "Village", "PCO_REF_KEY": "2014-179", "EPI_TYPE": "LEP", "SYM_CODE": "RU5", "PURPOSE": null, "arcgisonline_objectid": 586851.0, "arcgisonline_type": "arcgisonline_polygon", "multi_reader_type": "ARCGISFEATURES", "SHAPE_Length": 2817.5327775487885, "SHAPE_Area": 241306.49753414225 }, "geometry": { "type": "MultiPolygon", "coordinates": [ [ [ [ 150.572257367455848, -35.066950342804304 ], [ 150.566678292960461, -35.069095089665822 ], [ 150.567297321634953, -35.066201579006247 ], [ 150.567104336032713, -35.066094924705325 ], [ 150.567223700398898, -35.065525183288152 ], [ 150.567259923453605, -35.065352303322733 ], [ 150.567390169629306, -35.06530828113042 ], [ 150.567626002664355, -35.065228574894221 ], [ 150.567681543610064, -35.065176179783855 ], [ 150.567719524541872, -35.065120163637467 ], [ 150.56775345345244, -35.065053534465548 ], [ 150.567808375303684, -35.064988966226181 ], [ 150.567989366931897, -35.06485703463791 ], [ 150.567995578547141, -35.064849111054123 ], [ 150.568106005124719, -35.064708250846344 ], [ 150.568170232889003, -35.064655497901207 ], [ 150.568380840662854, -35.064574796410753 ], [ 150.568645144339115, -35.06454005141935 ], [ 150.568794366605204, -35.064550001651014 ], [ 150.568933999246838, -35.06455960253448 ], [ 150.569054035246467, -35.064543432480384 ], [ 150.569222091214783, -35.064447158114014 ], [ 150.569327167350934, -35.064326799445851 ], [ 150.569377257933866, -35.064286810956176 ], [ 150.569487120818081, -35.064275346720372 ], [ 150.569541182413957, -35.064278241643869 ], [ 150.569663001643931, -35.064246214044644 ], [ 150.56974781124967, -35.064204862513357 ], [ 150.569825197488285, -35.064137247806457 ], [ 150.569820651482587, -35.064049893857892 ], [ 150.569893959318563, -35.063954462222021 ], [ 150.57021120334781, -35.063783465978304 ], [ 150.57024960455621, -35.063736046482909 ], [ 150.570294146174746, -35.063672590528199 ], [ 150.570383095336553, -35.063636509381944 ], [ 150.570459343091613, -35.063629340255858 ], [ 150.570458850252948, -35.063642266285932 ], [ 150.570458393543532, -35.063650719109226 ], [ 150.57045782004468, -35.063659154267157 ], [ 150.570457138576359, -35.063667607093237 ], [ 150.570456332648462, -35.063676042100198 ], [ 150.570455434892494, -35.063684468055129 ], [ 150.570669576164676, -35.063737983610473 ], [ 150.570743304173135, -35.063748283629039 ], [ 150.570815221730328, -35.063810045760718 ], [ 150.57081686377154, -35.06387526752804 ], [ 150.570692004680467, -35.063966270007924 ], [ 150.570719451534075, -35.064042687545403 ], [ 150.570866093492441, -35.064170407535443 ], [ 150.570944402526152, -35.064188146108968 ], [ 150.571087943452397, -35.064138746726954 ], [ 150.571158426550141, -35.064123078116374 ], [ 150.571443561983159, -35.06403729186399 ], [ 150.57156521233432, -35.063985176280049 ], [ 150.571798337355972, -35.063852626264669 ], [ 150.571879892182039, -35.06379848304114 ], [ 150.571942424446519, -35.063730024931395 ], [ 150.571987396692862, -35.063641443420281 ], [ 150.572058965940386, -35.06359630935696 ], [ 150.572119570744377, -35.063540831391052 ], [ 150.572195136301218, -35.063455351424039 ], [ 150.572221410391421, -35.063341679187154 ], [ 150.57222586490073, -35.063192974739557 ], [ 150.572206843168829, -35.063111205714783 ], [ 150.572173676523221, -35.063058695068158 ], [ 150.572137892641564, -35.062972550905265 ], [ 150.572104985887535, -35.062841102115371 ], [ 150.572040220283554, -35.062667003728272 ], [ 150.572196401752194, -35.062643418746028 ], [ 150.572273221326896, -35.062635416141042 ], [ 150.572344211675158, -35.062589136254722 ], [ 150.572441048729587, -35.062453692396396 ], [ 150.572506779356644, -35.062428295720608 ], [ 150.572526742439436, -35.062302760937165 ], [ 150.572584042706893, -35.06224857412785 ], [ 150.572641166610197, -35.062043643815585 ], [ 150.57269449812037, -35.061810016250512 ], [ 150.572754274603, -35.061515459252398 ], [ 150.572728928048718, -35.061431015232571 ], [ 150.572686219242371, -35.061384346223051 ], [ 150.572606335450104, -35.061383243436609 ], [ 150.572523819374169, -35.061402460833293 ], [ 150.57234620115409, -35.061449587680258 ], [ 150.572311586884723, -35.061394037214221 ], [ 150.572391909254719, -35.061326476834047 ], [ 150.57253541711637, -35.061282990297123 ], [ 150.572606276482105, -35.061290987072745 ], [ 150.572670880548429, -35.061312850086253 ], [ 150.572760582644463, -35.061298571317124 ], [ 150.572818903117195, -35.061282650946865 ], [ 150.572942444361161, -35.061262696965848 ], [ 150.57296549044446, -35.061258968375618 ], [ 150.573060088022373, -35.061255265935564 ], [ 150.573126098812338, -35.061270612285675 ], [ 150.573173634703295, -35.06128167373366 ], [ 150.573274030737849, -35.061272719020288 ], [ 150.573344675778316, -35.061293622656017 ], [ 150.573394515052968, -35.061315352003184 ], [ 150.573478221520531, -35.061286246303254 ], [ 150.573508151502352, -35.061226232242213 ], [ 150.573461636939044, -35.061167786399757 ], [ 150.573429851247369, -35.061141764219002 ], [ 150.573409126709777, -35.061111000007159 ], [ 150.573384717712941, -35.061093295382506 ], [ 150.573420545996328, -35.061063203407315 ], [ 150.573453497958468, -35.061044684459048 ], [ 150.573495467556484, -35.061032269475476 ], [ 150.573569643656867, -35.061037253592112 ], [ 150.573619743704029, -35.061030987878091 ], [ 150.573701773644018, -35.061036393232101 ], [ 150.573787199898277, -35.061040212326425 ], [ 150.573869821559384, -35.061057073419036 ], [ 150.573951304538923, -35.061052438937764 ], [ 150.574098071029141, -35.06095382035172 ], [ 150.574045345251136, -35.061146695943037 ], [ 150.573673251504147, -35.062524837043448 ], [ 150.573624065979544, -35.062723004468459 ], [ 150.573577955416681, -35.062908325436339 ], [ 150.573541642113128, -35.063036017570333 ], [ 150.573404054463509, -35.063519947047567 ], [ 150.573162323744754, -35.064412572156712 ], [ 150.572665361809356, -35.065446066387622 ], [ 150.572257367455848, -35.066950342804304 ] ] ] ] } },
{ "type": "Feature", "properties": { "OBJECTID": 574, "Comments": "Downloaded from SEED Map Service 20250513", "FSource": "https://mapprod3.environment.nsw.gov.au/arcgis/rest/services/Planning/EPI_Primary_Planning_Layers/MapServer/2", "SourceDate": 20250513.0, "Supplier": "DOP", "EPI_NAME": "Shoalhaven Local Environmental Plan 2014", "LGA_NAME": "SHOALHAVEN", "PUBLISHED_DATE": "20140408000000", "COMMENCED_DATE": "20140422000000", "CURRENCY_DATE": "20240823000000", "AMENDMENT": null, "MAP_TYPE": "LZN", "MAP_NAME": "Land Zoning Map", "LAY_NAME": "Zone", "LAY_CLASS": "Village", "PCO_REF_KEY": "2014-179", "EPI_TYPE": "LEP", "SYM_CODE": "RU5", "PURPOSE": null, "arcgisonline_objectid": 586934.0, "arcgisonline_type": "arcgisonline_polygon", "multi_reader_type": "ARCGISFEATURES", "SHAPE_Length": 3153.7438536673744, "SHAPE_Area": 312669.64961284446 }, "geometry": { "type": "MultiPolygon", "coordinates": [ [ [ [ 150.506016338202983, -35.094963884187194 ], [ 150.505674757564293, -35.095238765578898 ], [ 150.505268130156793, -35.094892065122231 ], [ 150.504363957204646, -35.094133560985981 ], [ 150.503165873906113, -35.093130617654438 ], [ 150.505950641989216, -35.089741902032401 ], [ 150.506370121442899, -35.089231448112173 ], [ 150.506604924274683, -35.088945703290776 ], [ 150.507082642948916, -35.088319346168078 ], [ 150.50727820106232, -35.088058486311574 ], [ 150.50738859374141, -35.08791123431967 ], [ 150.507554220481381, -35.08769028072583 ], [ 150.508292730310473, -35.087577398119521 ], [ 150.508908010651851, -35.087483321329103 ], [ 150.509230375172024, -35.087405001983051 ], [ 150.509359572391787, -35.086741551766139 ], [ 150.50939772246042, -35.086545742559515 ], [ 150.509484118135362, -35.086102267978006 ], [ 150.509576608389608, -35.085627553820636 ], [ 150.50972623494755, -35.085495129437888 ], [ 150.510224016189483, -35.085560655962468 ], [ 150.510606671923824, -35.085611033254168 ], [ 150.51095833054714, -35.085657313889833 ], [ 150.511841645684058, -35.085773577095445 ], [ 150.512184188156482, -35.085818666430946 ], [ 150.513927186895785, -35.086045406869943 ], [ 150.513879050562991, -35.086950813923231 ], [ 150.513834910880007, -35.086964809226785 ], [ 150.51364874683, -35.087028678233168 ], [ 150.513048463294211, -35.087252005750535 ], [ 150.51263945305746, -35.087438322726975 ], [ 150.512561932612584, -35.087473632070548 ], [ 150.512113543402165, -35.087676521407715 ], [ 150.51177209502751, -35.087831007863819 ], [ 150.511340764765208, -35.088032293784991 ], [ 150.510946195953323, -35.088185451675912 ], [ 150.510589089001826, -35.088324068640972 ], [ 150.510338928501795, -35.088653263743787 ], [ 150.510264878131665, -35.088750710604046 ], [ 150.510206665454518, -35.088797547843214 ], [ 150.509882186097173, -35.089058614794659 ], [ 150.509865880926668, -35.089075179946512 ], [ 150.509528323011949, -35.089418060449198 ], [ 150.509360365516329, -35.089583804328079 ], [ 150.509253244700261, -35.089691605346985 ], [ 150.509159437068547, -35.08979189417412 ], [ 150.508818911667731, -35.09013824428493 ], [ 150.508711496645304, -35.090272856561135 ], [ 150.508633311754551, -35.090370833013964 ], [ 150.508543636322401, -35.090483223363442 ], [ 150.508431649010447, -35.090623571870637 ], [ 150.50837510487159, -35.090694423462423 ], [ 150.508233374846611, -35.090872026982836 ], [ 150.507261614122768, -35.092089765853459 ], [ 150.507170056438923, -35.092303242474173 ], [ 150.506938803892751, -35.09284238075368 ], [ 150.506792072599836, -35.093184428108131 ], [ 150.506781145078634, -35.093209939349677 ], [ 150.506755795943036, -35.09326909302942 ], [ 150.506603193002945, -35.093689243425324 ], [ 150.506434086289971, -35.094154939880283 ], [ 150.506332811765532, -35.094433799909865 ], [ 150.506291730334027, -35.094502616749025 ], [ 150.506099703762544, -35.094824243618781 ], [ 150.506016338202983, -35.094963884187194 ] ] ] ] } },
{ "type": "Feature", "properties": { "OBJECTID": 576, "Comments": "Downloaded from SEED Map Service 20250513", "FSource": "https://mapprod3.environment.nsw.gov.au/arcgis/rest/services/Planning/EPI_Primary_Planning_Layers/MapServer/2", "SourceDate": 20250513.0, "Supplier": "DOP", "EPI_NAME": "Shoalhaven Local Environmental Plan 2014", "LGA_NAME": "SHOALHAVEN", "PUBLISHED_DATE": "20211022000000", "COMMENCED_DATE": "20211022000000", "CURRENCY_DATE": "20240823000000", "AMENDMENT": "Map Amendment No 3", "MAP_TYPE": "LZN", "MAP_NAME": "Land Zoning Map", "LAY_NAME": "Zone", "LAY_CLASS": "Village", "PCO_REF_KEY": "2014-179", "EPI_TYPE": "LEP", "SYM_CODE": "RU5", "PURPOSE": null, "arcgisonline_objectid": 586948.0, "arcgisonline_type": "arcgisonline_polygon", "multi_reader_type": "ARCGISFEATURES", "SHAPE_Length": 782.53024921132976, "SHAPE_Area": 15862.004485597512 }, "geometry": { "type": "MultiPolygon", "coordinates": [ [ [ [ 150.530062351210887, -35.085673887370753 ], [ 150.530278822172534, -35.085778389127924 ], [ 150.530559000497703, -35.085762047360468 ], [ 150.530585909825078, -35.085760470969596 ], [ 150.530846339991228, -35.085745159436044 ], [ 150.53083203272007, -35.085769712666519 ], [ 150.531554485508792, -35.086625423384426 ], [ 150.531635842457774, -35.086831155953263 ], [ 150.531724012567025, -35.087054090691566 ], [ 150.531860535964341, -35.087405568248435 ], [ 150.531910093804612, -35.087533142248596 ], [ 150.531919562685658, -35.087557517257842 ], [ 150.532086409503108, -35.087851276005601 ], [ 150.532229215068782, -35.088102698091483 ], [ 150.532230210795376, -35.088106157381134 ], [ 150.532231545317785, -35.088109473929862 ], [ 150.53223275618916, -35.088112817708343 ], [ 150.532233876344634, -35.088116187584333 ], [ 150.53223488843787, -35.088119576894492 ], [ 150.532235786798566, -35.08812299183348 ], [ 150.532236582875782, -35.088126416408429 ], [ 150.532237265220488, -35.088129866612199 ], [ 150.532237837826727, -35.088133319088563 ], [ 150.532238305767265, -35.088136787462503 ], [ 150.532238671451438, -35.088140264571521 ], [ 150.532238913973259, -35.088143752694208 ], [ 150.532239058921419, -35.088147239731427 ], [ 150.532239102980725, -35.088150726517128 ], [ 150.532239005299431, -35.088154222135302 ], [ 150.53223882344119, -35.088157708827808 ], [ 150.532238529706632, -35.088161195946469 ], [ 150.532238115897684, -35.088164664394021 ], [ 150.532237604460732, -35.088168133557893 ], [ 150.532236979498379, -35.088171585085419 ], [ 150.53223623553049, -35.088175018865037 ], [ 150.532235408481654, -35.088178443741292 ], [ 150.532234441656982, -35.088181848643785 ], [ 150.532233402375851, -35.088185219618786 ], [ 150.532232244913644, -35.088188581877098 ], [ 150.532230972911378, -35.08819192377409 ], [ 150.53222960894135, -35.088195224134687 ], [ 150.5322281405399, -35.088198496226802 ], [ 150.532226563322894, -35.088201739961129 ], [ 150.532224894165239, -35.088204941258198 ], [ 150.532223103039655, -35.088208113929618 ], [ 150.532221237564158, -35.088211242719083 ], [ 150.532219247077023, -35.088214334707935 ], [ 150.532217186379739, -35.088217391012094 ], [ 150.532215034311918, -35.088220385960234 ], [ 150.53221276602784, -35.088223343385394 ], [ 150.532210409969935, -35.088226265669668 ], [ 150.532207970811072, -35.088229106934484 ], [ 150.532205443851268, -35.088231913959277 ], [ 150.532202834099053, -35.088234666112804 ], [ 150.532200128402167, -35.088237363127227 ], [ 150.532197339006956, -35.088239998941809 ], [ 150.532194471719407, -35.088242562857424 ], [ 150.532191522464018, -35.088245080932992 ], [ 150.532188500742137, -35.088247529022972 ], [ 150.532185399787494, -35.088249913299677 ], [ 150.532182226420701, -35.088252225788999 ], [ 150.532178973766833, -35.088254476266826 ], [ 150.532175663827985, -35.088256662476851 ], [ 150.532172276241226, -35.088258768679843 ], [ 150.532168826079385, -35.088260804197205 ], [ 150.532165311177607, -35.088262768083382 ], [ 150.532161743918039, -35.088264649773187 ], [ 150.53215810397478, -35.088266468684481 ], [ 150.532154420604911, -35.088268200172585 ], [ 150.532150682468, -35.088269856626795 ], [ 150.532146890768701, -35.088271434465867 ], [ 150.532143053749479, -35.088272914927288 ], [ 150.532139173720822, -35.088274330510131 ], [ 150.532135238236435, -35.088275657523361 ], [ 150.532131275331523, -35.088276911862444 ], [ 150.532127268229857, -35.088278067945296 ], [ 150.532123225156624, -35.088279143968307 ], [ 150.532119156247688, -35.088280131123426 ], [ 150.532115051720183, -35.088281026507104 ], [ 150.532110909826457, -35.088281851718435 ], [ 150.532106776426957, -35.088282577042186 ], [ 150.532102591928805, -35.088283214786472 ], [ 150.532098404720188, -35.088283760528 ], [ 150.53209418312494, -35.088284210015964 ], [ 150.532089971184149, -35.088284593894869 ], [ 150.532085738307785, -35.088284871878201 ], [ 150.532081498255451, -35.088285060472195 ], [ 150.532077249686779, -35.088285167762521 ], [ 150.532073009558104, -35.088285176967076 ], [ 150.53206876091312, -35.088285104867992 ], [ 150.532064520681018, -35.088284935584021 ], [ 150.532060298536038, -35.088284675622248 ], [ 150.532056058254881, -35.088284326047955 ], [ 150.532051846993966, -35.088283886919989 ], [ 150.532047650532121, -35.088283357047295 ], [ 150.532043465255413, -35.088282747173636 ], [ 150.532039305130837, -35.088282030540064 ], [ 150.532035172414595, -35.088281241447476 ], [ 150.532031066526599, -35.088280362756599 ], [ 150.532026979740436, -35.088279396112981 ], [ 150.532022928333504, -35.088278347256761 ], [ 150.532018921318524, -35.088277208258511 ], [ 150.532014932336466, -35.088275980384289 ], [ 150.532010997366257, -35.088274670676952 ], [ 150.532007107558144, -35.088273281660619 ], [ 150.532003260801588, -35.088271810587948 ], [ 150.531999450656201, -35.088270252820607 ], [ 150.531995695944545, -35.088268602431768 ], [ 150.531992001776445, -35.088266908203543 ], [ 150.531988363205016, -35.088265115948488 ], [ 150.531984768754057, -35.088263242560366 ], [ 150.531981246404371, -35.088261305736445 ], [ 150.531977775820167, -35.08825928883661 ], [ 150.531974370153875, -35.08825719212868 ], [ 150.531971045357039, -35.088255032163573 ], [ 150.531967781999924, -35.088252798629682 ], [ 150.531964581069928, -35.088250495152899 ], [ 150.531961470846511, -35.088248129520728 ], [ 150.531958423158841, -35.088245690342113 ], [ 150.531955464783039, -35.088243198895597 ], [ 150.531952560972059, -35.088240643656221 ], [ 150.531949755566984, -35.088238025516837 ], [ 150.531947039718233, -35.088235347001536 ], [ 150.531944394901871, -35.088232604127327 ], [ 150.531941841127718, -35.088229824345056 ], [ 150.531939383784731, -35.088226974411015 ], [ 150.531937007918486, -35.088224077458214 ], [ 150.531934722161338, -35.088221138169722 ], [ 150.531932534538555, -35.088218144990172 ], [ 150.531930446997791, -35.088215106072255 ], [ 150.531928447428413, -35.088212022972186 ], [ 150.531926546627744, -35.088208901318573 ], [ 150.531924738073911, -35.088205739175706 ], [ 150.531923033768948, -35.088202538590892 ], [ 150.531921446539258, -35.088199310642715 ], [ 150.53191994043317, -35.088196047387427 ], [ 150.531918541755317, -35.088192749360729 ], [ 150.531917261275936, -35.088189423092103 ], [ 150.531916069293572, -35.088186071582456 ], [ 150.531914993317571, -35.088182691786223 ], [ 150.531914015458426, -35.088179295057877 ], [ 150.531913145390291, -35.088175887904562 ], [ 150.531912384915273, -35.088172446925384 ], [ 150.531911738590082, -35.088169002862323 ], [ 150.531911174158608, -35.088165534325185 ], [ 150.531910753388246, -35.088162066009509 ], [ 150.531910439339924, -35.088158586345635 ], [ 150.531910214585878, -35.08815509137289 ], [ 150.531910115712066, -35.088151604372463 ], [ 150.531910107862871, -35.088148117422961 ], [ 150.531910232714438, -35.088144630471689 ], [ 150.53191044752171, -35.088141142648119 ], [ 150.531910788426444, -35.088137655589748 ], [ 150.531911219812599, -35.088134186600136 ], [ 150.531911783627919, -35.088130726617663 ], [ 150.53191243816903, -35.088127276595912 ], [ 150.531913200755099, -35.088123844099158 ], [ 150.531914077989484, -35.08812042836044 ], [ 150.531915063295941, -35.088117029245808 ], [ 150.531916140895618, -35.088113660857054 ], [ 150.53191733322501, -35.088110306523632 ], [ 150.53191864089132, -35.088106982483929 ], [ 150.531920038577255, -35.088103691828131 ], [ 150.531921536581621, -35.08810042034284 ], [ 150.531923149488335, -35.088097193565524 ], [ 150.531924843592151, -35.088094001795284 ], [ 150.531926672815615, -35.088090838918752 ], [ 150.531928574223542, -35.08808771897877 ], [ 150.531930580669552, -35.088084643545841 ], [ 150.531932679191442, -35.088081606045883 ], [ 150.531934866066621, -35.088078620826181 ], [ 150.531937151403724, -35.088075679979596 ], [ 150.531687146235356, -35.088237434849667 ], [ 150.531545748356791, -35.087988478338872 ], [ 150.531467977598453, -35.087851544039424 ], [ 150.531389560059353, -35.087713481430399 ], [ 150.531375074029341, -35.087676845491977 ], [ 150.531318224653603, -35.087533134728197 ], [ 150.531261060905706, -35.087388580994002 ], [ 150.531204552492454, -35.087245722680876 ], [ 150.531147711346335, -35.08710201200887 ], [ 150.531090879425761, -35.086958292485058 ], [ 150.531046292113814, -35.086845561669534 ], [ 150.531041711766875, -35.086833979437863 ], [ 150.530948379693456, -35.086723417781059 ], [ 150.530843571855314, -35.086599266435186 ], [ 150.530691113068571, -35.086418696212306 ], [ 150.530557728890273, -35.086260688229572 ], [ 150.530424345217341, -35.08610268011752 ], [ 150.530268003820964, -35.085917492395559 ], [ 150.530062351210887, -35.085673887370753 ] ] ] ] } },
{ "type": "Feature", "properties": { "OBJECTID": 602, "Comments": "Downloaded from SEED Map Service 20250513", "FSource": "https://mapprod3.environment.nsw.gov.au/arcgis/rest/services/Planning/EPI_Primary_Planning_Layers/MapServer/2", "SourceDate": 20250513.0, "Supplier": "DOP", "EPI_NAME": "Shoalhaven Local Environmental Plan 2014", "LGA_NAME": "SHOALHAVEN", "PUBLISHED_DATE": "20140408000000", "COMMENCED_DATE": "20140422000000", "CURRENCY_DATE": "20240823000000", "AMENDMENT": null, "MAP_TYPE": "LZN", "MAP_NAME": "Land Zoning Map", "LAY_NAME": "Zone", "LAY_CLASS": "Village", "PCO_REF_KEY": "2014-179", "EPI_TYPE": "LEP", "SYM_CODE": "RU5", "PURPOSE": null, "arcgisonline_objectid": 586994.0, "arcgisonline_type": "arcgisonline_polygon", "multi_reader_type": "ARCGISFEATURES", "SHAPE_Length": 3476.0108417042766, "SHAPE_Area": 598485.08453547186 }, "geometry": { "type": "MultiPolygon", "coordinates": [ [ [ [ 150.587905883751915, -35.056218799490161 ], [ 150.587802370222875, -35.056711094429389 ], [ 150.586800128745296, -35.057216567043547 ], [ 150.586329628397976, -35.057453208823027 ], [ 150.586118544412244, -35.057375492059982 ], [ 150.586003035366502, -35.057536996691496 ], [ 150.586085629399804, -35.057574465299489 ], [ 150.585654203555066, -35.057791430907159 ], [ 150.585426724929505, -35.057794524253595 ], [ 150.584249699849266, -35.057804385573966 ], [ 150.584245837404893, -35.057807738669247 ], [ 150.584105524507322, -35.057929290208641 ], [ 150.583879192202488, -35.057807488069031 ], [ 150.583565550731748, -35.057638678490363 ], [ 150.583364202879011, -35.057811792234126 ], [ 150.583108613438242, -35.05775395637302 ], [ 150.582785936325024, -35.057504865407545 ], [ 150.582693282126627, -35.057433341447101 ], [ 150.583062370351826, -35.055570064531757 ], [ 150.583118680609857, -35.055285789984026 ], [ 150.58324028447484, -35.054671845563078 ], [ 150.583275728128626, -35.054492888198098 ], [ 150.58343986579456, -35.05366414105054 ], [ 150.58360335950664, -35.052838701667717 ], [ 150.582429366531272, -35.05267325499171 ], [ 150.582463725145885, -35.052496950834268 ], [ 150.582583967674395, -35.051877405977805 ], [ 150.582614560983018, -35.051697758874397 ], [ 150.582780876800086, -35.05078722380123 ], [ 150.58301059555285, -35.0495295851183 ], [ 150.583141459374332, -35.048733521253048 ], [ 150.584823496261663, -35.048936615935673 ], [ 150.584850683334139, -35.048784380391275 ], [ 150.58541939395522, -35.048853034658862 ], [ 150.585833179679952, -35.049025393435343 ], [ 150.585959203856135, -35.049215492390026 ], [ 150.586066709315759, -35.04937766934146 ], [ 150.586903056712714, -35.049545499654783 ], [ 150.586964164434079, -35.049715538082758 ], [ 150.587026545067488, -35.04988911571396 ], [ 150.587089059230152, -35.05006304393617 ], [ 150.587151565677374, -35.050236981890023 ], [ 150.587107463320308, -35.0503901488336 ], [ 150.58810867585953, -35.050585078407472 ], [ 150.588265473491873, -35.050615609049103 ], [ 150.588298693783855, -35.050622071643723 ], [ 150.588491983423609, -35.050659721016231 ], [ 150.58886850652965, -35.050733008731015 ], [ 150.590071803636107, -35.050967281695186 ], [ 150.592315870826383, -35.051404184946946 ], [ 150.591958977394057, -35.052871184437983 ], [ 150.591566632585909, -35.053095131415454 ], [ 150.591510858422907, -35.053270905852166 ], [ 150.591443323819988, -35.053483720318503 ], [ 150.591371109271734, -35.053711261811813 ], [ 150.591355853237758, -35.053946019691772 ], [ 150.591239150927493, -35.054204629609082 ], [ 150.591080066759218, -35.054557201456525 ], [ 150.590843579717671, -35.055081271672911 ], [ 150.590612308627755, -35.05559378636891 ], [ 150.590612275752051, -35.055593860536959 ], [ 150.589898099264957, -35.056194486422207 ], [ 150.589690179440538, -35.056020997108924 ], [ 150.589612676821503, -35.056075866185608 ], [ 150.589530101216667, -35.056125490605965 ], [ 150.589442989654231, -35.056169540284678 ], [ 150.589351870844325, -35.056207744468672 ], [ 150.589257346591495, -35.056239844677073 ], [ 150.589160015276462, -35.056265661691199 ], [ 150.589060479718455, -35.056285014579437 ], [ 150.588959392565073, -35.056297780195116 ], [ 150.588857392125419, -35.05630387567431 ], [ 150.588755121613843, -35.056303275044861 ], [ 150.588662775402327, -35.056296650726274 ], [ 150.588653237984772, -35.05629596973786 ], [ 150.588581193660673, -35.056286001767376 ], [ 150.588548968271851, -35.056281305128003 ], [ 150.58845320615697, -35.056261485618769 ], [ 150.588356323097486, -35.056234531202563 ], [ 150.588262371758987, -35.056201310372401 ], [ 150.588182458109685, -35.056166610873966 ], [ 150.588171934503521, -35.056162039352259 ], [ 150.587939659610811, -35.056051200093862 ], [ 150.587905883751915, -35.056218799490161 ] ] ] ] } },
{ "type": "Feature", "properties": { "OBJECTID": 640, "Comments": "Downloaded from SEED Map Service 20250513", "FSource": "https://mapprod3.environment.nsw.gov.au/arcgis/rest/services/Planning/EPI_Primary_Planning_Layers/MapServer/2", "SourceDate": 20250513.0, "Supplier": "DOP", "EPI_NAME": "Shoalhaven Local Environmental Plan 2014", "LGA_NAME": "SHOALHAVEN", "PUBLISHED_DATE": "20140408000000", "COMMENCED_DATE": "20140422000000", "CURRENCY_DATE": "20240823000000", "AMENDMENT": null, "MAP_TYPE": "LZN", "MAP_NAME": "Land Zoning Map", "LAY_NAME": "Zone", "LAY_CLASS": "Village", "PCO_REF_KEY": "2014-179", "EPI_TYPE": "LEP", "SYM_CODE": "RU5", "PURPOSE": null, "arcgisonline_objectid": 587074.0, "arcgisonline_type": "arcgisonline_polygon", "multi_reader_type": "ARCGISFEATURES", "SHAPE_Length": 1801.9911722092397, "SHAPE_Area": 143085.1505138074 }, "geometry": { "type": "MultiPolygon", "coordinates": [ [ [ [ 150.574724168325929, -35.060756654607943 ], [ 150.574837545722431, -35.060299240265266 ], [ 150.574873006751062, -35.060324142072524 ], [ 150.574908790632094, -35.060348730310317 ], [ 150.574944897098845, -35.060373013987586 ], [ 150.574981300121181, -35.060396983568779 ], [ 150.575018016374315, -35.060420631274042 ], [ 150.57505903482118, -35.060446127374568 ], [ 150.575063096608517, -35.060448652474285 ], [ 150.57510881317728, -35.060475992263349 ], [ 150.575154879141024, -35.060502973933545 ], [ 150.575200998792184, -35.060529883642431 ], [ 150.575246893690775, -35.060557053867768 ], [ 150.575294475178481, -35.060585137632508 ], [ 150.575342307219529, -35.060612980292092 ], [ 150.575389950662469, -35.060641010270587 ], [ 150.575436975870872, -35.060669667902026 ], [ 150.575482924454036, -35.060699401960626 ], [ 150.575526713841583, -35.06072830134061 ], [ 150.575570718328578, -35.060757416849668 ], [ 150.575613556758867, -35.060787481698085 ], [ 150.575653841028327, -35.060819241579566 ], [ 150.575690189712446, -35.060853438717238 ], [ 150.575718534328047, -35.06088632732758 ], [ 150.575740872858319, -35.060917002641268 ], [ 150.575743937775371, -35.060921207033694 ], [ 150.575767262491524, -35.06095734957718 ], [ 150.575789403525164, -35.060994110285172 ], [ 150.575811239643713, -35.061030764830249 ], [ 150.575837092320683, -35.061077332797076 ], [ 150.575860389647517, -35.061124931411882 ], [ 150.575882844276549, -35.061172888178668 ], [ 150.575906141361259, -35.061220496696357 ], [ 150.575931994413224, -35.061267055636989 ], [ 150.575954555973908, -35.061303207226089 ], [ 150.575978158704601, -35.061338964057263 ], [ 150.575980803374932, -35.061342810275207 ], [ 150.576002576228149, -35.061374381099739 ], [ 150.576027603598277, -35.061409493017926 ], [ 150.576053043275095, -35.061444380598815 ], [ 150.576086829534916, -35.061487238083906 ], [ 150.57612275685679, -35.061529099888318 ], [ 150.576158900056072, -35.061570818159588 ], [ 150.576193330418448, -35.061613253089995 ], [ 150.576199094258385, -35.061621473342441 ], [ 150.57622413916269, -35.061657258060713 ], [ 150.576246666018164, -35.061696296276097 ], [ 150.576266754821972, -35.061736364789652 ], [ 150.57628552555758, -35.061776998305042 ], [ 150.576304080678767, -35.061817731174735 ], [ 150.576323541588067, -35.061858087311812 ], [ 150.57634634597099, -35.061901795204449 ], [ 150.576369804657674, -35.061945289006388 ], [ 150.57639323707096, -35.061988782278775 ], [ 150.576403500267986, -35.062008538291344 ], [ 150.57641593353128, -35.062032508735008 ], [ 150.576437213965136, -35.062076664819564 ], [ 150.576465925801784, -35.062145320563104 ], [ 150.576491150415023, -35.062215042424313 ], [ 150.576514761739418, -35.062285265692715 ], [ 150.576538605736317, -35.06235544492921 ], [ 150.576564547612861, -35.062425014344605 ], [ 150.576586169221855, -35.062478475769012 ], [ 150.576608256658176, -35.062531794155262 ], [ 150.57663089055319, -35.062584986439774 ], [ 150.576654107006505, -35.062637981227205 ], [ 150.576677987395726, -35.06269077022791 ], [ 150.576688457277982, -35.062713404198902 ], [ 150.576699052397998, -35.062736029854989 ], [ 150.576709756316461, -35.062758609907739 ], [ 150.576720575048313, -35.062781163407948 ], [ 150.576731502818518, -35.062803663196433 ], [ 150.576625796727797, -35.062869526434909 ], [ 150.576609036676132, -35.063110634417228 ], [ 150.576633463425281, -35.06317457457066 ], [ 150.576672995894683, -35.063217535953527 ], [ 150.576673156315167, -35.063217709535969 ], [ 150.576706555937562, -35.063432299578245 ], [ 150.576972895994203, -35.065143095106222 ], [ 150.577115066830203, -35.066056222027491 ], [ 150.57525051825283, -35.065800148194349 ], [ 150.573232548287137, -35.066618934547641 ], [ 150.573241404942337, -35.066566037654759 ], [ 150.573363404588321, -35.06583736379028 ], [ 150.573411962095577, -35.065547352571684 ], [ 150.573487805408433, -35.065174844329078 ], [ 150.57351017096093, -35.065064981563189 ], [ 150.573562977356318, -35.06480561739501 ], [ 150.57361227950426, -35.06456342793151 ], [ 150.573782415228038, -35.06423012071933 ], [ 150.574025724736174, -35.063332727332707 ], [ 150.574117998557028, -35.062992399396521 ], [ 150.574160927167981, -35.06283405105323 ], [ 150.574180415340749, -35.06276215040743 ], [ 150.574234234672019, -35.062563660781294 ], [ 150.574680693750764, -35.060917010683347 ], [ 150.574724168325929, -35.060756654607943 ] ] ] ] } }
]
}
