{
"type": "FeatureCollection",
"name": "SP3_Tourist",
"crs": { "type": "name", "properties": { "name": "urn:ogc:def:crs:OGC:1.3:CRS84" } },
"features": [
{ "type": "Feature", "properties": { "OBJECTID": 123, "Comments": "Downloaded from SEED Map Service 20250513", "FSource": "https://mapprod3.environment.nsw.gov.au/arcgis/rest/services/Planning/EPI_Primary_Planning_Layers/MapServer/2", "SourceDate": 20250513.0, "Supplier": "DOP", "EPI_NAME": "Shoalhaven Local Environmental Plan 2014", "LGA_NAME": "SHOALHAVEN", "PUBLISHED_DATE": "20150206000000", "COMMENCED_DATE": "20150206000000", "CURRENCY_DATE": "20240823000000", "AMENDMENT": "Amendment No 2", "MAP_TYPE": "LZN", "MAP_NAME": "Land Zoning Map", "LAY_NAME": "Zone", "LAY_CLASS": "Tourist", "PCO_REF_KEY": "2014-179", "EPI_TYPE": "LEP", "SYM_CODE": "SP3", "PURPOSE": null, "arcgisonline_objectid": 585494.0, "arcgisonline_type": "arcgisonline_polygon", "multi_reader_type": "ARCGISFEATURES", "SHAPE_Length": 677.42854090226524, "SHAPE_Area": 25423.081212098688 }, "geometry": { "type": "MultiPolygon", "coordinates": [ [ [ [ 150.664705744709636, -35.116057973464514 ], [ 150.664712200561922, -35.116058841618802 ], [ 150.664964321666588, -35.116092722203987 ], [ 150.664771273036678, -35.117062604972389 ], [ 150.662305327686937, -35.116731227117278 ], [ 150.662245689826563, -35.116504267800273 ], [ 150.662481614201567, -35.115759084532037 ], [ 150.664090160153421, -35.115975249582476 ], [ 150.664349981421338, -35.116010164246084 ], [ 150.664705744709636, -35.116057973464514 ] ] ] ] } },
{ "type": "Feature", "properties": { "OBJECTID": 185, "Comments": "Downloaded from SEED Map Service 20250513", "FSource": "https://mapprod3.environment.nsw.gov.au/arcgis/rest/services/Planning/EPI_Primary_Planning_Layers/MapServer/2", "SourceDate": 20250513.0, "Supplier": "DOP", "EPI_NAME": "Shoalhaven Local Environmental Plan 2014", "LGA_NAME": "SHOALHAVEN", "PUBLISHED_DATE": "20140408000000", "COMMENCED_DATE": "20140422000000", "CURRENCY_DATE": "20240823000000", "AMENDMENT": null, "MAP_TYPE": "LZN", "MAP_NAME": "Land Zoning Map", "LAY_NAME": "Zone", "LAY_CLASS": "Tourist", "PCO_REF_KEY": "2014-179", "EPI_TYPE": "LEP", "SYM_CODE": "SP3", "PURPOSE": null, "arcgisonline_objectid": 585685.0, "arcgisonline_type": "arcgisonline_polygon", "multi_reader_type": "ARCGISFEATURES", "SHAPE_Length": 346.99269711745546, "SHAPE_Area": 6817.3209720645764 }, "geometry": { "type": "MultiPolygon", "coordinates": [ [ [ [ 150.633831824405121, -35.113993199728732 ], [ 150.633644513742951, -35.113968978948513 ], [ 150.633457363709539, -35.113944784456038 ], [ 150.633292210174687, -35.1139234325939 ], [ 150.633380703111357, -35.113476021655742 ], [ 150.633215550803129, -35.113454660716293 ], [ 150.633304006292178, -35.113007132783181 ], [ 150.633469150032312, -35.113028494319572 ], [ 150.633634302903744, -35.113049846795825 ], [ 150.633750745076071, -35.113064906524663 ], [ 150.63381390491034, -35.113088355768468 ], [ 150.634060073334098, -35.113179752560548 ], [ 150.634243271004379, -35.11324777207318 ], [ 150.634068213158343, -35.113564926376455 ], [ 150.633831824405121, -35.113993199728732 ] ] ] ] } },
{ "type": "Feature", "properties": { "OBJECTID": 279, "Comments": "Downloaded from SEED Map Service 20250513", "FSource": "https://mapprod3.environment.nsw.gov.au/arcgis/rest/services/Planning/EPI_Primary_Planning_Layers/MapServer/2", "SourceDate": 20250513.0, "Supplier": "DOP", "EPI_NAME": "Shoalhaven Local Environmental Plan 2014", "LGA_NAME": "SHOALHAVEN", "PUBLISHED_DATE": "20140408000000", "COMMENCED_DATE": "20140422000000", "CURRENCY_DATE": "20240823000000", "AMENDMENT": null, "MAP_TYPE": "LZN", "MAP_NAME": "Land Zoning Map", "LAY_NAME": "Zone", "LAY_CLASS": "Tourist", "PCO_REF_KEY": "2014-179", "EPI_TYPE": "LEP", "SYM_CODE": "SP3", "PURPOSE": null, "arcgisonline_objectid": 585997.0, "arcgisonline_type": "arcgisonline_polygon", "multi_reader_type": "ARCGISFEATURES", "SHAPE_Length": 669.85583399208542, "SHAPE_Area": 20331.626611458629 }, "geometry": { "type": "MultiPolygon", "coordinates": [ [ [ [ 150.697517744435459, -35.006926332939862 ], [ 150.697369309784762, -35.006989304877244 ], [ 150.697731853175782, -35.005411638395088 ], [ 150.700007661397279, -35.005750586282637 ], [ 150.699930578129852, -35.005861559137088 ], [ 150.699890116147145, -35.00591980917342 ], [ 150.699595846891668, -35.006044669552224 ], [ 150.699447403100066, -35.00610765024431 ], [ 150.69929896917111, -35.006170622823007 ], [ 150.699150533674583, -35.006233604199942 ], [ 150.699002099355852, -35.006296574594337 ], [ 150.698853664488894, -35.00635955651078 ], [ 150.698705230774578, -35.006422528345681 ], [ 150.698556795467368, -35.006485509879816 ], [ 150.698408361312858, -35.006548481332445 ], [ 150.698259926660455, -35.006611462505077 ], [ 150.698111492015215, -35.006674435377441 ], [ 150.697963057175116, -35.006737407157651 ], [ 150.697814614171619, -35.006800388512382 ], [ 150.697666178866058, -35.006863360811302 ], [ 150.697517744435459, -35.006926332939862 ] ] ] ] } },
{ "type": "Feature", "properties": { "OBJECTID": 287, "Comments": "Downloaded from SEED Map Service 20250513", "FSource": "https://mapprod3.environment.nsw.gov.au/arcgis/rest/services/Planning/EPI_Primary_Planning_Layers/MapServer/2", "SourceDate": 20250513.0, "Supplier": "DOP", "EPI_NAME": "Shoalhaven Local Environmental Plan 2014", "LGA_NAME": "SHOALHAVEN", "PUBLISHED_DATE": "20150206000000", "COMMENCED_DATE": "20150206000000", "CURRENCY_DATE": "20240823000000", "AMENDMENT": "Amendment No 2", "MAP_TYPE": "LZN", "MAP_NAME": "Land Zoning Map", "LAY_NAME": "Zone", "LAY_CLASS": "Tourist", "PCO_REF_KEY": "2014-179", "EPI_TYPE": "LEP", "SYM_CODE": "SP3", "PURPOSE": null, "arcgisonline_objectid": 586038.0, "arcgisonline_type": "arcgisonline_polygon", "multi_reader_type": "ARCGISFEATURES", "SHAPE_Length": 1159.6104256971166, "SHAPE_Area": 61257.551941496466 }, "geometry": { "type": "MultiPolygon", "coordinates": [ [ [ [ 150.660355512771844, -35.112479576880524 ], [ 150.660106285162357, -35.112008501423105 ], [ 150.660037665785893, -35.111878810312945 ], [ 150.658978600282012, -35.110933709488577 ], [ 150.658956912982632, -35.109917041472094 ], [ 150.65965205406377, -35.110011395804591 ], [ 150.660471454488032, -35.110122620505805 ], [ 150.662274281908481, -35.111110136728655 ], [ 150.663477977711267, -35.11123114172252 ], [ 150.663586886516612, -35.111208033174734 ], [ 150.663582024053198, -35.111226561113519 ], [ 150.66357887755413, -35.111234288253009 ], [ 150.663578438424736, -35.111235336310003 ], [ 150.663575193708283, -35.111243045328862 ], [ 150.663574746013097, -35.111244086008888 ], [ 150.663571419551573, -35.1112517763233 ], [ 150.66357095321672, -35.111252816643869 ], [ 150.663567538055474, -35.111260462878505 ], [ 150.663567062948999, -35.111261503029901 ], [ 150.663563557502641, -35.111269122282145 ], [ 150.66356306487873, -35.111270161194255 ], [ 150.66355947021799, -35.111277754386201 ], [ 150.66355896902823, -35.111278785921336 ], [ 150.663555275336563, -35.111286351060741 ], [ 150.663554764561752, -35.111287372494836 ], [ 150.663550990169881, -35.111294920752854 ], [ 150.663550462083435, -35.111295933739811 ], [ 150.663546599017479, -35.111303437017028 ], [ 150.663546060805601, -35.111304458823433 ], [ 150.663542098682882, -35.111311934949065 ], [ 150.663541551956655, -35.111312947576529 ], [ 150.663537508577605, -35.111320387879083 ], [ 150.663536943185989, -35.111321401048059 ], [ 150.663532811740282, -35.111328813509473 ], [ 150.663532246863184, -35.111329808658901 ], [ 150.663528025106473, -35.111337195038807 ], [ 150.66352744268616, -35.111338189849903 ], [ 150.663523131133076, -35.11134553212878 ], [ 150.663522538844632, -35.111346526749543 ], [ 150.663518138128438, -35.1113538411661 ], [ 150.66351752771493, -35.111354817407879 ], [ 150.663513045716542, -35.111362096902276 ], [ 150.663512427344784, -35.111363082906763 ], [ 150.663507864372974, -35.111370316667291 ], [ 150.663507228715247, -35.111371293323657 ], [ 150.663502585300364, -35.111378501192966 ], [ 150.663501940031864, -35.111379468649233 ], [ 150.663497198100401, -35.111386630446333 ], [ 150.663496544008723, -35.111387599535377 ], [ 150.66349172082073, -35.111394725509314 ], [ 150.663491058240425, -35.111395684518442 ], [ 150.663486154866604, -35.111402775591316 ], [ 150.663485472524428, -35.111403735120774 ], [ 150.663480489041973, -35.111410788589666 ], [ 150.663479798417029, -35.111411730831399 ], [ 150.663474725138002, -35.111418740199142 ], [ 150.663474025741351, -35.111419682271695 ], [ 150.6634688624342, -35.111426655647065 ], [ 150.663468154548895, -35.111427587639668 ], [ 150.663462920084754, -35.111434517273366 ], [ 150.663462202331317, -35.111435449075621 ], [ 150.663456878096326, -35.11144233370716 ], [ 150.663456143031198, -35.111443257062291 ], [ 150.663450746336878, -35.111450105138765 ], [ 150.663450002731622, -35.111451020215888 ], [ 150.663444516266424, -35.111457823290202 ], [ 150.663443763889489, -35.111458738198138 ], [ 150.663438196656557, -35.11146548833063 ], [ 150.663437434437185, -35.111466402147244 ], [ 150.663431787327085, -35.111473106566855 ], [ 150.663431016824916, -35.111474003095736 ], [ 150.663425298300467, -35.11148067278333 ], [ 150.663424509158546, -35.111481568952684 ], [ 150.663418709917806, -35.111488183896483 ], [ 150.663417912235786, -35.111489071787851 ], [ 150.663412030899224, -35.111495641877418 ], [ 150.663411224702827, -35.111496520589817 ], [ 150.663405273048284, -35.111503055968484 ], [ 150.663404457009449, -35.111503933589532 ], [ 150.663398415002177, -35.111510405925287 ], [ 150.663397589301013, -35.111511276148185 ], [ 150.663391486313429, -35.111517694120678 ], [ 150.663390643094772, -35.111518563104205 ], [ 150.663384457728284, -35.111524946133166 ], [ 150.663383616120541, -35.11152579711829 ], [ 150.663377350011984, -35.111532126304333 ], [ 150.663376497439657, -35.111532977077957 ], [ 150.663370151685484, -35.111539252442221 ], [ 150.663369281801437, -35.111540094768671 ], [ 150.663362872616716, -35.11154632473712 ], [ 150.663362002989857, -35.111547158053746 ], [ 150.663355512779987, -35.111553344089991 ], [ 150.663354625867157, -35.111554168058468 ], [ 150.663348072741428, -35.11156029067935 ], [ 150.663347177288472, -35.111561106369834 ], [ 150.663340544259739, -35.111567184178632 ], [ 150.663339637842171, -35.111567999657581 ], [ 150.663332932286863, -35.111574004850951 ], [ 150.663332018425621, -35.11157481207303 ], [ 150.663325251349619, -35.111580781823534 ], [ 150.663324319105953, -35.111581579676333 ], [ 150.66331748773456, -35.111587495900991 ], [ 150.663316546950767, -35.111588285475776 ], [ 150.663309636191059, -35.111594138868789 ], [ 150.663308685564829, -35.111594927352215 ], [ 150.663301703091946, -35.111600718061624 ], [ 150.663300752954513, -35.111601489426434 ], [ 150.663293698253739, -35.111607235471709 ], [ 150.663292738273839, -35.111608005745161 ], [ 150.663285620631513, -35.111613689275934 ], [ 150.66328465320791, -35.111614451292503 ], [ 150.663277463363471, -35.111620089258167 ], [ 150.663276486329039, -35.111620842074593 ], [ 150.663269234871052, -35.111626409438102 ], [ 150.663268258093836, -35.111627153244704 ], [ 150.663260925662115, -35.111632674873874 ], [ 150.663259939505679, -35.111633401371556 ], [ 150.66325255292972, -35.111638859754379 ], [ 150.663251558001548, -35.111639586082809 ], [ 150.66324410848398, -35.111644981951102 ], [ 150.663243087240915, -35.111645707771928 ], [ 150.663235574756044, -35.111651042026622 ], [ 150.663234554027554, -35.111651749827857 ], [ 150.663226969572179, -35.111657030408566 ], [ 150.663225948004424, -35.111657729178816 ], [ 150.663218319298579, -35.111662945802479 ], [ 150.663217270293728, -35.111663644944954 ], [ 150.663209571177106, -35.111668791698186 ], [ 150.663208531226758, -35.111669481099021 ], [ 150.663200776637836, -35.111674572693467 ], [ 150.663199718253651, -35.111675254526922 ], [ 150.663191902967554, -35.111680281847072 ], [ 150.663190835204119, -35.111680946371607 ], [ 150.663182956693419, -35.11168592108784 ], [ 150.663181889212979, -35.111686575701547 ], [ 150.663173947786476, -35.111691487002162 ], [ 150.66317287150855, -35.111692142347572 ], [ 150.663164884941068, -35.111696982462135 ], [ 150.663163791634531, -35.111697619449586 ], [ 150.663155742125582, -35.111702397049456 ], [ 150.663154648844653, -35.111703033135846 ], [ 150.663146544069349, -35.111707748369078 ], [ 150.663145442505652, -35.111708367167665 ], [ 150.663137275653725, -35.111713028016105 ], [ 150.663136173250791, -35.111713637783701 ], [ 150.663127953582801, -35.111718227298013 ], [ 150.663126841543317, -35.111718828766406 ], [ 150.66311856827167, -35.111723336113698 ], [ 150.663117438431499, -35.111723946253385 ], [ 150.66310911206071, -35.111728392177255 ], [ 150.663107981638689, -35.111728984276191 ], [ 150.663099618924377, -35.111733358282123 ], [ 150.66309847998798, -35.111733941202026 ], [ 150.663090052978418, -35.111738261681793 ], [ 150.66308889785256, -35.111738835274636 ], [ 150.663080425959521, -35.111743075558493 ], [ 150.663079269994455, -35.111743640120324 ], [ 150.663070745053801, -35.111747817178745 ], [ 150.663069588223749, -35.111748373610567 ], [ 150.663061010235566, -35.111752487443553 ], [ 150.663059854759211, -35.111753034886661 ], [ 150.663051221762174, -35.1117570773431 ], [ 150.663050056675019, -35.111757615586022 ], [ 150.663041379633682, -35.111761586877428 ], [ 150.663040213990428, -35.11176210617861 ], [ 150.663031483062468, -35.11176600521361 ], [ 150.663030299850163, -35.111766525077307 ], [ 150.66302153341789, -35.111770361225197 ], [ 150.663020349366377, -35.111770872057882 ], [ 150.663011538864083, -35.111774637941686 ], [ 150.663010336687591, -35.111775130395223 ], [ 150.663004142461091, -35.111777712627919 ], [ 150.66300148900288, -35.111778815330084 ], [ 150.663000287896949, -35.111779308705643 ], [ 150.662991387190544, -35.111782929514007 ], [ 150.662990185502792, -35.111783404848815 ], [ 150.662981239655721, -35.111786954470908 ], [ 150.662980038225243, -35.111787420795856 ], [ 150.662971738149963, -35.111790638511224 ], [ 150.662971038234303, -35.111790907171255 ], [ 150.662969828289505, -35.111791364317149 ], [ 150.662960802054982, -35.111794770856051 ], [ 150.662959582473661, -35.111795219702707 ], [ 150.662950519921623, -35.111798553422574 ], [ 150.662949291851703, -35.1117989921892 ], [ 150.662941323406415, -35.111801853006178 ], [ 150.662940192904983, -35.111802255792909 ], [ 150.662938956295022, -35.111802686281472 ], [ 150.662929822101518, -35.111805877988253 ], [ 150.662928584935514, -35.11180628953506 ], [ 150.662922264803058, -35.111808440234284 ], [ 150.662919396829892, -35.111809409886305 ], [ 150.66291815992119, -35.111809812423253 ], [ 150.66290894536624, -35.111812860145783 ], [ 150.662907698821016, -35.111813254383485 ], [ 150.662902213549302, -35.111815020932212 ], [ 150.662898448180272, -35.111816221178138 ], [ 150.662897192837619, -35.1118166161475 ], [ 150.662887914625401, -35.111819511193225 ], [ 150.662886660662195, -35.111819896272905 ], [ 150.662877337541232, -35.11182271202351 ], [ 150.662876074198948, -35.111823079794185 ], [ 150.662866715857092, -35.111825822746802 ], [ 150.662865461569453, -35.11182618077585 ], [ 150.662856667456225, -35.111828681297993 ], [ 150.662856074559727, -35.111828851958386 ], [ 150.662854810635594, -35.111829201688181 ], [ 150.6628453897074, -35.111831792886065 ], [ 150.662844126066318, -35.111832132705025 ], [ 150.662834668537755, -35.111834660994496 ], [ 150.662833387585067, -35.11183499236617 ], [ 150.662827219598029, -35.111836578969552 ], [ 150.662823912867992, -35.111837431077518 ], [ 150.662822640105162, -35.11183774457762 ], [ 150.662813137842505, -35.111840110639022 ], [ 150.662811856024859, -35.111840433880523 ], [ 150.662290841362079, -35.111913320348336 ], [ 150.660879236195257, -35.112335653928994 ], [ 150.660875541512468, -35.112336759018056 ], [ 150.660633526241213, -35.112409167531922 ], [ 150.660609103612131, -35.11261452345363 ], [ 150.660323592595972, -35.112575974984694 ], [ 150.660355512771844, -35.112479576880524 ] ] ] ] } },
{ "type": "Feature", "properties": { "OBJECTID": 669, "Comments": "Downloaded from SEED Map Service 20250513", "FSource": "https://mapprod3.environment.nsw.gov.au/arcgis/rest/services/Planning/EPI_Primary_Planning_Layers/MapServer/2", "SourceDate": 20250513.0, "Supplier": "DOP", "EPI_NAME": "Shoalhaven Local Environmental Plan 2014", "LGA_NAME": "SHOALHAVEN", "PUBLISHED_DATE": "20140408000000", "COMMENCED_DATE": "20140422000000", "CURRENCY_DATE": "20240823000000", "AMENDMENT": null, "MAP_TYPE": "LZN", "MAP_NAME": "Land Zoning Map", "LAY_NAME": "Zone", "LAY_CLASS": "Tourist", "PCO_REF_KEY": "2014-179", "EPI_TYPE": "LEP", "SYM_CODE": "SP3", "PURPOSE": null, "arcgisonline_objectid": 587175.0, "arcgisonline_type": "arcgisonline_polygon", "multi_reader_type": "ARCGISFEATURES", "SHAPE_Length": 1428.7412069181503, "SHAPE_Area": 78103.229546337665 }, "geometry": { "type": "MultiPolygon", "coordinates": [ [ [ [ 150.595369454740961, -35.095843044331573 ], [ 150.595461899794884, -35.095855048092453 ], [ 150.595706248570906, -35.095886752672975 ], [ 150.595910968815474, -35.095913321937658 ], [ 150.596109089638503, -35.095939031563972 ], [ 150.596307202958059, -35.095964739817973 ], [ 150.596702451027625, -35.096016139558124 ], [ 150.59666840581707, -35.096195257624707 ], [ 150.596634361239808, -35.096374385602886 ], [ 150.596600306651396, -35.096553512464034 ], [ 150.596566261756749, -35.096732639500459 ], [ 150.596552456158349, -35.096805247723985 ], [ 150.596532206797946, -35.096911767221719 ], [ 150.596507986978651, -35.097039199330474 ], [ 150.596498161533049, -35.097090895118264 ], [ 150.596464098621368, -35.097270057804664 ], [ 150.59643005301254, -35.097449185660373 ], [ 150.596395999584757, -35.097628312442517 ], [ 150.596361954754741, -35.097807439378208 ], [ 150.596327899595849, -35.097986576008061 ], [ 150.59629384562578, -35.098165703629896 ], [ 150.596259800279938, -35.098344830504345 ], [ 150.596225745965938, -35.098523958085352 ], [ 150.596191692338067, -35.098703093776095 ], [ 150.596184771209408, -35.098739542170776 ], [ 150.596157646476399, -35.09888222058931 ], [ 150.596139198581085, -35.098979274335285 ], [ 150.596123591620056, -35.099061349010007 ], [ 150.596359802024608, -35.099008443277427 ], [ 150.596287032650508, -35.099388498808914 ], [ 150.596258454802182, -35.099537775933555 ], [ 150.596229412030283, -35.099687043823394 ], [ 150.59620858853944, -35.099795624265468 ], [ 150.596187756188584, -35.099904205426917 ], [ 150.59616231706579, -35.100039893091747 ], [ 150.596136338744401, -35.100175598896868 ], [ 150.59611035291465, -35.100311295528584 ], [ 150.596084375490904, -35.100447001331823 ], [ 150.596058389197907, -35.10058270694924 ], [ 150.59603239358168, -35.100718502517658 ], [ 150.5958132962364, -35.100690337252274 ], [ 150.595792885573474, -35.10079864993623 ], [ 150.595762220067371, -35.100959794627691 ], [ 150.59505489914568, -35.100868907990474 ], [ 150.595051473880972, -35.100853928991498 ], [ 150.595047369279285, -35.100838439805919 ], [ 150.595042726204156, -35.100823021965546 ], [ 150.59503903222452, -35.100812148281236 ], [ 150.595034926988831, -35.100801346664134 ], [ 150.595032247517878, -35.100792679150722 ], [ 150.595029153856785, -35.100784108887154 ], [ 150.59501661443224, -35.100749911101595 ], [ 150.595014560778736, -35.10074443364821 ], [ 150.595012256831893, -35.100739037766992 ], [ 150.595010723966453, -35.100732709757658 ], [ 150.595008958464291, -35.100726497024894 ], [ 150.595005954898369, -35.100715122310255 ], [ 150.595004610699533, -35.10070991405042 ], [ 150.595003185023643, -35.100704678932615 ], [ 150.59500166146421, -35.100699452689511 ], [ 150.595000864173187, -35.100696872217071 ], [ 150.594999833000202, -35.100694262763206 ], [ 150.594997870412868, -35.100689045835459 ], [ 150.59493801628517, -35.100523705052119 ], [ 150.594935372192282, -35.100514991363021 ], [ 150.594931840461214, -35.100504046976347 ], [ 150.594927887937871, -35.100493200609591 ], [ 150.5949235489079, -35.10048247998693 ], [ 150.59490923358203, -35.100450675469681 ], [ 150.594889665022066, -35.100411601893107 ], [ 150.594869227573668, -35.100372832887622 ], [ 150.594865354217234, -35.100365526312899 ], [ 150.594857574248351, -35.100350925123401 ], [ 150.594856059364787, -35.100348091520246 ], [ 150.594848662937125, -35.100335667752475 ], [ 150.594844065417107, -35.100327958274775 ], [ 150.5948394574757, -35.100320267520701 ], [ 150.594828744529536, -35.100302267309253 ], [ 150.594818042523798, -35.100284268215539 ], [ 150.594807338658541, -35.100266295226284 ], [ 150.594777641888527, -35.100218328736219 ], [ 150.594762860225131, -35.100194296331352 ], [ 150.594749324803871, -35.100170183191828 ], [ 150.59474884074055, -35.100169224348029 ], [ 150.594709183571922, -35.10009504765835 ], [ 150.594666685604636, -35.100010381992114 ], [ 150.594659926528124, -35.099997062195463 ], [ 150.594653158445482, -35.099983750332797 ], [ 150.594647529436827, -35.099972697598339 ], [ 150.59463834073739, -35.099950422264754 ], [ 150.594627898390598, -35.09992500931029 ], [ 150.594617446750419, -35.099899614199671 ], [ 150.59460697671858, -35.099874210609947 ], [ 150.594602044866036, -35.099864815972005 ], [ 150.594599562456949, -35.099860119677942 ], [ 150.594597079809802, -35.099855431492237 ], [ 150.594594596066685, -35.099850743284726 ], [ 150.594592086845637, -35.099846063585979 ], [ 150.594589577624873, -35.099841383887195 ], [ 150.594584512533288, -35.099832044296953 ], [ 150.594581984412571, -35.09982737323741 ], [ 150.594579438434607, -35.099822712640837 ], [ 150.594556123222446, -35.099777444639805 ], [ 150.594551874795627, -35.099770137821629 ], [ 150.594540086108253, -35.099747504372104 ], [ 150.594529455150536, -35.099724591915688 ], [ 150.594520025755003, -35.099701439184102 ], [ 150.594491062266087, -35.099632155983905 ], [ 150.594473448514464, -35.099594283129463 ], [ 150.594468007476507, -35.09958262112724 ], [ 150.594461983256735, -35.099548145167425 ], [ 150.59446134738414, -35.099532199273966 ], [ 150.594460253002893, -35.099519836588279 ], [ 150.594460370099739, -35.09950753040534 ], [ 150.594461150415327, -35.099490273960811 ], [ 150.594459106610884, -35.099475805551855 ], [ 150.59445498245509, -35.099465129744551 ], [ 150.594454023658415, -35.099462969747727 ], [ 150.594452948078839, -35.099460827264579 ], [ 150.594451765026349, -35.099458721410564 ], [ 150.594450464121252, -35.099456632147543 ], [ 150.594449075237094, -35.099454588013764 ], [ 150.594447990686831, -35.099452302922124 ], [ 150.594446978440004, -35.099450132849555 ], [ 150.594446027428376, -35.099448081182189 ], [ 150.594445122940272, -35.099446125992941 ], [ 150.594444235245049, -35.099444271198898 ], [ 150.59444336551843, -35.099442514119026 ], [ 150.594442388373125, -35.099439672255599 ], [ 150.594442003365032, -35.099438291691825 ], [ 150.594440972106952, -35.099435835479611 ], [ 150.594439529063095, -35.099433917376125 ], [ 150.594438498185497, -35.099432231918023 ], [ 150.594437763295133, -35.099430664116724 ], [ 150.594436759987417, -35.099429085577988 ], [ 150.594435764258606, -35.099426987949904 ], [ 150.594435029564949, -35.099424890996637 ], [ 150.594433846041454, -35.099423286343757 ], [ 150.594432770192213, -35.09942160089431 ], [ 150.594431810824091, -35.099419870881434 ], [ 150.594430959432003, -35.09941808712172 ], [ 150.594430225050644, -35.099416240779945 ], [ 150.594422838120977, -35.099393310683084 ], [ 150.594416957571099, -35.099367494274276 ], [ 150.594408585666798, -35.099328106535687 ], [ 150.594405107662254, -35.09930742655294 ], [ 150.59440305494374, -35.099295127775449 ], [ 150.594401047171033, -35.099282829890186 ], [ 150.594400051514583, -35.099276662180316 ], [ 150.594399065194636, -35.099270512684924 ], [ 150.594398089005722, -35.099264354376082 ], [ 150.594396744080598, -35.099255739485479 ], [ 150.594396081028719, -35.099251429071892 ], [ 150.594395427064484, -35.09924710802121 ], [ 150.594394780509106, -35.099242796132181 ], [ 150.594393643030912, -35.099237535177863 ], [ 150.594392548586455, -35.099232228202048 ], [ 150.59439148236865, -35.099226893841397 ], [ 150.594390451733403, -35.099221543059429 ], [ 150.594389457024846, -35.099216164144025 ], [ 150.594388973084875, -35.099213447458162 ], [ 150.594388021860283, -35.099208007205405 ], [ 150.594387564759444, -35.099205273023202 ], [ 150.594386686981636, -35.099167740519917 ], [ 150.594386829683316, -35.09915687717784 ], [ 150.594387502762316, -35.099145993715481 ], [ 150.594388740158877, -35.099135129569355 ], [ 150.594389760307536, -35.099126954666865 ], [ 150.59439045223445, -35.099118788573129 ], [ 150.594390791531367, -35.099110640719637 ], [ 150.594390791935666, -35.099102491547022 ], [ 150.594390290103746, -35.099091501825527 ], [ 150.594389349050942, -35.099080565584998 ], [ 150.594387986555432, -35.099069675065259 ], [ 150.594386167299859, -35.099058837678257 ], [ 150.594383926427042, -35.099048089278519 ], [ 150.594380223854358, -35.099030161495115 ], [ 150.59437872699408, -35.099020633115224 ], [ 150.594376583493187, -35.099008549786149 ], [ 150.594372935662875, -35.098985960748237 ], [ 150.594371296085541, -35.09897494393207 ], [ 150.594368338318219, -35.098964105577338 ], [ 150.594364949031757, -35.098953133353042 ], [ 150.594361328146675, -35.098942054666047 ], [ 150.594357383654369, -35.09893093980638 ], [ 150.594354559936562, -35.098920056335253 ], [ 150.594353537941828, -35.098910008226518 ], [ 150.59435216574883, -35.098900156894878 ], [ 150.594350670289259, -35.098891775197032 ], [ 150.594348850347785, -35.098883573659137 ], [ 150.594346716373138, -35.0988755326565 ], [ 150.59434424173827, -35.098867662478021 ], [ 150.594339974507562, -35.09885607155087 ], [ 150.594338702860966, -35.098852091608592 ], [ 150.594337582472036, -35.098848040749637 ], [ 150.594337178511921, -35.098845252633232 ], [ 150.594336901290234, -35.098842294854457 ], [ 150.594336747571219, -35.098839165546153 ], [ 150.59433671262579, -35.098835876333396 ], [ 150.594336801484843, -35.098832442640841 ], [ 150.594336847273325, -35.098831743116961 ], [ 150.594337070498966, -35.098826947284472 ], [ 150.594337546281395, -35.098821022431714 ], [ 150.59433799398704, -35.098817060397181 ], [ 150.594338585906684, -35.098813080492185 ], [ 150.59433928451449, -35.098809127946048 ], [ 150.594340110125017, -35.098805183330029 ], [ 150.59434108736869, -35.098801266965175 ], [ 150.594341239171655, -35.098798415962662 ], [ 150.594341490582337, -35.098795609306173 ], [ 150.594342799329667, -35.098785937402617 ], [ 150.594344537678353, -35.098776427275681 ], [ 150.594346654194879, -35.098770582773206 ], [ 150.594348966081782, -35.098764845817001 ], [ 150.594351494167199, -35.098759216820532 ], [ 150.594354201470935, -35.098753685133623 ], [ 150.594357267222676, -35.098748011822217 ], [ 150.594359311333648, -35.098742354286749 ], [ 150.594361892594037, -35.098735587804157 ], [ 150.594367620020705, -35.098726121713455 ], [ 150.594373008062547, -35.098716708381033 ], [ 150.594378036945301, -35.098707386177082 ], [ 150.59438268015856, -35.098698198746774 ], [ 150.594417154644248, -35.098658559121013 ], [ 150.594421323894807, -35.09864538234234 ], [ 150.594426272492171, -35.098631999276421 ], [ 150.59443133624373, -35.098618616693365 ], [ 150.594436571665597, -35.098605214981568 ], [ 150.594441958972794, -35.098591795551172 ], [ 150.594444745711542, -35.098585090838888 ], [ 150.594449399051825, -35.098574065533533 ], [ 150.594455709698479, -35.098560690574651 ], [ 150.594458874603589, -35.098553994270716 ], [ 150.594462056782902, -35.098547307324175 ], [ 150.594468447713865, -35.098533924943709 ], [ 150.594471656227228, -35.098527237618178 ], [ 150.594474874605964, -35.098520550488395 ], [ 150.594477662197164, -35.098514786914386 ], [ 150.594479346807987, -35.098511433578423 ], [ 150.594481203265275, -35.098508950856576 ], [ 150.594483165721897, -35.098506145714019 ], [ 150.59448528199303, -35.098503518507762 ], [ 150.594487496330458, -35.098501062722342 ], [ 150.594489862528263, -35.098498776721314 ], [ 150.594492336118179, -35.098496643395627 ], [ 150.594494936329056, -35.098494680254717 ], [ 150.594497525778849, -35.098492672728675 ], [ 150.594500000718796, -35.098490493455252 ], [ 150.594502367381949, -35.098488154277163 ], [ 150.594504087933728, -35.09848622776105 ], [ 150.594504599273733, -35.098485474376822 ], [ 150.594506705862756, -35.098482094260405 ], [ 150.594508686773224, -35.098478661167405 ], [ 150.594510542598272, -35.098475192237302 ], [ 150.594512244772687, -35.098471651746188 ], [ 150.594529455823562, -35.098433052217857 ], [ 150.594545537712264, -35.098394095830557 ], [ 150.594549301911883, -35.09838387680297 ], [ 150.59455270021806, -35.098373567577752 ], [ 150.594555712845988, -35.098363169565083 ], [ 150.59455835659395, -35.098352708339327 ], [ 150.594562004465018, -35.09833879643223 ], [ 150.594566289717619, -35.09832499273211 ], [ 150.59457117490544, -35.09831133976553 ], [ 150.594572017022017, -35.098308139177981 ], [ 150.594572842668811, -35.098304939164933 ], [ 150.594575639676663, -35.098295159778957 ], [ 150.594577691871251, -35.098288517105608 ], [ 150.594579143767788, -35.098284833722012 ], [ 150.594580622026257, -35.098281149058785 ], [ 150.594594919981631, -35.098247767024979 ], [ 150.594597995056716, -35.098237557753798 ], [ 150.594601293120434, -35.098228942179759 ], [ 150.594604780590373, -35.098220525080372 ], [ 150.594609469366446, -35.09821209937482 ], [ 150.594611898196916, -35.09820786836611 ], [ 150.594614158030112, -35.098203565491836 ], [ 150.594616228011489, -35.098199191239544 ], [ 150.594618119934665, -35.098194754857893 ], [ 150.594619831358273, -35.098190227451774 ], [ 150.594621355159717, -35.098185664770234 ], [ 150.594622690772297, -35.098181048772851 ], [ 150.594623838789289, -35.098176396599129 ], [ 150.594625236017748, -35.098169422708686 ], [ 150.594627379398503, -35.098163595861052 ], [ 150.594629216940689, -35.098157688121368 ], [ 150.594630750053199, -35.098151763521145 ], [ 150.594633797467168, -35.098139957217178 ], [ 150.594634971306277, -35.098136031229735 ], [ 150.594639059121278, -35.09812495141955 ], [ 150.594644267369432, -35.098111389599026 ], [ 150.594655499371584, -35.098083762003554 ], [ 150.594665942879459, -35.098061056041914 ], [ 150.594670908447682, -35.098043397683867 ], [ 150.594678303493964, -35.09802249362189 ], [ 150.594686120938377, -35.098001921567338 ], [ 150.594694099008308, -35.097981519470295 ], [ 150.594702076014954, -35.097961153409798 ], [ 150.594712483212533, -35.097930612148765 ], [ 150.594723760160974, -35.097899848362722 ], [ 150.59473556533996, -35.097868912965751 ], [ 150.594744717587417, -35.09783740566872 ], [ 150.594751754988323, -35.097818518275751 ], [ 150.594759606449713, -35.097799586642921 ], [ 150.594765890483473, -35.097785844242438 ], [ 150.594768625161123, -35.097777848500684 ], [ 150.594776406086112, -35.0977563526205 ], [ 150.594781219018415, -35.097744932022415 ], [ 150.594785602575257, -35.097733566003555 ], [ 150.594797766875303, -35.097699664717524 ], [ 150.594799533169294, -35.09769450106625 ], [ 150.594801199401331, -35.097689383206109 ], [ 150.594802786516027, -35.09768434490681 ], [ 150.594804338335138, -35.097679387939628 ], [ 150.594806622489415, -35.097674592446012 ], [ 150.594808730149282, -35.097669868270209 ], [ 150.594810254325381, -35.097666299901483 ], [ 150.594811866690122, -35.097662679195679 ], [ 150.594813587886051, -35.097659012872697 ], [ 150.594815435161195, -35.097655311190948 ], [ 150.594817434019575, -35.09765156474058 ], [ 150.594819953387145, -35.097648282956513 ], [ 150.594821861400476, -35.097644007349821 ], [ 150.59482393243016, -35.097640753626592 ], [ 150.594832241937837, -35.097626240112071 ], [ 150.594839583551732, -35.097611817363671 ], [ 150.594839915323661, -35.097611351584654 ], [ 150.594842801997487, -35.097607066555717 ], [ 150.594848529780052, -35.09759847936698 ], [ 150.594851379420248, -35.09759418548964 ], [ 150.594854230421049, -35.097589882624618 ], [ 150.594859914024482, -35.097581268416114 ], [ 150.59486554335669, -35.097572672060721 ], [ 150.594872464244162, -35.097562040606249 ], [ 150.594875905477153, -35.097556725398974 ], [ 150.594879338797966, -35.09755141814771 ], [ 150.594886169713533, -35.097540787610939 ], [ 150.594894227924129, -35.097531652613014 ], [ 150.594901543376835, -35.097522374865257 ], [ 150.594905558871886, -35.097516665398679 ], [ 150.594909135307034, -35.09751089222862 ], [ 150.594912308555195, -35.09750502902336 ], [ 150.594915034423991, -35.097499086624801 ], [ 150.594918619010713, -35.097491206908039 ], [ 150.594923181382143, -35.09747786032235 ], [ 150.594927861428346, -35.097464727013246 ], [ 150.594936404022292, -35.09744074919805 ], [ 150.594937874454956, -35.097435836587785 ], [ 150.594940411190095, -35.09742744658103 ], [ 150.59494292062908, -35.097419612232258 ], [ 150.594945385673128, -35.097412467519391 ], [ 150.594947599866771, -35.097405386338565 ], [ 150.5949496443329, -35.097400572562663 ], [ 150.594952243319653, -35.097395140574577 ], [ 150.594955058464961, -35.09738978048599 ], [ 150.594957891409933, -35.097383030701771 ], [ 150.594960902036576, -35.097375795853544 ], [ 150.594964103218842, -35.097368123072648 ], [ 150.594972053762774, -35.097348876977591 ], [ 150.59497947603532, -35.097331334069608 ], [ 150.594980632023692, -35.09732808922606 ], [ 150.594982900363789, -35.097321591461153 ], [ 150.594985140493492, -35.097315083220266 ], [ 150.594986252871507, -35.097311829397974 ], [ 150.594992572438912, -35.097292171417052 ], [ 150.594994588797249, -35.097285439680341 ], [ 150.594995592485617, -35.097282077328678 ], [ 150.594996578846406, -35.097278707421424 ], [ 150.594998533223531, -35.097271957326768 ], [ 150.595000218354954, -35.09726544888796 ], [ 150.595002468302511, -35.097260062255756 ], [ 150.595008161462147, -35.097245074016385 ], [ 150.595011181270166, -35.097236182468258 ], [ 150.595013897196395, -35.09722721818099 ], [ 150.595016121448282, -35.097219831603738 ], [ 150.595018021366172, -35.097212284440033 ], [ 150.595020718795155, -35.097205704142951 ], [ 150.595023184206894, -35.097200039630046 ], [ 150.595026420457259, -35.097192106120076 ], [ 150.595031806560513, -35.097177190212086 ], [ 150.595035338852995, -35.097158509079826 ], [ 150.595038189586006, -35.097146300414039 ], [ 150.595041444323556, -35.097134153853773 ], [ 150.595045110182951, -35.097122088470904 ], [ 150.595050263677336, -35.097103927202227 ], [ 150.595054100860978, -35.097088867869871 ], [ 150.595055024454467, -35.097085730193982 ], [ 150.595057167391161, -35.097077340481526 ], [ 150.595058924216403, -35.097068914259403 ], [ 150.595060304202747, -35.097060434583945 ], [ 150.595062088148325, -35.09704514970273 ], [ 150.595063163600713, -35.097038374049951 ], [ 150.595064526203828, -35.097031605898991 ], [ 150.595066166076265, -35.097024882914951 ], [ 150.595068094179908, -35.097018205315401 ], [ 150.595070540843949, -35.097010378731767 ], [ 150.595071769214542, -35.097006461934093 ], [ 150.59507427042297, -35.096998645447449 ], [ 150.595075533633292, -35.096994737454288 ], [ 150.595076797939669, -35.096990829482849 ], [ 150.59507807133312, -35.09698691087425 ], [ 150.595080805570888, -35.096978629352328 ], [ 150.595082257158225, -35.096974245521757 ], [ 150.595083736150315, -35.096969862235042 ], [ 150.595085206399119, -35.096965477873319 ], [ 150.595088181895107, -35.096956712548753 ], [ 150.595089688079668, -35.096952337013271 ], [ 150.595091202980711, -35.096947963453665 ], [ 150.595095721223259, -35.09693578066782 ], [ 150.595100732626747, -35.096923723957225 ], [ 150.595106216665386, -35.096911819958187 ], [ 150.595106836327147, -35.09691044040413 ], [ 150.595111847260398, -35.096898884894529 ], [ 150.595117019328882, -35.096885690125234 ], [ 150.595121698736392, -35.096872352162492 ], [ 150.595123804709459, -35.096866041379499 ], [ 150.595128044890998, -35.09685342938829 ], [ 150.595132311999578, -35.096840834157497 ], [ 150.595136604859505, -35.096828258368205 ], [ 150.595143552313345, -35.096810895330364 ], [ 150.595149629791507, -35.096793351862836 ], [ 150.595153834185083, -35.096778821757987 ], [ 150.595157231178234, -35.096764146721036 ], [ 150.595164223661925, -35.096734834841428 ], [ 150.595164367004202, -35.096734323854783 ], [ 150.595165819410227, -35.096726327894899 ], [ 150.595166590469461, -35.096722035126753 ], [ 150.595168177070661, -35.096713428838207 ], [ 150.595168974464741, -35.096709135691199 ], [ 150.59516978175094, -35.096704841839042 ], [ 150.595170902536552, -35.096698799970142 ], [ 150.595173116739858, -35.096686751747512 ], [ 150.595175293920988, -35.096674731636767 ], [ 150.595181354075777, -35.09664291863632 ], [ 150.595186713994337, -35.096625680943667 ], [ 150.595191420070364, -35.09660833562188 ], [ 150.595194108992814, -35.096596816961082 ], [ 150.595196906671589, -35.096589063146382 ], [ 150.595199255705126, -35.096581273384388 ], [ 150.595205377317484, -35.096556066588327 ], [ 150.595207044888099, -35.096542576000509 ], [ 150.595211679139908, -35.096521627023861 ], [ 150.59521307771837, -35.096514268227466 ], [ 150.595214027060933, -35.096507042946364 ], [ 150.59521344487473, -35.096490010954142 ], [ 150.595213167401312, -35.096485492746204 ], [ 150.595212754851786, -35.096480868189957 ], [ 150.595212226545016, -35.096476189051891 ], [ 150.595211561891716, -35.096471446810305 ], [ 150.595210773516754, -35.096466659744891 ], [ 150.595209858925699, -35.096461800762413 ], [ 150.595208828561994, -35.096456925059051 ], [ 150.595207672575526, -35.096451994578111 ], [ 150.595206408818456, -35.096447073677396 ], [ 150.595205610231545, -35.096445620904447 ], [ 150.595204759691171, -35.096444331165927 ], [ 150.595202526682641, -35.096441713187509 ], [ 150.595201325845068, -35.096440064026993 ], [ 150.595200232299902, -35.096438234901065 ], [ 150.595199227888344, -35.096436209223135 ], [ 150.595198313695647, -35.096433950054902 ], [ 150.595197462189219, -35.096431386536246 ], [ 150.595196673735074, -35.096428580875056 ], [ 150.595195938657355, -35.096425451748054 ], [ 150.595193589540997, -35.096414839133821 ], [ 150.595191976596084, -35.096403473086312 ], [ 150.595180359813611, -35.096369247645264 ], [ 150.595177374045932, -35.096360033178826 ], [ 150.595175024937276, -35.096353489748275 ], [ 150.595170364875884, -35.096340410855923 ], [ 150.595168042076807, -35.096333867947379 ], [ 150.5951634357572, -35.096320789219853 ], [ 150.595156048800817, -35.096301220698024 ], [ 150.595147748369897, -35.09628179540848 ], [ 150.595145677774894, -35.096272902894896 ], [ 150.595143212426677, -35.096264118835329 ], [ 150.595140487390182, -35.096255512618129 ], [ 150.595137107530832, -35.096242837743489 ], [ 150.595133755884916, -35.096229911921732 ], [ 150.595125418134415, -35.09620025884275 ], [ 150.595121250836172, -35.096185378697569 ], [ 150.595119018291939, -35.096177705347316 ], [ 150.595115890496515, -35.096168248272782 ], [ 150.595112403545016, -35.096158845369615 ], [ 150.595108584804905, -35.096149461122579 ], [ 150.595104425094178, -35.096140146732566 ], [ 150.59509993438914, -35.096130823970618 ], [ 150.595095417086583, -35.096121062571804 ], [ 150.595091239461027, -35.096111462063448 ], [ 150.595087384513761, -35.096102041038876 ], [ 150.595083870943597, -35.096092835026077 ], [ 150.595081307533519, -35.096085933067535 ], [ 150.595076224943483, -35.096072154367484 ], [ 150.595071814805948, -35.09606393478586 ], [ 150.595067430739505, -35.096055723834617 ], [ 150.595062285173469, -35.096046141976707 ], [ 150.595057122662837, -35.096036576910024 ], [ 150.595051967535511, -35.096027021905698 ], [ 150.595043568619872, -35.096011360948673 ], [ 150.595039373407843, -35.096003553992141 ], [ 150.595035133279481, -35.095995745242583 ], [ 150.595033037167383, -35.09599182827197 ], [ 150.595030938863061, -35.095987911257815 ], [ 150.595028849354918, -35.095983993516732 ], [ 150.595027953387699, -35.095982308938098 ], [ 150.595026330801318, -35.095979036893461 ], [ 150.595020092900114, -35.095966316111159 ], [ 150.595013637749275, -35.09595288878068 ], [ 150.595007076572756, -35.095938851762561 ], [ 150.595000506317547, -35.095924302535458 ], [ 150.594997897493158, -35.095914765611994 ], [ 150.594994859194486, -35.095905361693838 ], [ 150.594991380380435, -35.095896093266184 ], [ 150.594987490992224, -35.095886949204292 ], [ 150.594986271358891, -35.095884260287008 ], [ 150.594985051725615, -35.095881571369723 ], [ 150.594983787953993, -35.095878891492468 ], [ 150.594983312849763, -35.095876695124687 ], [ 150.594982828446689, -35.09587451660154 ], [ 150.594981843171439, -35.095870160129834 ], [ 150.594980534390317, -35.095865167118021 ], [ 150.594978902528197, -35.095860344379943 ], [ 150.594976948654903, -35.095855692838292 ], [ 150.594974501577781, -35.095850842201763 ], [ 150.594971731896408, -35.09584614562214 ], [ 150.594941988687054, -35.09579495283397 ], [ 150.594937004931069, -35.095786920183933 ], [ 150.595369454740961, -35.095843044331573 ] ] ] ] } },
{ "type": "Feature", "properties": { "OBJECTID": 670, "Comments": "Downloaded from SEED Map Service 20250513", "FSource": "https://mapprod3.environment.nsw.gov.au/arcgis/rest/services/Planning/EPI_Primary_Planning_Layers/MapServer/2", "SourceDate": 20250513.0, "Supplier": "DOP", "EPI_NAME": "Shoalhaven Local Environmental Plan 2014", "LGA_NAME": "SHOALHAVEN", "PUBLISHED_DATE": "20190927000000", "COMMENCED_DATE": "20190927000000", "CURRENCY_DATE": "20240823000000", "AMENDMENT": "Amendment No 23", "MAP_TYPE": "LZN", "MAP_NAME": "Land Zoning Map", "LAY_NAME": "Zone", "LAY_CLASS": "Tourist", "PCO_REF_KEY": "2014-179", "EPI_TYPE": "LEP", "SYM_CODE": "SP3", "PURPOSE": null, "arcgisonline_objectid": 587176.0, "arcgisonline_type": "arcgisonline_polygon", "multi_reader_type": "ARCGISFEATURES", "SHAPE_Length": 473.01427306714595, "SHAPE_Area": 12340.02192794636 }, "geometry": { "type": "MultiPolygon", "coordinates": [ [ [ [ 150.595883647036288, -35.093236891013575 ], [ 150.59565290613503, -35.093206943435348 ], [ 150.595466805261538, -35.092522273454662 ], [ 150.595577347852299, -35.092493310555376 ], [ 150.595841847962419, -35.092525303614387 ], [ 150.59615603532302, -35.092563319974687 ], [ 150.596437190013575, -35.092597346764208 ], [ 150.596834059744566, -35.09264537582326 ], [ 150.596975180057484, -35.092662452469668 ], [ 150.597339027540414, -35.092706071386694 ], [ 150.597205070912139, -35.093408336845975 ], [ 150.597039290994786, -35.093386860032986 ], [ 150.59687420061519, -35.093365435431174 ], [ 150.596709112500974, -35.093344011552141 ], [ 150.596544013524863, -35.093322587234091 ], [ 150.596378923391001, -35.093301163769262 ], [ 150.596213834479329, -35.093279739203595 ], [ 150.596048745640672, -35.093258315317264 ], [ 150.595883647036288, -35.093236891013575 ] ] ] ] } },
{ "type": "Feature", "properties": { "OBJECTID": 671, "Comments": "Downloaded from SEED Map Service 20250513", "FSource": "https://mapprod3.environment.nsw.gov.au/arcgis/rest/services/Planning/EPI_Primary_Planning_Layers/MapServer/2", "SourceDate": 20250513.0, "Supplier": "DOP", "EPI_NAME": "Shoalhaven Local Environmental Plan 2014", "LGA_NAME": "SHOALHAVEN", "PUBLISHED_DATE": "20140408000000", "COMMENCED_DATE": "20140422000000", "CURRENCY_DATE": "20240823000000", "AMENDMENT": null, "MAP_TYPE": "LZN", "MAP_NAME": "Land Zoning Map", "LAY_NAME": "Zone", "LAY_CLASS": "Tourist", "PCO_REF_KEY": "2014-179", "EPI_TYPE": "LEP", "SYM_CODE": "SP3", "PURPOSE": null, "arcgisonline_objectid": 587177.0, "arcgisonline_type": "arcgisonline_polygon", "multi_reader_type": "ARCGISFEATURES", "SHAPE_Length": 311.76102411596349, "SHAPE_Area": 5287.8096778245645 }, "geometry": { "type": "MultiPolygon", "coordinates": [ [ [ [ 150.590123603843949, -35.090044296262477 ], [ 150.589963149008327, -35.090023966010328 ], [ 150.589811629896303, -35.09000477421575 ], [ 150.589654787095725, -35.089985178867103 ], [ 150.589488011452687, -35.089964345463045 ], [ 150.589323416205019, -35.08994377335619 ], [ 150.58914641298108, -35.089921658794132 ], [ 150.588976625180919, -35.08990014456468 ], [ 150.589063558662417, -35.089451408299119 ], [ 150.589232835440924, -35.089474938701322 ], [ 150.589409640909338, -35.089498038986306 ], [ 150.58957406770287, -35.089519535209007 ], [ 150.589740653580833, -35.089541308530073 ], [ 150.589899666234231, -35.089562088149968 ], [ 150.590049408851769, -35.089581655556664 ], [ 150.590209730299193, -35.089602614046669 ], [ 150.590123603843949, -35.090044296262477 ] ] ] ] } },
{ "type": "Feature", "properties": { "OBJECTID": 678, "Comments": "Downloaded from SEED Map Service 20250513", "FSource": "https://mapprod3.environment.nsw.gov.au/arcgis/rest/services/Planning/EPI_Primary_Planning_Layers/MapServer/2", "SourceDate": 20250513.0, "Supplier": "DOP", "EPI_NAME": "Shoalhaven Local Environmental Plan 2014", "LGA_NAME": "SHOALHAVEN", "PUBLISHED_DATE": "20140408000000", "COMMENCED_DATE": "20140422000000", "CURRENCY_DATE": "20240823000000", "AMENDMENT": null, "MAP_TYPE": "LZN", "MAP_NAME": "Land Zoning Map", "LAY_NAME": "Zone", "LAY_CLASS": "Tourist", "PCO_REF_KEY": "2014-179", "EPI_TYPE": "LEP", "SYM_CODE": "SP3", "PURPOSE": null, "arcgisonline_objectid": 587207.0, "arcgisonline_type": "arcgisonline_polygon", "multi_reader_type": "ARCGISFEATURES", "SHAPE_Length": 1199.2462345801721, "SHAPE_Area": 78575.959723537642 }, "geometry": { "type": "MultiPolygon", "coordinates": [ [ [ [ 150.588737696589732, -35.085695732635813 ], [ 150.589939608431536, -35.085851546576073 ], [ 150.590916830905883, -35.085978224910868 ], [ 150.590830112440557, -35.086428064354109 ], [ 150.590799680315428, -35.086585920524861 ], [ 150.590689360327474, -35.087159283559274 ], [ 150.590585843185153, -35.087697293043632 ], [ 150.590460866958693, -35.087769425645973 ], [ 150.5896975048135, -35.087649550596581 ], [ 150.589604637998804, -35.087636722021927 ], [ 150.589441044970329, -35.087614114772393 ], [ 150.588122109544372, -35.087431831793893 ], [ 150.588108681438172, -35.087426694879035 ], [ 150.587505825129369, -35.087196104718423 ], [ 150.586225210688525, -35.087146694356214 ], [ 150.586233789692301, -35.087101918544619 ], [ 150.586413948751016, -35.086172443746257 ], [ 150.586456366114447, -35.085953489627705 ], [ 150.5865604662919, -35.085416090634155 ], [ 150.587679639050634, -35.085559837594552 ], [ 150.587944185156317, -35.085593820734971 ], [ 150.588737696589732, -35.085695732635813 ] ] ] ] } }
]
}
