{
"type": "FeatureCollection",
"name": "Reporting Locations:Existing Culverts",
"crs": { "type": "name", "properties": { "name": "urn:ogc:def:crs:OGC:1.3:CRS84" } },
"features": [
{ "type": "Feature", "properties": { "OBJECTID": 1, "Comments": "Flood Reporting Locations", "FSource": "BGE", "SourceDate": 20250915.0, "Supplier": "BGE", "output_gdb_path": "C:\\Users\\bri86955\\Mott MacDonald\\MGO - Moata Geospatial - JBR2HR\\02Data/GDA2020MGA56/Environment & Planning.gdb", "output_feature_class": "Water Management/JBR2HR_EN_WA_ReportingLocations_M260_BGE_7856_20250915", "ECMLink_alias": "ECM Objective Link", "FSource_alias": "Feature Source", "SourceDate_alias": "Source Date", "PlanAccur_alias": "Planimetric Accuracy", "id": 10, "Chainage": 3600, "fme_feature_type": "Reporting_Locations", "multi_reader_full_id": 1, "multi_reader_id": 1, "multi_reader_keyword": "SHAPEFILE_2", "multi_reader_type": "SHAPEFILE", "shapefile_type": "shapefile_point" }, "geometry": { "type": "Point", "coordinates": [ 150.57822918237548, -35.014902165296803 ] } },
{ "type": "Feature", "properties": { "OBJECTID": 2, "Comments": "Flood Reporting Locations", "FSource": "BGE", "SourceDate": 20250915.0, "Supplier": "BGE", "output_gdb_path": "C:\\Users\\bri86955\\Mott MacDonald\\MGO - Moata Geospatial - JBR2HR\\02Data/GDA2020MGA56/Environment & Planning.gdb", "output_feature_class": "Water Management/JBR2HR_EN_WA_ReportingLocations_M260_BGE_7856_20250915", "ECMLink_alias": "ECM Objective Link", "FSource_alias": "Feature Source", "SourceDate_alias": "Source Date", "PlanAccur_alias": "Planimetric Accuracy", "id": 12, "Chainage": 4200, "fme_feature_type": "Reporting_Locations", "multi_reader_full_id": 1, "multi_reader_id": 1, "multi_reader_keyword": "SHAPEFILE_2", "multi_reader_type": "SHAPEFILE", "shapefile_type": "shapefile_point" }, "geometry": { "type": "Point", "coordinates": [ 150.57426934078623, -35.020165508055648 ] } },
{ "type": "Feature", "properties": { "OBJECTID": 3, "Comments": "Flood Reporting Locations", "FSource": "BGE", "SourceDate": 20250915.0, "Supplier": "BGE", "output_gdb_path": "C:\\Users\\bri86955\\Mott MacDonald\\MGO - Moata Geospatial - JBR2HR\\02Data/GDA2020MGA56/Environment & Planning.gdb", "output_feature_class": "Water Management/JBR2HR_EN_WA_ReportingLocations_M260_BGE_7856_20250915", "ECMLink_alias": "ECM Objective Link", "FSource_alias": "Feature Source", "SourceDate_alias": "Source Date", "PlanAccur_alias": "Planimetric Accuracy", "id": 14, "Chainage": 4700, "fme_feature_type": "Reporting_Locations", "multi_reader_full_id": 1, "multi_reader_id": 1, "multi_reader_keyword": "SHAPEFILE_2", "multi_reader_type": "SHAPEFILE", "shapefile_type": "shapefile_point" }, "geometry": { "type": "Point", "coordinates": [ 150.577015123574483, -35.025077463152812 ] } },
{ "type": "Feature", "properties": { "OBJECTID": 4, "Comments": "Flood Reporting Locations", "FSource": "BGE", "SourceDate": 20250915.0, "Supplier": "BGE", "output_gdb_path": "C:\\Users\\bri86955\\Mott MacDonald\\MGO - Moata Geospatial - JBR2HR\\02Data/GDA2020MGA56/Environment & Planning.gdb", "output_feature_class": "Water Management/JBR2HR_EN_WA_ReportingLocations_M260_BGE_7856_20250915", "ECMLink_alias": "ECM Objective Link", "FSource_alias": "Feature Source", "SourceDate_alias": "Source Date", "PlanAccur_alias": "Planimetric Accuracy", "id": 13, "Chainage": 4700, "fme_feature_type": "Reporting_Locations", "multi_reader_full_id": 1, "multi_reader_id": 1, "multi_reader_keyword": "SHAPEFILE_2", "multi_reader_type": "SHAPEFILE", "shapefile_type": "shapefile_point" }, "geometry": { "type": "Point", "coordinates": [ 150.57571143928007, -35.024849690499501 ] } },
{ "type": "Feature", "properties": { "OBJECTID": 5, "Comments": "Flood Reporting Locations", "FSource": "BGE", "SourceDate": 20250915.0, "Supplier": "BGE", "output_gdb_path": "C:\\Users\\bri86955\\Mott MacDonald\\MGO - Moata Geospatial - JBR2HR\\02Data/GDA2020MGA56/Environment & Planning.gdb", "output_feature_class": "Water Management/JBR2HR_EN_WA_ReportingLocations_M260_BGE_7856_20250915", "ECMLink_alias": "ECM Objective Link", "FSource_alias": "Feature Source", "SourceDate_alias": "Source Date", "PlanAccur_alias": "Planimetric Accuracy", "id": 15, "Chainage": 5050, "fme_feature_type": "Reporting_Locations", "multi_reader_full_id": 1, "multi_reader_id": 1, "multi_reader_keyword": "SHAPEFILE_2", "multi_reader_type": "SHAPEFILE", "shapefile_type": "shapefile_point" }, "geometry": { "type": "Point", "coordinates": [ 150.575805763893612, -35.0281421527229 ] } },
{ "type": "Feature", "properties": { "OBJECTID": 6, "Comments": "Flood Reporting Locations", "FSource": "BGE", "SourceDate": 20250915.0, "Supplier": "BGE", "output_gdb_path": "C:\\Users\\bri86955\\Mott MacDonald\\MGO - Moata Geospatial - JBR2HR\\02Data/GDA2020MGA56/Environment & Planning.gdb", "output_feature_class": "Water Management/JBR2HR_EN_WA_ReportingLocations_M260_BGE_7856_20250915", "ECMLink_alias": "ECM Objective Link", "FSource_alias": "Feature Source", "SourceDate_alias": "Source Date", "PlanAccur_alias": "Planimetric Accuracy", "id": 16, "Chainage": 5400, "fme_feature_type": "Reporting_Locations", "multi_reader_full_id": 1, "multi_reader_id": 1, "multi_reader_keyword": "SHAPEFILE_2", "multi_reader_type": "SHAPEFILE", "shapefile_type": "shapefile_point" }, "geometry": { "type": "Point", "coordinates": [ 150.577252064830986, -35.031587706501867 ] } },
{ "type": "Feature", "properties": { "OBJECTID": 7, "Comments": "Flood Reporting Locations", "FSource": "BGE", "SourceDate": 20250915.0, "Supplier": "BGE", "output_gdb_path": "C:\\Users\\bri86955\\Mott MacDonald\\MGO - Moata Geospatial - JBR2HR\\02Data/GDA2020MGA56/Environment & Planning.gdb", "output_feature_class": "Water Management/JBR2HR_EN_WA_ReportingLocations_M260_BGE_7856_20250915", "ECMLink_alias": "ECM Objective Link", "FSource_alias": "Feature Source", "SourceDate_alias": "Source Date", "PlanAccur_alias": "Planimetric Accuracy", "id": 17, "Chainage": 5600, "fme_feature_type": "Reporting_Locations", "multi_reader_full_id": 1, "multi_reader_id": 1, "multi_reader_keyword": "SHAPEFILE_2", "multi_reader_type": "SHAPEFILE", "shapefile_type": "shapefile_point" }, "geometry": { "type": "Point", "coordinates": [ 150.579116466427507, -35.032945581543146 ] } },
{ "type": "Feature", "properties": { "OBJECTID": 8, "Comments": "Flood Reporting Locations", "FSource": "BGE", "SourceDate": 20250915.0, "Supplier": "BGE", "output_gdb_path": "C:\\Users\\bri86955\\Mott MacDonald\\MGO - Moata Geospatial - JBR2HR\\02Data/GDA2020MGA56/Environment & Planning.gdb", "output_feature_class": "Water Management/JBR2HR_EN_WA_ReportingLocations_M260_BGE_7856_20250915", "ECMLink_alias": "ECM Objective Link", "FSource_alias": "Feature Source", "SourceDate_alias": "Source Date", "PlanAccur_alias": "Planimetric Accuracy", "id": 18, "Chainage": 6100, "fme_feature_type": "Reporting_Locations", "multi_reader_full_id": 1, "multi_reader_id": 1, "multi_reader_keyword": "SHAPEFILE_2", "multi_reader_type": "SHAPEFILE", "shapefile_type": "shapefile_point" }, "geometry": { "type": "Point", "coordinates": [ 150.582789776160865, -35.036120318672594 ] } },
{ "type": "Feature", "properties": { "OBJECTID": 9, "Comments": "Flood Reporting Locations", "FSource": "BGE", "SourceDate": 20250915.0, "Supplier": "BGE", "output_gdb_path": "C:\\Users\\bri86955\\Mott MacDonald\\MGO - Moata Geospatial - JBR2HR\\02Data/GDA2020MGA56/Environment & Planning.gdb", "output_feature_class": "Water Management/JBR2HR_EN_WA_ReportingLocations_M260_BGE_7856_20250915", "ECMLink_alias": "ECM Objective Link", "FSource_alias": "Feature Source", "SourceDate_alias": "Source Date", "PlanAccur_alias": "Planimetric Accuracy", "id": 19, "Chainage": 6800, "fme_feature_type": "Reporting_Locations", "multi_reader_full_id": 1, "multi_reader_id": 1, "multi_reader_keyword": "SHAPEFILE_2", "multi_reader_type": "SHAPEFILE", "shapefile_type": "shapefile_point" }, "geometry": { "type": "Point", "coordinates": [ 150.579807936253616, -35.041980099507583 ] } },
{ "type": "Feature", "properties": { "OBJECTID": 10, "Comments": "Flood Reporting Locations", "FSource": "BGE", "SourceDate": 20250915.0, "Supplier": "BGE", "output_gdb_path": "C:\\Users\\bri86955\\Mott MacDonald\\MGO - Moata Geospatial - JBR2HR\\02Data/GDA2020MGA56/Environment & Planning.gdb", "output_feature_class": "Water Management/JBR2HR_EN_WA_ReportingLocations_M260_BGE_7856_20250915", "ECMLink_alias": "ECM Objective Link", "FSource_alias": "Feature Source", "SourceDate_alias": "Source Date", "PlanAccur_alias": "Planimetric Accuracy", "id": 5, "Chainage": 2400, "fme_feature_type": "Reporting_Locations", "multi_reader_full_id": 1, "multi_reader_id": 1, "multi_reader_keyword": "SHAPEFILE_2", "multi_reader_type": "SHAPEFILE", "shapefile_type": "shapefile_point" }, "geometry": { "type": "Point", "coordinates": [ 150.582131887454949, -35.004665406646133 ] } },
{ "type": "Feature", "properties": { "OBJECTID": 11, "Comments": "Flood Reporting Locations", "FSource": "BGE", "SourceDate": 20250915.0, "Supplier": "BGE", "output_gdb_path": "C:\\Users\\bri86955\\Mott MacDonald\\MGO - Moata Geospatial - JBR2HR\\02Data/GDA2020MGA56/Environment & Planning.gdb", "output_feature_class": "Water Management/JBR2HR_EN_WA_ReportingLocations_M260_BGE_7856_20250915", "ECMLink_alias": "ECM Objective Link", "FSource_alias": "Feature Source", "SourceDate_alias": "Source Date", "PlanAccur_alias": "Planimetric Accuracy", "id": 6, "Chainage": 2950, "fme_feature_type": "Reporting_Locations", "multi_reader_full_id": 1, "multi_reader_id": 1, "multi_reader_keyword": "SHAPEFILE_2", "multi_reader_type": "SHAPEFILE", "shapefile_type": "shapefile_point" }, "geometry": { "type": "Point", "coordinates": [ 150.581231837112455, -35.00953764860644 ] } },
{ "type": "Feature", "properties": { "OBJECTID": 12, "Comments": "Flood Reporting Locations", "FSource": "BGE", "SourceDate": 20250915.0, "Supplier": "BGE", "output_gdb_path": "C:\\Users\\bri86955\\Mott MacDonald\\MGO - Moata Geospatial - JBR2HR\\02Data/GDA2020MGA56/Environment & Planning.gdb", "output_feature_class": "Water Management/JBR2HR_EN_WA_ReportingLocations_M260_BGE_7856_20250915", "ECMLink_alias": "ECM Objective Link", "FSource_alias": "Feature Source", "SourceDate_alias": "Source Date", "PlanAccur_alias": "Planimetric Accuracy", "id": 7, "Chainage": 3050, "fme_feature_type": "Reporting_Locations", "multi_reader_full_id": 1, "multi_reader_id": 1, "multi_reader_keyword": "SHAPEFILE_2", "multi_reader_type": "SHAPEFILE", "shapefile_type": "shapefile_point" }, "geometry": { "type": "Point", "coordinates": [ 150.580935222230437, -35.010471001160205 ] } },
{ "type": "Feature", "properties": { "OBJECTID": 13, "Comments": "Flood Reporting Locations", "FSource": "BGE", "SourceDate": 20250915.0, "Supplier": "BGE", "output_gdb_path": "C:\\Users\\bri86955\\Mott MacDonald\\MGO - Moata Geospatial - JBR2HR\\02Data/GDA2020MGA56/Environment & Planning.gdb", "output_feature_class": "Water Management/JBR2HR_EN_WA_ReportingLocations_M260_BGE_7856_20250915", "ECMLink_alias": "ECM Objective Link", "FSource_alias": "Feature Source", "SourceDate_alias": "Source Date", "PlanAccur_alias": "Planimetric Accuracy", "id": 8, "Chainage": 3350, "fme_feature_type": "Reporting_Locations", "multi_reader_full_id": 1, "multi_reader_id": 1, "multi_reader_keyword": "SHAPEFILE_2", "multi_reader_type": "SHAPEFILE", "shapefile_type": "shapefile_point" }, "geometry": { "type": "Point", "coordinates": [ 150.580575831145978, -35.013209536661378 ] } },
{ "type": "Feature", "properties": { "OBJECTID": 14, "Comments": "Flood Reporting Locations", "FSource": "BGE", "SourceDate": 20250915.0, "Supplier": "BGE", "output_gdb_path": "C:\\Users\\bri86955\\Mott MacDonald\\MGO - Moata Geospatial - JBR2HR\\02Data/GDA2020MGA56/Environment & Planning.gdb", "output_feature_class": "Water Management/JBR2HR_EN_WA_ReportingLocations_M260_BGE_7856_20250915", "ECMLink_alias": "ECM Objective Link", "FSource_alias": "Feature Source", "SourceDate_alias": "Source Date", "PlanAccur_alias": "Planimetric Accuracy", "id": 11, "Chainage": 3900, "fme_feature_type": "Reporting_Locations", "multi_reader_full_id": 1, "multi_reader_id": 1, "multi_reader_keyword": "SHAPEFILE_2", "multi_reader_type": "SHAPEFILE", "shapefile_type": "shapefile_point" }, "geometry": { "type": "Point", "coordinates": [ 150.579628271654087, -35.01828075889248 ] } },
{ "type": "Feature", "properties": { "OBJECTID": 15, "Comments": "Flood Reporting Locations", "FSource": "BGE", "SourceDate": 20250915.0, "Supplier": "BGE", "output_gdb_path": "C:\\Users\\bri86955\\Mott MacDonald\\MGO - Moata Geospatial - JBR2HR\\02Data/GDA2020MGA56/Environment & Planning.gdb", "output_feature_class": "Water Management/JBR2HR_EN_WA_ReportingLocations_M260_BGE_7856_20250915", "ECMLink_alias": "ECM Objective Link", "FSource_alias": "Feature Source", "SourceDate_alias": "Source Date", "PlanAccur_alias": "Planimetric Accuracy", "id": 1, "Chainage": 400, "fme_feature_type": "Reporting_Locations", "multi_reader_full_id": 1, "multi_reader_id": 1, "multi_reader_keyword": "SHAPEFILE_2", "multi_reader_type": "SHAPEFILE", "shapefile_type": "shapefile_point" }, "geometry": { "type": "Point", "coordinates": [ 150.585850074638273, -34.987007463353457 ] } },
{ "type": "Feature", "properties": { "OBJECTID": 16, "Comments": "Flood Reporting Locations", "FSource": "BGE", "SourceDate": 20250915.0, "Supplier": "BGE", "output_gdb_path": "C:\\Users\\bri86955\\Mott MacDonald\\MGO - Moata Geospatial - JBR2HR\\02Data/GDA2020MGA56/Environment & Planning.gdb", "output_feature_class": "Water Management/JBR2HR_EN_WA_ReportingLocations_M260_BGE_7856_20250915", "ECMLink_alias": "ECM Objective Link", "FSource_alias": "Feature Source", "SourceDate_alias": "Source Date", "PlanAccur_alias": "Planimetric Accuracy", "id": 2, "Chainage": 450, "fme_feature_type": "Reporting_Locations", "multi_reader_full_id": 1, "multi_reader_id": 1, "multi_reader_keyword": "SHAPEFILE_2", "multi_reader_type": "SHAPEFILE", "shapefile_type": "shapefile_point" }, "geometry": { "type": "Point", "coordinates": [ 150.586738619704022, -34.987586436253949 ] } },
{ "type": "Feature", "properties": { "OBJECTID": 17, "Comments": "Flood Reporting Locations", "FSource": "BGE", "SourceDate": 20250915.0, "Supplier": "BGE", "output_gdb_path": "C:\\Users\\bri86955\\Mott MacDonald\\MGO - Moata Geospatial - JBR2HR\\02Data/GDA2020MGA56/Environment & Planning.gdb", "output_feature_class": "Water Management/JBR2HR_EN_WA_ReportingLocations_M260_BGE_7856_20250915", "ECMLink_alias": "ECM Objective Link", "FSource_alias": "Feature Source", "SourceDate_alias": "Source Date", "PlanAccur_alias": "Planimetric Accuracy", "id": 3, "Chainage": 600, "fme_feature_type": "Reporting_Locations", "multi_reader_full_id": 1, "multi_reader_id": 1, "multi_reader_keyword": "SHAPEFILE_2", "multi_reader_type": "SHAPEFILE", "shapefile_type": "shapefile_point" }, "geometry": { "type": "Point", "coordinates": [ 150.587509374152802, -34.989054533752842 ] } },
{ "type": "Feature", "properties": { "OBJECTID": 18, "Comments": "Flood Reporting Locations", "FSource": "BGE", "SourceDate": 20250915.0, "Supplier": "BGE", "output_gdb_path": "C:\\Users\\bri86955\\Mott MacDonald\\MGO - Moata Geospatial - JBR2HR\\02Data/GDA2020MGA56/Environment & Planning.gdb", "output_feature_class": "Water Management/JBR2HR_EN_WA_ReportingLocations_M260_BGE_7856_20250915", "ECMLink_alias": "ECM Objective Link", "FSource_alias": "Feature Source", "SourceDate_alias": "Source Date", "PlanAccur_alias": "Planimetric Accuracy", "id": 4, "Chainage": 1000, "fme_feature_type": "Reporting_Locations", "multi_reader_full_id": 1, "multi_reader_id": 1, "multi_reader_keyword": "SHAPEFILE_2", "multi_reader_type": "SHAPEFILE", "shapefile_type": "shapefile_point" }, "geometry": { "type": "Point", "coordinates": [ 150.583932614986509, -34.991990318106396 ] } },
{ "type": "Feature", "properties": { "OBJECTID": 19, "Comments": "Flood Reporting Locations", "FSource": "BGE", "SourceDate": 20250915.0, "Supplier": "BGE", "output_gdb_path": "C:\\Users\\bri86955\\Mott MacDonald\\MGO - Moata Geospatial - JBR2HR\\02Data/GDA2020MGA56/Environment & Planning.gdb", "output_feature_class": "Water Management/JBR2HR_EN_WA_ReportingLocations_M260_BGE_7856_20250915", "ECMLink_alias": "ECM Objective Link", "FSource_alias": "Feature Source", "SourceDate_alias": "Source Date", "PlanAccur_alias": "Planimetric Accuracy", "id": 9, "Chainage": 3500, "fme_feature_type": "Reporting_Locations", "multi_reader_full_id": 1, "multi_reader_id": 1, "multi_reader_keyword": "SHAPEFILE_2", "multi_reader_type": "SHAPEFILE", "shapefile_type": "shapefile_point" }, "geometry": { "type": "Point", "coordinates": [ 150.578262299030484, -35.014039206114191 ] } }
]
}
