{
  "type": "FeatureCollection",
  "name": "Landscape Character Areas",
  "crs": {
    "type": "name",
    "properties": { "name": "urn:ogc:def:crs:OGC:1.3:CRS84" }
  },
  "features": [
    {
      "type": "Feature",
      "properties": {
        "OBJECTID": 1,
        "Comments": "Converted from shapefile provided on 25/09/2025",
        "FSource": "SPMM delivered shapefile",
        "SourceDate": "25/09/2025",
        "Supplier": "SPMM",
        "output_gdb_path": "C:\\Users\\bri86955\\Mott MacDonald\\MGO - Moata Geospatial - JBR2HR\\02Data/GDA2020MGA56/Environment & Planning.gdb",
        "output_feature_class": "LandUseManagement/JBR2HR_EN_LD_LandscapeCharacterAreas_M260_SPMM_7856_20250925",
        "ECMLink_alias": "ECM Objective Link",
        "FSource_alias": "Feature Source",
        "SourceDate_alias": "Source Date",
        "PlanAccur_alias": "Planimetric Accuracy",
        "id": 0,
        "LCZ": "Rural Residential",
        "fme_feature_type": "SMM-LCZs",
        "multi_reader_full_id": 0,
        "multi_reader_id": 0,
        "multi_reader_keyword": "SHAPEFILE_1",
        "multi_reader_type": "SHAPEFILE",
        "shapefile_type": "shapefile_polygon",
        "SHAPE_Length": 3228.9237532187481,
        "SHAPE_Area": 616115.08732906345
      },
      "geometry": {
        "type": "MultiPolygon",
        "coordinates": [
          [
            [
              [150.578907700487235, -34.987835262660845],
              [150.585648031170308, -34.988762384853388],
              [150.585567370961797, -34.989076036434668],
              [150.584680587301847, -34.993130177793503],
              [150.583741237281345, -34.997568167895139],
              [150.577042414953041, -34.996643544415299],
              [150.578907700487235, -34.987835262660845]
            ]
          ]
        ]
      }
    },
    {
      "type": "Feature",
      "properties": {
        "OBJECTID": 2,
        "Comments": "Converted from shapefile provided on 25/09/2025",
        "FSource": "SPMM delivered shapefile",
        "SourceDate": "25/09/2025",
        "Supplier": "SPMM",
        "output_gdb_path": "C:\\Users\\bri86955\\Mott MacDonald\\MGO - Moata Geospatial - JBR2HR\\02Data/GDA2020MGA56/Environment & Planning.gdb",
        "output_feature_class": "LandUseManagement/JBR2HR_EN_LD_LandscapeCharacterAreas_M260_SPMM_7856_20250925",
        "ECMLink_alias": "ECM Objective Link",
        "FSource_alias": "Feature Source",
        "SourceDate_alias": "Source Date",
        "PlanAccur_alias": "Planimetric Accuracy",
        "id": 0,
        "LCZ": "Rural Residential",
        "fme_feature_type": "SMM-LCZs",
        "multi_reader_full_id": 0,
        "multi_reader_id": 0,
        "multi_reader_keyword": "SHAPEFILE_1",
        "multi_reader_type": "SHAPEFILE",
        "shapefile_type": "shapefile_polygon",
        "SHAPE_Length": 5091.5162364615953,
        "SHAPE_Area": 1200766.0455002668
      },
      "geometry": {
        "type": "MultiPolygon",
        "coordinates": [
          [
            [
              [150.586371374350165, -34.988793748051584],
              [150.59296173682111, -34.989705545152198],
              [150.589441317614302, -35.006740439540678],
              [150.582668913987334, -35.006010801401068],
              [150.584576987548502, -34.996654317997049],
              [150.585747244452222, -34.991273838866512],
              [150.586371374350165, -34.988793748051584]
            ]
          ]
        ]
      }
    },
    {
      "type": "Feature",
      "properties": {
        "OBJECTID": 3,
        "Comments": "Converted from shapefile provided on 25/09/2025",
        "FSource": "SPMM delivered shapefile",
        "SourceDate": "25/09/2025",
        "Supplier": "SPMM",
        "output_gdb_path": "C:\\Users\\bri86955\\Mott MacDonald\\MGO - Moata Geospatial - JBR2HR\\02Data/GDA2020MGA56/Environment & Planning.gdb",
        "output_feature_class": "LandUseManagement/JBR2HR_EN_LD_LandscapeCharacterAreas_M260_SPMM_7856_20250925",
        "ECMLink_alias": "ECM Objective Link",
        "FSource_alias": "Feature Source",
        "SourceDate_alias": "Source Date",
        "PlanAccur_alias": "Planimetric Accuracy",
        "id": 0,
        "LCZ": "Forested Land",
        "fme_feature_type": "SMM-LCZs",
        "multi_reader_full_id": 0,
        "multi_reader_id": 0,
        "multi_reader_keyword": "SHAPEFILE_1",
        "multi_reader_type": "SHAPEFILE",
        "shapefile_type": "shapefile_polygon",
        "SHAPE_Length": 2116.8216458374,
        "SHAPE_Area": 270270.32408646855
      },
      "geometry": {
        "type": "MultiPolygon",
        "coordinates": [
          [
            [
              [150.577001195972457, -34.99664466391922],
              [150.583741237281345, -34.997568167895139],
              [150.58298704935541, -35.001354882832736],
              [150.576144102528247, -35.000502912344956],
              [150.577001195972457, -34.99664466391922]
            ]
          ]
        ]
      }
    },
    {
      "type": "Feature",
      "properties": {
        "OBJECTID": 4,
        "Comments": "Converted from shapefile provided on 25/09/2025",
        "FSource": "SPMM delivered shapefile",
        "SourceDate": "25/09/2025",
        "Supplier": "SPMM",
        "output_gdb_path": "C:\\Users\\bri86955\\Mott MacDonald\\MGO - Moata Geospatial - JBR2HR\\02Data/GDA2020MGA56/Environment & Planning.gdb",
        "output_feature_class": "LandUseManagement/JBR2HR_EN_LD_LandscapeCharacterAreas_M260_SPMM_7856_20250925",
        "ECMLink_alias": "ECM Objective Link",
        "FSource_alias": "Feature Source",
        "SourceDate_alias": "Source Date",
        "PlanAccur_alias": "Planimetric Accuracy",
        "id": 0,
        "LCZ": "Rural Residential",
        "fme_feature_type": "SMM-LCZs",
        "multi_reader_full_id": 0,
        "multi_reader_id": 0,
        "multi_reader_keyword": "SHAPEFILE_1",
        "multi_reader_type": "SHAPEFILE",
        "shapefile_type": "shapefile_polygon",
        "SHAPE_Length": 2074.2599075022567,
        "SHAPE_Area": 256199.34644805404
      },
      "geometry": {
        "type": "MultiPolygon",
        "coordinates": [
          [
            [
              [150.576144102528247, -35.000502912344956],
              [150.58298704935541, -35.001354882832736],
              [150.582193191731534, -35.005063850773304],
              [150.575497714075965, -35.004102749911581],
              [150.575914220274655, -35.002099913160194],
              [150.576144102528247, -35.000502912344956]
            ]
          ]
        ]
      }
    },
    {
      "type": "Feature",
      "properties": {
        "OBJECTID": 5,
        "Comments": "Converted from shapefile provided on 25/09/2025",
        "FSource": "SPMM delivered shapefile",
        "SourceDate": "25/09/2025",
        "Supplier": "SPMM",
        "output_gdb_path": "C:\\Users\\bri86955\\Mott MacDonald\\MGO - Moata Geospatial - JBR2HR\\02Data/GDA2020MGA56/Environment & Planning.gdb",
        "output_feature_class": "LandUseManagement/JBR2HR_EN_LD_LandscapeCharacterAreas_M260_SPMM_7856_20250925",
        "ECMLink_alias": "ECM Objective Link",
        "FSource_alias": "Feature Source",
        "SourceDate_alias": "Source Date",
        "PlanAccur_alias": "Planimetric Accuracy",
        "id": 0,
        "LCZ": "Forested Land",
        "fme_feature_type": "SMM-LCZs",
        "multi_reader_full_id": 0,
        "multi_reader_id": 0,
        "multi_reader_keyword": "SHAPEFILE_1",
        "multi_reader_type": "SHAPEFILE",
        "shapefile_type": "shapefile_polygon",
        "SHAPE_Length": 2411.5786853576292,
        "SHAPE_Area": 362931.13023092615
      },
      "geometry": {
        "type": "MultiPolygon",
        "coordinates": [
          [
            [
              [150.575497714075965, -35.004102749911581],
              [150.582193504845009, -35.005062332633237],
              [150.581086380242823, -35.010349039760506],
              [150.574385562449805, -35.009156064887641],
              [150.575497714075965, -35.004102749911581]
            ]
          ]
        ]
      }
    },
    {
      "type": "Feature",
      "properties": {
        "OBJECTID": 6,
        "Comments": "Converted from shapefile provided on 25/09/2025",
        "FSource": "SPMM delivered shapefile",
        "SourceDate": "25/09/2025",
        "Supplier": "SPMM",
        "output_gdb_path": "C:\\Users\\bri86955\\Mott MacDonald\\MGO - Moata Geospatial - JBR2HR\\02Data/GDA2020MGA56/Environment & Planning.gdb",
        "output_feature_class": "LandUseManagement/JBR2HR_EN_LD_LandscapeCharacterAreas_M260_SPMM_7856_20250925",
        "ECMLink_alias": "ECM Objective Link",
        "FSource_alias": "Feature Source",
        "SourceDate_alias": "Source Date",
        "PlanAccur_alias": "Planimetric Accuracy",
        "id": 0,
        "LCZ": "Forested Land",
        "fme_feature_type": "SMM-LCZs",
        "multi_reader_full_id": 0,
        "multi_reader_id": 0,
        "multi_reader_keyword": "SHAPEFILE_1",
        "multi_reader_type": "SHAPEFILE",
        "shapefile_type": "shapefile_polygon",
        "SHAPE_Length": 2767.4432120623333,
        "SHAPE_Area": 417628.7629014923
      },
      "geometry": {
        "type": "MultiPolygon",
        "coordinates": [
          [
            [
              [150.582668913987334, -35.006010801401068],
              [150.589441317614302, -35.006740439540678],
              [150.588228349031567, -35.011956635779924],
              [150.584929001044372, -35.011531366797094],
              [150.583943859624242, -35.013319538580987],
              [150.581204449499552, -35.012915495298351],
              [150.582668913987334, -35.006010801401068]
            ]
          ]
        ]
      }
    },
    {
      "type": "Feature",
      "properties": {
        "OBJECTID": 7,
        "Comments": "Converted from shapefile provided on 25/09/2025",
        "FSource": "SPMM delivered shapefile",
        "SourceDate": "25/09/2025",
        "Supplier": "SPMM",
        "output_gdb_path": "C:\\Users\\bri86955\\Mott MacDonald\\MGO - Moata Geospatial - JBR2HR\\02Data/GDA2020MGA56/Environment & Planning.gdb",
        "output_feature_class": "LandUseManagement/JBR2HR_EN_LD_LandscapeCharacterAreas_M260_SPMM_7856_20250925",
        "ECMLink_alias": "ECM Objective Link",
        "FSource_alias": "Feature Source",
        "SourceDate_alias": "Source Date",
        "PlanAccur_alias": "Planimetric Accuracy",
        "id": 0,
        "LCZ": "Forested Land",
        "fme_feature_type": "SMM-LCZs",
        "multi_reader_full_id": 0,
        "multi_reader_id": 0,
        "multi_reader_keyword": "SHAPEFILE_1",
        "multi_reader_type": "SHAPEFILE",
        "shapefile_type": "shapefile_polygon",
        "SHAPE_Length": 1663.6394177249688,
        "SHAPE_Area": 135275.61232420389
      },
      "geometry": {
        "type": "MultiPolygon",
        "coordinates": [
          [
            [
              [150.58077088287331, -35.012031487425745],
              [150.573989971281122, -35.011027847996154],
              [150.574398476813002, -35.009096793100802],
              [150.578281032312077, -35.009591230405931],
              [150.581086380242823, -35.010349039760506],
              [150.58077088287331, -35.012031487425745]
            ]
          ]
        ]
      }
    },
    {
      "type": "Feature",
      "properties": {
        "OBJECTID": 8,
        "Comments": "Converted from shapefile provided on 25/09/2025",
        "FSource": "SPMM delivered shapefile",
        "SourceDate": "25/09/2025",
        "Supplier": "SPMM",
        "output_gdb_path": "C:\\Users\\bri86955\\Mott MacDonald\\MGO - Moata Geospatial - JBR2HR\\02Data/GDA2020MGA56/Environment & Planning.gdb",
        "output_feature_class": "LandUseManagement/JBR2HR_EN_LD_LandscapeCharacterAreas_M260_SPMM_7856_20250925",
        "ECMLink_alias": "ECM Objective Link",
        "FSource_alias": "Feature Source",
        "SourceDate_alias": "Source Date",
        "PlanAccur_alias": "Planimetric Accuracy",
        "id": 0,
        "LCZ": "Rural Residential",
        "fme_feature_type": "SMM-LCZs",
        "multi_reader_full_id": 0,
        "multi_reader_id": 0,
        "multi_reader_keyword": "SHAPEFILE_1",
        "multi_reader_type": "SHAPEFILE",
        "shapefile_type": "shapefile_polygon",
        "SHAPE_Length": 3720.4265276988981,
        "SHAPE_Area": 724286.75513748638
      },
      "geometry": {
        "type": "MultiPolygon",
        "coordinates": [
          [
            [
              [150.581208432520356, -35.012916048890233],
              [150.583943859624242, -35.013319538580987],
              [150.584929001044372, -35.011531366797094],
              [150.588228349031567, -35.011956635779924],
              [150.586035875148582, -35.023180929844905],
              [150.579227523658375, -35.022262479224828],
              [150.581208432520356, -35.012916048890233]
            ]
          ]
        ]
      }
    },
    {
      "type": "Feature",
      "properties": {
        "OBJECTID": 9,
        "Comments": "Converted from shapefile provided on 25/09/2025",
        "FSource": "SPMM delivered shapefile",
        "SourceDate": "25/09/2025",
        "Supplier": "SPMM",
        "output_gdb_path": "C:\\Users\\bri86955\\Mott MacDonald\\MGO - Moata Geospatial - JBR2HR\\02Data/GDA2020MGA56/Environment & Planning.gdb",
        "output_feature_class": "LandUseManagement/JBR2HR_EN_LD_LandscapeCharacterAreas_M260_SPMM_7856_20250925",
        "ECMLink_alias": "ECM Objective Link",
        "FSource_alias": "Feature Source",
        "SourceDate_alias": "Source Date",
        "PlanAccur_alias": "Planimetric Accuracy",
        "id": 0,
        "LCZ": "Forested Land",
        "fme_feature_type": "SMM-LCZs",
        "multi_reader_full_id": 0,
        "multi_reader_id": 0,
        "multi_reader_keyword": "SHAPEFILE_1",
        "multi_reader_type": "SHAPEFILE",
        "shapefile_type": "shapefile_polygon",
        "SHAPE_Length": 3395.1478313907955,
        "SHAPE_Area": 649689.21313690685
      },
      "geometry": {
        "type": "MultiPolygon",
        "coordinates": [
          [
            [
              [150.572624456151885, -35.017946415470114],
              [150.579479466225052, -35.018917355135436],
              [150.578177904539814, -35.024733346122829],
              [150.578145087294956, -35.025658760577635],
              [150.578475453394674, -35.027957788034492],
              [150.578637421697579, -35.028391118000428],
              [150.571501432259595, -35.027137998824159],
              [150.571419970392725, -35.025961964972751],
              [150.571466275500654, -35.024345660546366],
              [150.572107339227699, -35.020727228851392],
              [150.572624456151885, -35.017946415470114]
            ]
          ]
        ]
      }
    },
    {
      "type": "Feature",
      "properties": {
        "OBJECTID": 10,
        "Comments": "Converted from shapefile provided on 25/09/2025",
        "FSource": "SPMM delivered shapefile",
        "SourceDate": "25/09/2025",
        "Supplier": "SPMM",
        "output_gdb_path": "C:\\Users\\bri86955\\Mott MacDonald\\MGO - Moata Geospatial - JBR2HR\\02Data/GDA2020MGA56/Environment & Planning.gdb",
        "output_feature_class": "LandUseManagement/JBR2HR_EN_LD_LandscapeCharacterAreas_M260_SPMM_7856_20250925",
        "ECMLink_alias": "ECM Objective Link",
        "FSource_alias": "Feature Source",
        "SourceDate_alias": "Source Date",
        "PlanAccur_alias": "Planimetric Accuracy",
        "id": 0,
        "LCZ": "Forested Land",
        "fme_feature_type": "SMM-LCZs",
        "multi_reader_full_id": 0,
        "multi_reader_id": 0,
        "multi_reader_keyword": "SHAPEFILE_1",
        "multi_reader_type": "SHAPEFILE",
        "shapefile_type": "shapefile_polygon",
        "SHAPE_Length": 2051.7082113828101,
        "SHAPE_Area": 263002.07813401142
      },
      "geometry": {
        "type": "MultiPolygon",
        "coordinates": [
          [
            [
              [150.579227523658375, -35.022262479224828],
              [150.586035875148582, -35.023180929844905],
              [150.585732704369491, -35.024741056297486],
              [150.585664028358451, -35.025379270649708],
              [150.585721914135547, -35.026304860009766],
              [150.584171198771486, -35.02681989234987],
              [150.578870957221284, -35.026118938177483],
              [150.578857708970986, -35.025148112116028],
              [150.578967636682847, -35.023828191904514],
              [150.579067498276117, -35.022989376371569],
              [150.579227523658375, -35.022262479224828]
            ]
          ]
        ]
      }
    },
    {
      "type": "Feature",
      "properties": {
        "OBJECTID": 11,
        "Comments": "Converted from shapefile provided on 25/09/2025",
        "FSource": "SPMM delivered shapefile",
        "SourceDate": "25/09/2025",
        "Supplier": "SPMM",
        "output_gdb_path": "C:\\Users\\bri86955\\Mott MacDonald\\MGO - Moata Geospatial - JBR2HR\\02Data/GDA2020MGA56/Environment & Planning.gdb",
        "output_feature_class": "LandUseManagement/JBR2HR_EN_LD_LandscapeCharacterAreas_M260_SPMM_7856_20250925",
        "ECMLink_alias": "ECM Objective Link",
        "FSource_alias": "Feature Source",
        "SourceDate_alias": "Source Date",
        "PlanAccur_alias": "Planimetric Accuracy",
        "id": 0,
        "LCZ": "Forested Land",
        "fme_feature_type": "SMM-LCZs",
        "multi_reader_full_id": 0,
        "multi_reader_id": 0,
        "multi_reader_keyword": "SHAPEFILE_1",
        "multi_reader_type": "SHAPEFILE",
        "shapefile_type": "shapefile_polygon",
        "SHAPE_Length": 1300.6655592109091,
        "SHAPE_Area": 96305.487028576405
      },
      "geometry": {
        "type": "MultiPolygon",
        "coordinates": [
          [
            [
              [150.578870957221284, -35.026118938177483],
              [150.581319886422222, -35.026441457543939],
              [150.583285065216984, -35.029409548685813],
              [150.579792165991421, -35.02944527420572],
              [150.579385281057142, -35.028564222839336],
              [150.579208456734392, -35.027850893035527],
              [150.578976776296741, -35.027028440187429],
              [150.578870957221284, -35.026118938177483]
            ]
          ]
        ]
      }
    },
    {
      "type": "Feature",
      "properties": {
        "OBJECTID": 12,
        "Comments": "Converted from shapefile provided on 25/09/2025",
        "FSource": "SPMM delivered shapefile",
        "SourceDate": "25/09/2025",
        "Supplier": "SPMM",
        "output_gdb_path": "C:\\Users\\bri86955\\Mott MacDonald\\MGO - Moata Geospatial - JBR2HR\\02Data/GDA2020MGA56/Environment & Planning.gdb",
        "output_feature_class": "LandUseManagement/JBR2HR_EN_LD_LandscapeCharacterAreas_M260_SPMM_7856_20250925",
        "ECMLink_alias": "ECM Objective Link",
        "FSource_alias": "Feature Source",
        "SourceDate_alias": "Source Date",
        "PlanAccur_alias": "Planimetric Accuracy",
        "id": 0,
        "LCZ": "Rural Residential",
        "fme_feature_type": "SMM-LCZs",
        "multi_reader_full_id": 0,
        "multi_reader_id": 0,
        "multi_reader_keyword": "SHAPEFILE_1",
        "multi_reader_type": "SHAPEFILE",
        "shapefile_type": "shapefile_polygon",
        "SHAPE_Length": 2814.8505225762478,
        "SHAPE_Area": 489986.87681783235
      },
      "geometry": {
        "type": "MultiPolygon",
        "coordinates": [
          [
            [
              [150.573989971281122, -35.011027847996154],
              [150.58077088287331, -35.012031487425745],
              [150.579479466225052, -35.018917355135436],
              [150.572624456151885, -35.017946415470114],
              [150.573989971281122, -35.011027847996154]
            ]
          ]
        ]
      }
    },
    {
      "type": "Feature",
      "properties": {
        "OBJECTID": 13,
        "Comments": "Converted from shapefile provided on 25/09/2025",
        "FSource": "SPMM delivered shapefile",
        "SourceDate": "25/09/2025",
        "Supplier": "SPMM",
        "output_gdb_path": "C:\\Users\\bri86955\\Mott MacDonald\\MGO - Moata Geospatial - JBR2HR\\02Data/GDA2020MGA56/Environment & Planning.gdb",
        "output_feature_class": "LandUseManagement/JBR2HR_EN_LD_LandscapeCharacterAreas_M260_SPMM_7856_20250925",
        "ECMLink_alias": "ECM Objective Link",
        "FSource_alias": "Feature Source",
        "SourceDate_alias": "Source Date",
        "PlanAccur_alias": "Planimetric Accuracy",
        "id": 0,
        "LCZ": "Forested Land",
        "fme_feature_type": "SMM-LCZs",
        "multi_reader_full_id": 0,
        "multi_reader_id": 0,
        "multi_reader_keyword": "SHAPEFILE_1",
        "multi_reader_type": "SHAPEFILE",
        "shapefile_type": "shapefile_polygon",
        "SHAPE_Length": 549.00265572620151,
        "SHAPE_Area": 16528.614892195132
      },
      "geometry": {
        "type": "MultiPolygon",
        "coordinates": [
          [
            [
              [150.581439090001567, -35.031829730366979],
              [150.582238271591564, -35.031353616114416],
              [150.583495308949779, -35.032680550355586],
              [150.582684570198609, -35.033125688011083],
              [150.581439090001567, -35.031829730366979]
            ]
          ]
        ]
      }
    },
    {
      "type": "Feature",
      "properties": {
        "OBJECTID": 14,
        "Comments": "Converted from shapefile provided on 25/09/2025",
        "FSource": "SPMM delivered shapefile",
        "SourceDate": "25/09/2025",
        "Supplier": "SPMM",
        "output_gdb_path": "C:\\Users\\bri86955\\Mott MacDonald\\MGO - Moata Geospatial - JBR2HR\\02Data/GDA2020MGA56/Environment & Planning.gdb",
        "output_feature_class": "LandUseManagement/JBR2HR_EN_LD_LandscapeCharacterAreas_M260_SPMM_7856_20250925",
        "ECMLink_alias": "ECM Objective Link",
        "FSource_alias": "Feature Source",
        "SourceDate_alias": "Source Date",
        "PlanAccur_alias": "Planimetric Accuracy",
        "id": 0,
        "LCZ": "Forested Land",
        "fme_feature_type": "SMM-LCZs",
        "multi_reader_full_id": 0,
        "multi_reader_id": 0,
        "multi_reader_keyword": "SHAPEFILE_1",
        "multi_reader_type": "SHAPEFILE",
        "shapefile_type": "shapefile_polygon",
        "SHAPE_Length": 6508.8488506273407,
        "SHAPE_Area": 1329114.9410609838
      },
      "geometry": {
        "type": "MultiPolygon",
        "coordinates": [
          [
            [
              [150.583495308949779, -35.032680550355586],
              [150.582238271591564, -35.031353616114416],
              [150.581439090001567, -35.031829730366979],
              [150.580724712866669, -35.030968538011464],
              [150.580257588992794, -35.030235604297651],
              [150.579785187946186, -35.02944513495374],
              [150.583285065216984, -35.029409548685813],
              [150.581319886422222, -35.026441457543939],
              [150.5857135664331, -35.026264602086123],
              [150.586184589282993, -35.027558928316928],
              [150.586750849977022, -35.028441149208746],
              [150.587516839883307, -35.029294479651966],
              [150.588189779430309, -35.030081026139868],
              [150.588817256467252, -35.031143253644792],
              [150.589385154230115, -35.032100826364562],
              [150.589725998903987, -35.033142299889128],
              [150.590155362842467, -35.034464964035521],
              [150.590192358069515, -35.034785454219254],
              [150.590249950056318, -35.035277611263687],
              [150.590311590314599, -35.036909134355383],
              [150.590072616870913, -35.038160901007927],
              [150.589846964785892, -35.039326663256162],
              [150.588781713284789, -35.041612028107757],
              [150.587162289830417, -35.043665470220624],
              [150.585249761387132, -35.045516602252903],
              [150.584170537900803, -35.046339861739057],
              [150.577667846853217, -35.04573670084315],
              [150.577893501826622, -35.044981981133418],
              [150.57821290358703, -35.044155923769495],
              [150.578873667640295, -35.04319719048781],
              [150.580487347098597, -35.041858202299665],
              [150.58169498372726, -35.040687756604576],
              [150.582452319667766, -35.040105589137454],
              [150.583743793840767, -35.038631091538882],
              [150.584106260760677, -35.037961746253785],
              [150.58441710624453, -35.036717314143317],
              [150.584476479896068, -35.036102878390331],
              [150.584301657688684, -35.035163291963485],
              [150.583824072052096, -35.034309561471751],
              [150.582684570198609, -35.033125688011083],
              [150.583495308949779, -35.032680550355586]
            ]
          ]
        ]
      }
    },
    {
      "type": "Feature",
      "properties": {
        "OBJECTID": 15,
        "Comments": "Converted from shapefile provided on 25/09/2025",
        "FSource": "SPMM delivered shapefile",
        "SourceDate": "25/09/2025",
        "Supplier": "SPMM",
        "output_gdb_path": "C:\\Users\\bri86955\\Mott MacDonald\\MGO - Moata Geospatial - JBR2HR\\02Data/GDA2020MGA56/Environment & Planning.gdb",
        "output_feature_class": "LandUseManagement/JBR2HR_EN_LD_LandscapeCharacterAreas_M260_SPMM_7856_20250925",
        "ECMLink_alias": "ECM Objective Link",
        "FSource_alias": "Feature Source",
        "SourceDate_alias": "Source Date",
        "PlanAccur_alias": "Planimetric Accuracy",
        "id": 0,
        "LCZ": "Forested Land",
        "fme_feature_type": "SMM-LCZs",
        "multi_reader_full_id": 0,
        "multi_reader_id": 0,
        "multi_reader_keyword": "SHAPEFILE_1",
        "multi_reader_type": "SHAPEFILE",
        "shapefile_type": "shapefile_polygon",
        "SHAPE_Length": 5610.9449682403483,
        "SHAPE_Area": 1348972.0910665959
      },
      "geometry": {
        "type": "MultiPolygon",
        "coordinates": [
          [
            [
              [150.581105368622644, -35.03252288320855],
              [150.582247493487017, -35.03357827100524],
              [150.583026932871036, -35.034618909606657],
              [150.583475208531979, -35.035478677566267],
              [150.583606120458654, -35.036637171268616],
              [150.58323944856491, -35.037858863293806],
              [150.582427356061032, -35.038911440442384],
              [150.581566913475029, -35.039505967088324],
              [150.580069086774785, -35.040823026928408],
              [150.579204071539493, -35.041487132093003],
              [150.577743991542036, -35.043176967677638],
              [150.577413758650664, -35.043669726691313],
              [150.577248731430728, -35.043831884557243],
              [150.576880226472412, -35.045686505407723],
              [150.571192598388677, -35.045200166249096],
              [150.572231166745524, -35.040717220960033],
              [150.574028738626993, -35.03829935576632],
              [150.574939508686668, -35.037358309042446],
              [150.575481997324857, -35.036253114743779],
              [150.57493245524455, -35.034980408685186],
              [150.574425683540028, -35.034313475141097],
              [150.573812185537207, -35.033375244307429],
              [150.57333658262786, -35.032622094037166],
              [150.572865294703917, -35.031709760867209],
              [150.572433517179064, -35.030693615769977],
              [150.57201800516728, -35.029573924855939],
              [150.571656984753844, -35.028152997797655],
              [150.571501432259595, -35.027137998824159],
              [150.578637421697579, -35.028391118000428],
              [150.579327094692161, -35.030169713147494],
              [150.580482138003049, -35.031738885013958],
              [150.581105368622644, -35.03252288320855]
            ]
          ]
        ]
      }
    },
    {
      "type": "Feature",
      "properties": {
        "OBJECTID": 16,
        "Comments": "Converted from shapefile provided on 25/09/2025",
        "FSource": "SPMM delivered shapefile",
        "SourceDate": "25/09/2025",
        "Supplier": "SPMM",
        "output_gdb_path": "C:\\Users\\bri86955\\Mott MacDonald\\MGO - Moata Geospatial - JBR2HR\\02Data/GDA2020MGA56/Environment & Planning.gdb",
        "output_feature_class": "LandUseManagement/JBR2HR_EN_LD_LandscapeCharacterAreas_M260_SPMM_7856_20250925",
        "ECMLink_alias": "ECM Objective Link",
        "FSource_alias": "Feature Source",
        "SourceDate_alias": "Source Date",
        "PlanAccur_alias": "Planimetric Accuracy",
        "id": 0,
        "LCZ": "Road Infrastructure",
        "fme_feature_type": "SMM-LCZs",
        "multi_reader_full_id": 0,
        "multi_reader_id": 0,
        "multi_reader_keyword": "SHAPEFILE_1",
        "multi_reader_type": "SHAPEFILE",
        "shapefile_type": "shapefile_polygon",
        "SHAPE_Length": 3131.6932796712008,
        "SHAPE_Area": 579198.40409917815
      },
      "geometry": {
        "type": "MultiPolygon",
        "coordinates": [
          [
            [
              [150.585648031170308, -34.988762384853388],
              [150.578907700487235, -34.987835262660845],
              [150.579133750424802, -34.98676765471572],
              [150.580533822503639, -34.980090688007763],
              [150.588557807908785, -34.981105443743999],
              [150.587221362415363, -34.983533957542122],
              [150.586832989881998, -34.984499799580377],
              [150.586645462834497, -34.985096948838709],
              [150.586176652209076, -34.986864178263822],
              [150.58601371673717, -34.987389362392953],
              [150.585973224223295, -34.98755359973125],
              [150.585874466076319, -34.987827299923083],
              [150.585845083106989, -34.987996133957587],
              [150.585648031170308, -34.988762384853388]
            ]
          ]
        ]
      }
    },
    {
      "type": "Feature",
      "properties": {
        "OBJECTID": 17,
        "Comments": "Converted from shapefile provided on 25/09/2025",
        "FSource": "SPMM delivered shapefile",
        "SourceDate": "25/09/2025",
        "Supplier": "SPMM",
        "output_gdb_path": "C:\\Users\\bri86955\\Mott MacDonald\\MGO - Moata Geospatial - JBR2HR\\02Data/GDA2020MGA56/Environment & Planning.gdb",
        "output_feature_class": "LandUseManagement/JBR2HR_EN_LD_LandscapeCharacterAreas_M260_SPMM_7856_20250925",
        "ECMLink_alias": "ECM Objective Link",
        "FSource_alias": "Feature Source",
        "SourceDate_alias": "Source Date",
        "PlanAccur_alias": "Planimetric Accuracy",
        "id": 0,
        "LCZ": "Road Infrastructure",
        "fme_feature_type": "SMM-LCZs",
        "multi_reader_full_id": 0,
        "multi_reader_id": 0,
        "multi_reader_keyword": "SHAPEFILE_1",
        "multi_reader_type": "SHAPEFILE",
        "shapefile_type": "shapefile_polygon",
        "SHAPE_Length": 2873.6506742602933,
        "SHAPE_Area": 499508.3435753333
      },
      "geometry": {
        "type": "MultiPolygon",
        "coordinates": [
          [
            [
              [150.59296173682111, -34.989705545152198],
              [150.586371374350165, -34.988793748051584],
              [150.587084984873968, -34.985957877086129],
              [150.589204449538016, -34.981152154461924],
              [150.594572077973595, -34.981910535038217],
              [150.59296173682111, -34.989705545152198]
            ]
          ]
        ]
      }
    }
  ]
}
