{
"type": "FeatureCollection",
"name": "Basins 2209",
"crs": { "type": "name", "properties": { "name": "urn:ogc:def:crs:EPSG::7856" } },
"features": [
{ "type": "Feature", "properties": { "OBJECTID": 1, "Discipline": "UT", "SubDiscipline": "UD", "FSource": "PHUP-MRBJV-JBR2HR-SD-M2D-000002-DRAINAGE.dwg", "Comments": "Converted from \"PHUP-MRBJV-JBR2HR-SD-M2D-000002-DRAINAGE.dwg\" using FME workbench.", "ECMLink": null, "SourceDate": "20250922", "PlanAccur": "", "Supplier": "BENG", "LineWt": null, "HatchName": "GRASS", "Layer": "D DETENTION BASIN HATCH", "Text": null, "LineType": null, "Thickness": "0", "Color": "94", "_source_file_name": null, "_download_path": null, "Last_Updated": null, "_rootname": "PHUP-MRBJV-JBR2HR-SD-M2D-000002-DRAINAGE", "fme_rejection_code": null, "LayerColor": null, "_issues___count": null, "_issues___issue_found": null, "_issues___location_sample_x": null, "_issues___location_sample_y": null, "_issues___location_sample_z": null, "SHAPE_Length": 153.97335470511698, "SHAPE_Area": 1580.1223555317408 }, "geometry": { "type": "MultiPolygon", "coordinates": [ [ [ [ 279615.624499999918044, 6125660.647300000302494 ], [ 279614.754499999806285, 6125655.723600000143051 ], [ 279613.884399999864399, 6125650.7999 ], [ 279613.014399999752641, 6125645.876199999824166 ], [ 279612.144399999640882, 6125640.952399999834597 ], [ 279611.274299999698997, 6125636.028699999675155 ], [ 279610.404299999587238, 6125631.105000000447035 ], [ 279609.534300000406802, 6125626.181300000287592 ], [ 279609.012199999764562, 6125623.227 ], [ 279608.990799999795854, 6125623.113599999807775 ], [ 279608.966699999757111, 6125623.00069999974221 ], [ 279608.939799999818206, 6125622.888399999588728 ], [ 279608.902599999681115, 6125622.748999999836087 ], [ 279608.861200000159442, 6125622.6107 ], [ 279608.815700000151992, 6125622.473799999803305 ], [ 279608.766099999658763, 6125622.3383 ], [ 279608.712600000202656, 6125622.204300000332296 ], [ 279608.65500000026077, 6125622.071899999864399 ], [ 279608.59360000025481, 6125621.9413 ], [ 279608.528300000354648, 6125621.812599999830127 ], [ 279608.45920000039041, 6125621.6859 ], [ 279608.386400000192225, 6125621.5614 ], [ 279608.309899999760091, 6125621.439000000245869 ], [ 279608.229700000025332, 6125621.31900000013411 ], [ 279608.146099999547005, 6125621.201399999670684 ], [ 279608.059000000357628, 6125621.08629999961704 ], [ 279607.968500000424683, 6125620.973899999633431 ], [ 279607.874699999578297, 6125620.864299999549985 ], [ 279607.777599999681115, 6125620.757500000298023 ], [ 279607.677500000223517, 6125620.653599999845028 ], [ 279607.574300000444055, 6125620.552699999883771 ], [ 279607.468100000172853, 6125620.455 ], [ 279607.3591, 6125620.360399999655783 ], [ 279607.247299999929965, 6125620.2692 ], [ 279607.132799999788404, 6125620.181300000287592 ], [ 279607.015800000168383, 6125620.096800000406802 ], [ 279606.896300000138581, 6125620.0159 ], [ 279606.774400000460446, 6125619.9386 ], [ 279606.650399999693036, 6125619.864900000393391 ], [ 279606.524100000038743, 6125619.795 ], [ 279606.395899999886751, 6125619.728799999691546 ], [ 279606.265700000338256, 6125619.666500000283122 ], [ 279606.133799999952316, 6125619.608099999837577 ], [ 279606.000099999830127, 6125619.553600000217557 ], [ 279605.864900000393391, 6125619.503200000151992 ], [ 279605.72829999960959, 6125619.4567 ], [ 279605.590300000272691, 6125619.41440000012517 ], [ 279605.451200000010431, 6125619.376199999824166 ], [ 279605.310899999924004, 6125619.342199999839067 ], [ 279605.169700000435114, 6125619.312300000339746 ], [ 279605.027700000442564, 6125619.2867 ], [ 279604.884999999776483, 6125619.2653 ], [ 279604.74170000012964, 6125619.248100000433624 ], [ 279604.598000000230968, 6125619.2352 ], [ 279604.453900000080466, 6125619.226599999703467 ], [ 279604.309700000099838, 6125619.222299999557436 ], [ 279604.165400000289083, 6125619.222299999557436 ], [ 279604.021099999547005, 6125619.226599999703467 ], [ 279603.877100000157952, 6125619.2352 ], [ 279603.733300000429153, 6125619.248100000433624 ], [ 279603.60149999987334, 6125619.2637 ], [ 279603.470099999569356, 6125619.2829 ], [ 279603.339300000108778, 6125619.305700000375509 ], [ 279599.071600000374019, 6125620.109899999573827 ], [ 279594.158099999651313, 6125621.035699999891222 ], [ 279589.244599999859929, 6125621.9616 ], [ 279584.331000000238419, 6125622.887500000186265 ], [ 279581.413200000301003, 6125623.437400000169873 ], [ 279581.293899999931455, 6125623.461400000378489 ], [ 279581.175300000235438, 6125623.488400000147521 ], [ 279581.057400000281632, 6125623.518400000408292 ], [ 279580.918499999679625, 6125623.557799999602139 ], [ 279580.780899999663234, 6125623.601300000213087 ], [ 279580.644700000062585, 6125623.64879999961704 ], [ 279580.509899999946356, 6125623.700400000438094 ], [ 279580.376699999906123, 6125623.756 ], [ 279580.245299999602139, 6125623.815600000321865 ], [ 279580.115699999965727, 6125623.878999999724329 ], [ 279579.987999999895692, 6125623.94620000012219 ], [ 279579.862300000153482, 6125624.017300000414252 ], [ 279579.738900000229478, 6125624.092000000178814 ], [ 279579.617700000293553, 6125624.170300000347197 ], [ 279579.4989, 6125624.252299999818206 ], [ 279579.38260000012815, 6125624.3377 ], [ 279579.268899999558926, 6125624.426599999889731 ], [ 279579.1579, 6125624.518799999728799 ], [ 279579.049700000323355, 6125624.614199999719858 ], [ 279578.944299999624491, 6125624.712899999693036 ], [ 279578.842000000178814, 6125624.814600000157952 ], [ 279578.742700000293553, 6125624.919300000183284 ], [ 279578.646599999628961, 6125625.026999999769032 ], [ 279578.553700000047684, 6125625.137400000356138 ], [ 279578.464200000278652, 6125625.2506 ], [ 279578.377999999560416, 6125625.366399999707937 ], [ 279578.295400000177324, 6125625.4847 ], [ 279578.216300000436604, 6125625.605399999767542 ], [ 279578.140800000168383, 6125625.728400000371039 ], [ 279578.06900000013411, 6125625.8536 ], [ 279578.001000000163913, 6125625.980899999849498 ], [ 279577.93680000025779, 6125626.110100000165403 ], [ 279577.876500000245869, 6125626.2412 ], [ 279577.82010000012815, 6125626.373999999836087 ], [ 279577.767699999734759, 6125626.508500000461936 ], [ 279577.7193, 6125626.644399999640882 ], [ 279577.674899999983609, 6125626.7818 ], [ 279577.634700000286102, 6125626.920300000347197 ], [ 279577.598600000143051, 6125627.060100000351667 ], [ 279577.566700000315905, 6125627.200799999758601 ], [ 279577.53899999987334, 6125627.342400000430644 ], [ 279577.51549999974668, 6125627.4847999997437 ], [ 279577.496299999766052, 6125627.6278 ], [ 279577.481300000101328, 6125627.7714 ], [ 279577.470599999651313, 6125627.915300000458956 ], [ 279577.464200000278652, 6125628.059500000439584 ], [ 279577.462100000120699, 6125628.20380000025034 ], [ 279577.464300000108778, 6125628.3481 ], [ 279577.466699999757111, 6125628.412899999879301 ], [ 279577.469899999909103, 6125628.477699999697506 ], [ 279577.474100000225008, 6125628.542500000447035 ], [ 279577.501600000075996, 6125628.934600000269711 ], [ 279577.85219999961555, 6125633.9222999997437 ], [ 279578.202800000086427, 6125638.910000000149012 ], [ 279578.553399999625981, 6125643.897699999623001 ], [ 279578.904000000096858, 6125648.8854 ], [ 279579.254599999636412, 6125653.872999999672174 ], [ 279579.605200000107288, 6125658.8607 ], [ 279579.955799999646842, 6125663.848399999551475 ], [ 279580.068500000052154, 6125665.451399999670684 ], [ 279580.0773, 6125665.559299999848008 ], [ 279580.088499999605119, 6125665.667000000365078 ], [ 279580.102099999785423, 6125665.774500000290573 ], [ 279580.123999999836087, 6125665.917100000195205 ], [ 279580.150100000202656, 6125666.059000000357628 ], [ 279580.180399999953806, 6125666.2001 ], [ 279580.214800000190735, 6125666.340200000442564 ], [ 279580.253499999642372, 6125666.479299999773502 ], [ 279580.296299999579787, 6125666.61710000038147 ], [ 279580.343100000172853, 6125666.753600000403821 ], [ 279580.394000000320375, 6125666.8887 ], [ 279580.448900000192225, 6125667.022099999710917 ], [ 279580.507699999958277, 6125667.153900000266731 ], [ 279580.57039999961853, 6125667.283900000154972 ], [ 279580.637000000104308, 6125667.411899999715388 ], [ 279580.707299999892712, 6125667.537899999879301 ], [ 279580.78139999974519, 6125667.661799999885261 ], [ 279580.8591, 6125667.783300000242889 ], [ 279580.940399999730289, 6125667.902599999681115 ], [ 279581.025200000032783, 6125668.019299999810755 ], [ 279581.113499999977648, 6125668.133500000461936 ], [ 279581.205099999904633, 6125668.245000000111759 ], [ 279581.299999999813735, 6125668.353699999861419 ], [ 279581.39809999987483, 6125668.459599999710917 ], [ 279581.49930000025779, 6125668.5625 ], [ 279581.603500000201166, 6125668.6623 ], [ 279581.71059999987483, 6125668.75899999961257 ], [ 279581.82050000037998, 6125668.8525 ], [ 279581.933199999853969, 6125668.942599999718368 ], [ 279582.048600000329316, 6125669.029400000348687 ], [ 279582.166400000452995, 6125669.112700000405312 ], [ 279582.286700000055134, 6125669.1924 ], [ 279582.409300000406802, 6125669.268500000238419 ], [ 279582.534099999815226, 6125669.341 ], [ 279582.661000000312924, 6125669.409699999727309 ], [ 279582.789900000207126, 6125669.474499999545515 ], [ 279582.920699999667704, 6125669.5356 ], [ 279583.053199999965727, 6125669.5927 ], [ 279583.187400000169873, 6125669.6458 ], [ 279583.323099999688566, 6125669.694899999536574 ], [ 279583.460199999623001, 6125669.740000000223517 ], [ 279583.598600000143051, 6125669.781000000424683 ], [ 279583.738099999725819, 6125669.817800000309944 ], [ 279583.878700000233948, 6125669.850399999879301 ], [ 279584.020100000314415, 6125669.878899999894202 ], [ 279584.162399999797344, 6125669.903099999763072 ], [ 279584.30530000012368, 6125669.923100000247359 ], [ 279584.448800000362098, 6125669.938900000415742 ], [ 279584.592600000090897, 6125669.950299999676645 ], [ 279584.736700000241399, 6125669.957499999552965 ], [ 279584.881000000052154, 6125669.960400000214577 ], [ 279585.025299999862909, 6125669.9589 ], [ 279585.169499999843538, 6125669.953200000338256 ], [ 279585.313500000163913, 6125669.943199999630451 ], [ 279585.401100000366569, 6125669.934999999590218 ], [ 279585.488499999977648, 6125669.925300000235438 ], [ 279585.575699999928474, 6125669.9139 ], [ 279585.85190000012517, 6125669.875300000421703 ], [ 279590.803999999538064, 6125669.184299999848008 ], [ 279595.756000000052154, 6125668.493300000205636 ], [ 279600.707999999634922, 6125667.802299999631941 ], [ 279605.660000000149012, 6125667.111200000159442 ], [ 279610.611999999731779, 6125666.420199999585748 ], [ 279611.519600000232458, 6125666.293600000441074 ], [ 279611.622000000439584, 6125666.278199999593198 ], [ 279611.723899999633431, 6125666.260599999688566 ], [ 279611.825500000268221, 6125666.240799999795854 ], [ 279611.966400000266731, 6125666.209699999541044 ], [ 279612.106300000101328, 6125666.1744 ], [ 279612.245099999941885, 6125666.1349 ], [ 279612.382699999958277, 6125666.091300000436604 ], [ 279612.518899999558926, 6125666.043600000441074 ], [ 279612.653699999675155, 6125665.991899999789894 ], [ 279612.786799999885261, 6125665.936300000175834 ], [ 279612.918200000189245, 6125665.8766 ], [ 279613.047799999825656, 6125665.8131 ], [ 279613.175400000065565, 6125665.745799999684095 ], [ 279613.300999999977648, 6125665.674700000323355 ], [ 279613.424399999901652, 6125665.599899999797344 ], [ 279613.545599999837577, 6125665.521499999798834 ], [ 279613.664300000295043, 6125665.439500000327826 ], [ 279613.780500000342727, 6125665.353900000452995 ], [ 279613.894199999980628, 6125665.264999999664724 ], [ 279614.005199999548495, 6125665.1727 ], [ 279614.113300000317395, 6125665.077200000174344 ], [ 279614.21860000025481, 6125664.978500000201166 ], [ 279614.320899999700487, 6125664.8767 ], [ 279614.420099999755621, 6125664.7719 ], [ 279614.516099999658763, 6125664.664200000464916 ], [ 279614.608900000341237, 6125664.5537 ], [ 279614.698400000110269, 6125664.440399999730289 ], [ 279614.784500000067055, 6125664.3246 ], [ 279614.86699999962002, 6125664.206199999898672 ], [ 279614.946000000461936, 6125664.0855 ], [ 279615.021399999968708, 6125663.96239999961108 ], [ 279615.093100000172853, 6125663.8372 ], [ 279615.161100000143051, 6125663.70990000013262 ], [ 279615.225200000219047, 6125663.5806 ], [ 279615.285400000400841, 6125663.449500000104308 ], [ 279615.341699999757111, 6125663.316599999554455 ], [ 279615.394100000150502, 6125663.182099999859929 ], [ 279615.442400000058115, 6125663.0461 ], [ 279615.486600000411272, 6125662.908800000324845 ], [ 279615.526700000278652, 6125662.770100000314415 ], [ 279615.562699999660254, 6125662.630400000140071 ], [ 279615.594600000418723, 6125662.4896 ], [ 279615.622200000099838, 6125662.348000000230968 ], [ 279615.645600000396371, 6125662.2056 ], [ 279615.66469999961555, 6125662.0625 ], [ 279615.67960000038147, 6125661.918999999761581 ], [ 279615.690200000070035, 6125661.775100000202656 ], [ 279615.69649999961257, 6125661.630900000222027 ], [ 279615.698499999940395, 6125661.486600000411272 ], [ 279615.69620000012219, 6125661.342299999669194 ], [ 279615.689600000157952, 6125661.198200000450015 ], [ 279615.67879999987781, 6125661.0543 ], [ 279615.663599999621511, 6125660.910799999721348 ], [ 279615.644199999980628, 6125660.767799999564886 ], [ 279615.638000000268221, 6125660.72759999986738 ], [ 279615.631400000303984, 6125660.6875 ], [ 279615.624499999918044, 6125660.64740000013262 ], [ 279615.624499999918044, 6125660.64740000013262 ], [ 279615.624499999918044, 6125660.647300000302494 ], [ 279615.624499999918044, 6125660.647300000302494 ] ] ] ] } },
{ "type": "Feature", "properties": { "OBJECTID": 2, "Discipline": "UT", "SubDiscipline": "UD", "FSource": "PHUP-MRBJV-JBR2HR-SD-M2D-000002-DRAINAGE.dwg", "Comments": "Converted from \"PHUP-MRBJV-JBR2HR-SD-M2D-000002-DRAINAGE.dwg\" using FME workbench.", "ECMLink": null, "SourceDate": "20250922", "PlanAccur": "", "Supplier": "BENG", "LineWt": null, "HatchName": "GRASS", "Layer": "D DETENTION BASIN HATCH", "Text": null, "LineType": null, "Thickness": "0", "Color": "94", "_source_file_name": null, "_download_path": null, "Last_Updated": null, "_rootname": "PHUP-MRBJV-JBR2HR-SD-M2D-000002-DRAINAGE", "fme_rejection_code": null, "LayerColor": null, "_issues___count": null, "_issues___issue_found": null, "_issues___location_sample_x": null, "_issues___location_sample_y": null, "_issues___location_sample_z": null, "SHAPE_Length": 126.32134492339277, "SHAPE_Area": 777.3087380388306 }, "geometry": { "type": "MultiPolygon", "coordinates": [ [ [ [ 279205.168800000101328, 6122599.884399999864399 ], [ 279204.41469999961555, 6122594.941599999554455 ], [ 279203.660500000230968, 6122589.998800000175834 ], [ 279202.90639999974519, 6122585.05599999986589 ], [ 279202.152300000190735, 6122580.113199999555945 ], [ 279201.398199999704957, 6122575.170400000177324 ], [ 279200.644100000150502, 6122570.22759999986738 ], [ 279199.889999999664724, 6122565.284799999557436 ], [ 279199.135800000280142, 6122560.342000000178814 ], [ 279198.83420000039041, 6122558.364900000393391 ], [ 279198.822300000116229, 6122558.291799999773502 ], [ 279198.809100000187755, 6122558.21889999974519 ], [ 279198.794599999673665, 6122558.146300000138581 ], [ 279198.752399999648333, 6122557.966099999845028 ], [ 279198.701899999752641, 6122557.787999999709427 ], [ 279198.643199999816716, 6122557.6124 ], [ 279198.576399999670684, 6122557.4397 ], [ 279198.501699999906123, 6122557.2703 ], [ 279198.419200000353158, 6122557.104600000195205 ], [ 279198.329199999570847, 6122556.942800000309944 ], [ 279198.231800000183284, 6122556.785400000400841 ], [ 279198.127199999988079, 6122556.6327 ], [ 279198.015599999576807, 6122556.485000000335276 ], [ 279197.89740000013262, 6122556.34250000026077 ], [ 279197.772599999792874, 6122556.205799999646842 ], [ 279197.641699999570847, 6122556.074900000356138 ], [ 279197.504800000227988, 6122555.950199999846518 ], [ 279197.362399999983609, 6122555.832000000402331 ], [ 279197.214599999599159, 6122555.720499999821186 ], [ 279197.06180000025779, 6122555.61600000038743 ], [ 279196.904299999587238, 6122555.518699999898672 ], [ 279196.742499999701977, 6122555.4287 ], [ 279196.576700000092387, 6122555.346400000154972 ], [ 279196.407300000078976, 6122555.271800000220537 ], [ 279196.234600000083447, 6122555.2051 ], [ 279196.059000000357628, 6122555.146499999798834 ], [ 279195.880900000222027, 6122555.096099999733269 ], [ 279195.700600000098348, 6122555.053899999707937 ], [ 279195.518600000068545, 6122555.020200000144541 ], [ 279195.335199999623001, 6122554.994900000281632 ], [ 279195.284099999815226, 6122554.989400000311434 ], [ 279195.233, 6122554.9846 ], [ 279195.181800000369549, 6122554.980399999767542 ], [ 279192.565600000321865, 6122554.782999999821186 ], [ 279187.579800000414252, 6122554.4068 ], [ 279187.509100000374019, 6122554.401499999687076 ], [ 279187.347799999639392, 6122554.3926 ], [ 279187.186300000175834, 6122554.3902000002563 ], [ 279187.02489999961108, 6122554.394299999810755 ], [ 279186.840200000442564, 6122554.407100000418723 ], [ 279186.656299999915063, 6122554.428399999625981 ], [ 279186.473600000143051, 6122554.458200000226498 ], [ 279186.292500000447035, 6122554.496399999596179 ], [ 279186.113300000317395, 6122554.542999999597669 ], [ 279185.936499999836087, 6122554.597799999639392 ], [ 279185.762400000356138, 6122554.660699999891222 ], [ 279185.591400000266731, 6122554.731599999591708 ], [ 279185.423799999989569, 6122554.8103 ], [ 279185.260099999606609, 6122554.89670000039041 ], [ 279185.100599999539554, 6122554.990600000135601 ], [ 279184.94550000037998, 6122555.091799999587238 ], [ 279184.795400000177324, 6122555.2001 ], [ 279184.650399999693036, 6122555.3152 ], [ 279184.510800000280142, 6122555.43680000025779 ], [ 279184.377100000157952, 6122555.564799999818206 ], [ 279184.249400000087917, 6122555.698900000192225 ], [ 279184.128100000321865, 6122555.838700000196695 ], [ 279184.013399999588728, 6122555.984000000171363 ], [ 279183.905500000342727, 6122556.134399999864399 ], [ 279183.804700000211596, 6122556.28969999961555 ], [ 279183.711099999956787, 6122556.449400000274181 ], [ 279183.625099999830127, 6122556.613400000147521 ], [ 279183.546799999661744, 6122556.78110000025481 ], [ 279183.476300000213087, 6122556.9523 ], [ 279183.413800000213087, 6122557.126500000245869 ], [ 279183.359400000423193, 6122557.30350000038743 ], [ 279183.313299999572337, 6122557.482800000347197 ], [ 279183.275500000454485, 6122557.66399999987334 ], [ 279183.246199999935925, 6122557.846800000406802 ], [ 279183.225300000049174, 6122558.0307 ], [ 279183.213000000454485, 6122558.215400000102818 ], [ 279183.20920000039041, 6122558.400500000454485 ], [ 279183.213999999687076, 6122558.58559999987483 ], [ 279183.227400000207126, 6122558.770200000144541 ], [ 279183.24930000025779, 6122558.954 ], [ 279183.251199999824166, 6122558.966799999587238 ], [ 279183.252999999560416, 6122558.979500000365078 ], [ 279183.254999999888241, 6122558.9923 ], [ 279183.668100000359118, 6122561.7001 ], [ 279184.422199999913573, 6122566.642900000326335 ], [ 279185.176300000399351, 6122571.585699999704957 ], [ 279185.930399999953806, 6122576.5285 ], [ 279186.684600000269711, 6122581.471300000324845 ], [ 279187.438699999824166, 6122586.414099999703467 ], [ 279188.192800000309944, 6122591.3569 ], [ 279188.946899999864399, 6122596.299700000323355 ], [ 279189.701000000350177, 6122601.242499999701977 ], [ 279189.891200000420213, 6122602.489 ], [ 279189.913900000043213, 6122602.6223 ], [ 279189.940999999642372, 6122602.754700000397861 ], [ 279189.972599999979138, 6122602.886199999600649 ], [ 279190.02309999987483, 6122603.064299999736249 ], [ 279190.081699999980628, 6122603.239900000393391 ], [ 279190.148400000296533, 6122603.41260000038892 ], [ 279190.223000000230968, 6122603.582000000402331 ], [ 279190.305399999953806, 6122603.7478 ], [ 279190.395299999974668, 6122603.909599999897182 ], [ 279190.492700000293553, 6122604.066999999806285 ], [ 279190.597199999727309, 6122604.2198 ], [ 279190.708700000308454, 6122604.367600000463426 ], [ 279190.826999999582767, 6122604.510099999606609 ], [ 279190.95160000026226, 6122604.6469 ], [ 279191.082499999552965, 6122604.777800000272691 ], [ 279191.2193, 6122604.902499999850988 ], [ 279191.361700000241399, 6122605.0208 ], [ 279191.509499999694526, 6122605.132299999706447 ], [ 279191.662200000137091, 6122605.2369 ], [ 279191.81969999987632, 6122605.334300000220537 ], [ 279191.981399999931455, 6122605.4243 ], [ 279192.147199999541044, 6122605.506799999624491 ], [ 279192.316599999554455, 6122605.581399999558926 ], [ 279192.489299999549985, 6122605.648199999704957 ], [ 279192.664800000376999, 6122605.706899999640882 ], [ 279192.842899999581277, 6122605.757399999536574 ], [ 279193.023199999704957, 6122605.799599999561906 ], [ 279193.205199999734759, 6122605.833399999886751 ], [ 279193.388600000180304, 6122605.85869999974966 ], [ 279193.572900000028312, 6122605.8756 ], [ 279193.75789999961853, 6122605.883899999782443 ], [ 279193.942999999970198, 6122605.883600000292063 ], [ 279194.127899999730289, 6122605.874800000339746 ], [ 279194.282599999569356, 6122605.8607 ], [ 279194.436599999666214, 6122605.840699999593198 ], [ 279194.589700000360608, 6122605.8147 ], [ 279196.86089999973774, 6122605.383899999782443 ], [ 279201.773299999535084, 6122604.452100000344217 ], [ 279201.960799999535084, 6122604.416500000283122 ], [ 279202.079900000244379, 6122604.392 ], [ 279202.198099999688566, 6122604.364 ], [ 279202.315399999730289, 6122604.332299999892712 ], [ 279202.492200000211596, 6122604.277300000190735 ], [ 279202.666199999861419, 6122604.214200000278652 ], [ 279202.837100000120699, 6122604.143000000156462 ], [ 279203.004599999636412, 6122604.0641 ], [ 279203.168200000189245, 6122603.977400000207126 ], [ 279203.327600000426173, 6122603.88329999987036 ], [ 279203.482499999925494, 6122603.781899999827147 ], [ 279203.632500000298023, 6122603.673499999567866 ], [ 279203.777400000020862, 6122603.558199999853969 ], [ 279203.916699999943376, 6122603.4364 ], [ 279204.050300000235438, 6122603.308199999853969 ], [ 279204.177799999713898, 6122603.173999999649823 ], [ 279204.298999999649823, 6122603.034 ], [ 279204.413499999791384, 6122602.888600000180304 ], [ 279204.521200000308454, 6122602.737999999895692 ], [ 279204.621799999848008, 6122602.582600000314415 ], [ 279204.715099999681115, 6122602.4227 ], [ 279204.800900000147521, 6122602.25870000012219 ], [ 279204.879099999554455, 6122602.090900000184774 ], [ 279204.949300000444055, 6122601.919599999673665 ], [ 279205.011599999852479, 6122601.745299999602139 ], [ 279205.065700000151992, 6122601.568199999630451 ], [ 279205.111600000411272, 6122601.388899999670684 ], [ 279205.14919999986887, 6122601.207600000314415 ], [ 279205.178299999795854, 6122601.024799999780953 ], [ 279205.198900000192225, 6122600.840800000354648 ], [ 279205.21100000012666, 6122600.65610000025481 ], [ 279205.214499999769032, 6122600.471 ], [ 279205.209400000050664, 6122600.286000000312924 ], [ 279205.19579999987036, 6122600.101300000213087 ], [ 279205.188099999912083, 6122600.028900000266731 ], [ 279205.179100000299513, 6122599.956600000150502 ], [ 279205.168800000101328, 6122599.884499999694526 ], [ 279205.168800000101328, 6122599.884499999694526 ], [ 279205.168800000101328, 6122599.884499999694526 ], [ 279205.168800000101328, 6122599.884399999864399 ] ] ] ] } }
]
}
