{
"type": "FeatureCollection",
"name": "Proposed Ancillary Facility",
"crs": { "type": "name", "properties": { "name": "urn:ogc:def:crs:OGC:1.3:CRS84" } },
"features": [
{ "type": "Feature", "properties": { "OBJECTID": 1, "FSource": "PHUP-MRBJV-JBR2HR-RW-M2D-000019-ANCILLARY-BDYS.dwg", "Comments": "Converted from \"PHUP-MRBJV-JBR2HR-RW-M2D-000019-ANCILLARY-BDYS.dwg\" using FME workbench.", "ECMLink": null, "SourceDate": "20251020", "PlanAccur": "", "Supplier": "BENG", "AF_ID": "AF5", "SHAPE_Length": 843.81471006612708, "SHAPE_Area": 24140.100641494511 }, "geometry": { "type": "MultiPolygon", "coordinates": [ [ [ [ 150.583352392306125, -35.00399753563606 ], [ 150.583236956614542, -35.003982349636409 ], [ 150.582874745422316, -35.003932278684161 ], [ 150.583296852589143, -35.001888770775558 ], [ 150.583580817964901, -35.001928038210721 ], [ 150.585015499365994, -35.002118420310026 ], [ 150.584775272062188, -35.003352182626131 ], [ 150.58420858988606, -35.003277688876196 ], [ 150.583949494755814, -35.002841707212028 ], [ 150.583607558444868, -35.002805933017186 ], [ 150.583352392306125, -35.00399753563606 ] ] ] ] } },
{ "type": "Feature", "properties": { "OBJECTID": 2, "FSource": "PHUP-MRBJV-JBR2HR-RW-M2D-000019-ANCILLARY-BDYS.dwg", "Comments": "Converted from \"PHUP-MRBJV-JBR2HR-RW-M2D-000019-ANCILLARY-BDYS.dwg\" using FME workbench.", "ECMLink": null, "SourceDate": "20251020", "PlanAccur": "", "Supplier": "BENG", "AF_ID": "AF2", "SHAPE_Length": 498.73609555840568, "SHAPE_Area": 12154.822241971338 }, "geometry": { "type": "MultiPolygon", "coordinates": [ [ [ [ 150.588021465633091, -34.989167316635864 ], [ 150.586048695601221, -34.988881795959685 ], [ 150.586178441612901, -34.98829263429139 ], [ 150.588151291326426, -34.988577964867055 ], [ 150.588021465633091, -34.989167316635864 ] ] ] ] } },
{ "type": "Feature", "properties": { "OBJECTID": 3, "FSource": "PHUP-MRBJV-JBR2HR-RW-M2D-000019-ANCILLARY-BDYS.dwg", "Comments": "Converted from \"PHUP-MRBJV-JBR2HR-RW-M2D-000019-ANCILLARY-BDYS.dwg\" using FME workbench.", "ECMLink": null, "SourceDate": "20251020", "PlanAccur": "", "Supplier": "BENG", "AF_ID": "AF1", "SHAPE_Length": 251.90426822986799, "SHAPE_Area": 3834.8725545049056 }, "geometry": { "type": "MultiPolygon", "coordinates": [ [ [ [ 150.584678800111533, -34.988069493750025 ], [ 150.584123275245418, -34.987986909478082 ], [ 150.584267264052784, -34.987332091119697 ], [ 150.584824740069564, -34.987404606207683 ], [ 150.584678800111533, -34.988069493750025 ] ] ] ] } },
{ "type": "Feature", "properties": { "OBJECTID": 4, "FSource": "PHUP-MRBJV-JBR2HR-RW-M2D-000019-ANCILLARY-BDYS.dwg", "Comments": "Converted from \"PHUP-MRBJV-JBR2HR-RW-M2D-000019-ANCILLARY-BDYS.dwg\" using FME workbench.", "ECMLink": null, "SourceDate": "20251020", "PlanAccur": "", "Supplier": "BENG", "AF_ID": "AF8", "SHAPE_Length": 613.17943385802585, "SHAPE_Area": 22726.151893652579 }, "geometry": { "type": "MultiPolygon", "coordinates": [ [ [ [ 150.577777687959014, -35.023693758902304 ], [ 150.577780224087462, -35.023694267494484 ], [ 150.577780632608778, -35.023694349572999 ], [ 150.577781011692537, -35.023694426556325 ], [ 150.577820731058495, -35.023703514145552 ], [ 150.577822080598651, -35.023703792604906 ], [ 150.577823239541544, -35.023704031199387 ], [ 150.577824524757176, -35.023704298458014 ], [ 150.57782619111407, -35.023704647248216 ], [ 150.577828717763708, -35.023705179989612 ], [ 150.577834235467606, -35.023706142063645 ], [ 150.577841059234117, -35.023707259129274 ], [ 150.577845624887686, -35.023708027306078 ], [ 150.577855243124475, -35.023709699588174 ], [ 150.577857526055197, -35.023710061592553 ], [ 150.577867934073026, -35.023711782098438 ], [ 150.577868913184858, -35.023711987352925 ], [ 150.577872737874344, -35.023712798425223 ], [ 150.577875206505325, -35.023713329105547 ], [ 150.577875526692623, -35.023713433759234 ], [ 150.577875593983805, -35.023713455836706 ], [ 150.577878699239591, -35.023714508557312 ], [ 150.577883807431448, -35.023715942029725 ], [ 150.577886940605453, -35.023716828536891 ], [ 150.577892176420221, -35.023718393466872 ], [ 150.577898116794529, -35.023720517852055 ], [ 150.577904994300553, -35.0237231188948 ], [ 150.57790902027682, -35.023724573123282 ], [ 150.577912059299734, -35.023725716469656 ], [ 150.577916796180801, -35.023727255208648 ], [ 150.57791986386539, -35.023728392816949 ], [ 150.577925792139865, -35.023730704463603 ], [ 150.577928260902041, -35.023731787742612 ], [ 150.57792835496187, -35.023731831088284 ], [ 150.577930366630881, -35.023732770019741 ], [ 150.577931240953376, -35.023733184123593 ], [ 150.577931415957153, -35.023733269651551 ], [ 150.577939675165368, -35.023737473141225 ], [ 150.577940393671241, -35.023737857089522 ], [ 150.577957934256574, -35.023747572670672 ], [ 150.577946865552519, -35.023796462466429 ], [ 150.577944502663001, -35.023812178271889 ], [ 150.577944502636427, -35.023812179172829 ], [ 150.577929037494243, -35.023839117976451 ], [ 150.577919100010689, -35.023857323806887 ], [ 150.577911008767103, -35.023873013560831 ], [ 150.577911007645326, -35.023873014439879 ], [ 150.577906670182699, -35.023881669313049 ], [ 150.577899728914701, -35.023896898846509 ], [ 150.577899728888099, -35.023896899747449 ], [ 150.577906566730576, -35.023930255228699 ], [ 150.577919271148772, -35.023981604786655 ], [ 150.577924613005763, -35.023999555030848 ], [ 150.577924612979189, -35.023999555931773 ], [ 150.57792501117774, -35.024031106091492 ], [ 150.577925514485258, -35.02404568920128 ], [ 150.577925514458684, -35.024045690102213 ], [ 150.577911569771146, -35.024076211932432 ], [ 150.577892509289001, -35.024120112984484 ], [ 150.577884378579341, -35.024139441155342 ], [ 150.577884378552739, -35.024139442056274 ], [ 150.577873899309395, -35.024164158249 ], [ 150.577855615723337, -35.024208320006736 ], [ 150.577843650563779, -35.024237934822622 ], [ 150.577837799175455, -35.024252622701681 ], [ 150.577830109935206, -35.024272103918534 ], [ 150.577820359295544, -35.02429704650006 ], [ 150.577812646487359, -35.024316731877043 ], [ 150.577803057535334, -35.024341542466317 ], [ 150.577795566252604, -35.024361481971333 ], [ 150.57778660451757, -35.02438624198259 ], [ 150.577779377340988, -35.024406440973472 ], [ 150.577770690931033, -35.024431080276848 ], [ 150.577763573084979, -35.024451510421663 ], [ 150.577755411767669, -35.024476069162525 ], [ 150.577748652966307, -35.024496772408447 ], [ 150.577740804345467, -35.024521206680753 ], [ 150.577734164705419, -35.024542142178582 ], [ 150.577726583075048, -35.024566441153567 ], [ 150.577720063665055, -35.024587609826114 ], [ 150.577712748036674, -35.024611769878241 ], [ 150.57770609030095, -35.024633132306207 ], [ 150.577699579717887, -35.024657231810956 ], [ 150.577693801558695, -35.024678941740255 ], [ 150.577687099008614, -35.02470282466475 ], [ 150.57768102865677, -35.024724706345815 ], [ 150.577674566276926, -35.024748434506982 ], [ 150.577668631382465, -35.024770553272958 ], [ 150.577662425574999, -35.024794127899902 ], [ 150.577656630492299, -35.024816484739304 ], [ 150.577650678078385, -35.024839902162768 ], [ 150.577644791365685, -35.02486246721223 ], [ 150.577638572722776, -35.024885659360564 ], [ 150.57763253855012, -35.024908430603524 ], [ 150.577626401909811, -35.024931443194596 ], [ 150.577621996883067, -35.024954636406939 ], [ 150.577617738938869, -35.024977672997579 ], [ 150.577613503456178, -35.025001099468724 ], [ 150.577609487525649, -35.025023956092504 ], [ 150.577605424872957, -35.025047615888113 ], [ 150.577604737703496, -35.025051702018608 ], [ 150.577603463945195, -35.025051565698263 ], [ 150.577600373992084, -35.025070153456291 ], [ 150.577596488417214, -35.025094051168544 ], [ 150.577593758680194, -35.025116622475288 ], [ 150.57759272617028, -35.025130700738998 ], [ 150.577592741423615, -35.02513070374804 ], [ 150.577592019388788, -35.025140946176258 ], [ 150.577589695095554, -35.025163332667397 ], [ 150.577586996936503, -35.025187767027518 ], [ 150.577584731645914, -35.025209936542709 ], [ 150.57758238911498, -35.025234611484422 ], [ 150.57758048345562, -35.025256588958833 ], [ 150.577578503177904, -35.025281502811566 ], [ 150.577576938717755, -35.025303281566863 ], [ 150.57757517206224, -35.025328420544504 ], [ 150.577574621746237, -35.025336372177989 ], [ 150.577574118375708, -35.025350010277883 ], [ 150.577573391675543, -35.02536456881846 ], [ 150.577572859559865, -35.025375393778802 ], [ 150.577571831324576, -35.025396752344264 ], [ 150.577570613458306, -35.025422344900875 ], [ 150.577569642382628, -35.025443474734715 ], [ 150.577569000613096, -35.025457531954885 ], [ 150.577568999491263, -35.025457532833933 ], [ 150.5775684785024, -35.025469280213223 ], [ 150.577567626934723, -35.025490185265078 ], [ 150.577566668022513, -35.025516212089869 ], [ 150.577566601660891, -35.025518163333778 ], [ 150.577567087357266, -35.025518192866834 ], [ 150.577567091189565, -35.025518285794085 ], [ 150.57756709116299, -35.025518286695025 ], [ 150.577566892593211, -35.025524197229238 ], [ 150.577566892566608, -35.025524198130171 ], [ 150.577566603361163, -35.025536929127831 ], [ 150.577566521595543, -35.025541555606935 ], [ 150.577566521568912, -35.025541556507868 ], [ 150.577566446087047, -35.025546229988571 ], [ 150.577566446060473, -35.025546230889496 ], [ 150.577566220327867, -35.025563197327642 ], [ 150.577566031391569, -35.02558366938969 ], [ 150.577565889576363, -35.025610156053993 ], [ 150.577565878356012, -35.025630399087959 ], [ 150.577565926491559, -35.025649039604303 ], [ 150.577565926464956, -35.025649040505243 ], [ 150.577565966780384, -35.025657104898926 ], [ 150.577565975097997, -35.025658382438436 ], [ 150.577565975071423, -35.025658383339376 ], [ 150.577566044513759, -35.02566772568818 ], [ 150.577566099222111, -35.025667728583798 ], [ 150.577566184805278, -35.025677118131071 ], [ 150.577566413145917, -35.02569897235707 ], [ 150.577556035464994, -35.025697997936597 ], [ 150.577556034369763, -35.025697997914719 ], [ 150.577555028348144, -35.025697886773436 ], [ 150.577548988192945, -35.025697282046146 ], [ 150.577548988192945, -35.025697282046146 ], [ 150.577544963712455, -35.025696887954808 ], [ 150.577544962617225, -35.025696887932938 ], [ 150.577534912188355, -35.025695853338704 ], [ 150.577534911093124, -35.025695853316833 ], [ 150.577529890470032, -35.025695310419401 ], [ 150.577519865296978, -35.025694162744017 ], [ 150.577519864201747, -35.025694162722139 ], [ 150.577504852370396, -35.025692361044413 ], [ 150.57747991829757, -35.025689043240739 ], [ 150.577455098002503, -35.025685360809042 ], [ 150.577447772995896, -35.025684215677565 ], [ 150.577447771927268, -35.025684214754762 ], [ 150.57744025938743, -35.025683000070202 ], [ 150.577440258292199, -35.025683000048325 ], [ 150.577440160146949, -35.025682983664545 ], [ 150.577440159051719, -35.02568298364266 ], [ 150.577433351153957, -35.025681843430355 ], [ 150.577433350058726, -35.025681843408485 ], [ 150.577430379798301, -35.025681412676953 ], [ 150.577430378729673, -35.025681411754128 ], [ 150.577426415750409, -35.025680864737119 ], [ 150.577426414655179, -35.025680864715248 ], [ 150.577419483818886, -35.025679879802617 ], [ 150.577419482723656, -35.025679879780732 ], [ 150.577405645291776, -35.025677794149722 ], [ 150.577381005625426, -35.025673821433941 ], [ 150.577371178302855, -35.02567213411605 ], [ 150.577371177207624, -35.025672134094165 ], [ 150.577369394697371, -35.025671820838319 ], [ 150.57736939360214, -35.025671820816449 ], [ 150.577356369252271, -35.025669885738978 ], [ 150.577331731489181, -35.025665922967384 ], [ 150.577307179560762, -35.025661576980639 ], [ 150.577282722176022, -35.025656849755656 ], [ 150.577258369218896, -35.025651740588515 ], [ 150.577249013255226, -35.025649677751723 ], [ 150.577249012159996, -35.025649677729845 ], [ 150.577234127207902, -35.02564625141239 ], [ 150.577210006000428, -35.025640382424299 ], [ 150.577186014305397, -35.025634135601194 ], [ 150.577162160831705, -35.025627512920082 ], [ 150.577138452151104, -35.025620514512291 ], [ 150.57711490023155, -35.025613143321415 ], [ 150.577091510549451, -35.02560539945695 ], [ 150.577068293950958, -35.025597286741501 ], [ 150.577045258076396, -35.025588806229294 ], [ 150.577022411634516, -35.025579959897335 ], [ 150.576999764429473, -35.025570749744517 ], [ 150.576977322926496, -35.025561179505956 ], [ 150.576955096929623, -35.025551251180616 ], [ 150.576933095147638, -35.025540966745496 ], [ 150.576915660259743, -35.025532488128867 ], [ 150.576915659164513, -35.025532488106982 ], [ 150.576911327304828, -35.025530330902299 ], [ 150.576911326236171, -35.025530329979482 ], [ 150.576889798877488, -35.025519343760578 ], [ 150.576868526320823, -35.025508004747763 ], [ 150.576847512681184, -35.02549632203803 ], [ 150.576826765519002, -35.025484299388388 ], [ 150.576806294558367, -35.025471941500584 ], [ 150.576786108508031, -35.025459250351702 ], [ 150.57676621487505, -35.025446231500617 ], [ 150.576766928743098, -35.025445548031065 ], [ 150.576747236291624, -35.025432322254147 ], [ 150.57673005918835, -35.025416821857547 ], [ 150.576714328359031, -35.025406193014831 ], [ 150.576714327263801, -35.025406192992946 ], [ 150.576710987457545, -35.025403024328902 ], [ 150.576710987457545, -35.025403024328902 ], [ 150.576694555163726, -35.025387017763187 ], [ 150.576691313468018, -35.025383792463799 ], [ 150.576691313494649, -35.025383791562881 ], [ 150.576676770577137, -35.025372161486764 ], [ 150.576676770577137, -35.025372161486764 ], [ 150.576669888567153, -35.025366035562271 ], [ 150.576663680218218, -35.025359400248909 ], [ 150.576660830313301, -35.025355896111655 ], [ 150.576658098949991, -35.025352311408263 ], [ 150.576653186673582, -35.025344759961747 ], [ 150.576649444398242, -35.025336405250798 ], [ 150.576647967394223, -35.025337473721301 ], [ 150.576631493011064, -35.025321780015616 ], [ 150.576615001057405, -35.025306087759617 ], [ 150.576598479911326, -35.025290382297705 ], [ 150.576582137754031, -35.025274516343764 ], [ 150.576582137780633, -35.025274515442831 ], [ 150.576571332056346, -35.02526042781831 ], [ 150.576571332082949, -35.025260426917384 ], [ 150.576568893701136, -35.025256755215523 ], [ 150.576557004892635, -35.025238300896582 ], [ 150.576557004919209, -35.025238299995642 ], [ 150.576545554910211, -35.025219719223983 ], [ 150.576539550516117, -35.025209629066225 ], [ 150.57653411151756, -35.025201248561991 ], [ 150.576534110448932, -35.025201247639188 ], [ 150.576522554350959, -35.025182919859688 ], [ 150.576511531045981, -35.025164399896077 ], [ 150.576501100074864, -35.025145675416304 ], [ 150.576491469653547, -35.025126672153739 ], [ 150.576482495757688, -35.025107480081402 ], [ 150.576474120184969, -35.025088140405153 ], [ 150.576466345794984, -35.02506866760568 ], [ 150.576459174325493, -35.025049077042681 ], [ 150.576453924688082, -35.025028940733591 ], [ 150.576449682686984, -35.025008637956198 ], [ 150.576449682713587, -35.025008637055258 ], [ 150.576450906289637, -35.024986870438902 ], [ 150.576454714078579, -35.024964727265591 ], [ 150.576457137738004, -35.024943365046596 ], [ 150.576460268811587, -35.024942542375264 ], [ 150.576450706094164, -35.02492451314113 ], [ 150.57644156108941, -35.024906292128307 ], [ 150.576438392526853, -35.024907011283275 ], [ 150.576429653449395, -35.024888552281531 ], [ 150.576421102389673, -35.024869960915332 ], [ 150.576421101321074, -35.024869959992508 ], [ 150.576411286560131, -35.02485148580503 ], [ 150.576411090658013, -35.024851105980332 ], [ 150.576401890602597, -35.024832782900774 ], [ 150.576392923092328, -35.024813858684247 ], [ 150.576392923118902, -35.024813857783322 ], [ 150.576385180239129, -35.024794618185986 ], [ 150.576380296514799, -35.024774931803989 ], [ 150.57637595394965, -35.024755140848363 ], [ 150.576372157753326, -35.0247352544379 ], [ 150.576368802119504, -35.024715292994877 ], [ 150.576365644446355, -35.024695270602223 ], [ 150.576363045698344, -35.024675172837902 ], [ 150.576360855325021, -35.024655013821317 ], [ 150.576359217867918, -35.024634797342308 ], [ 150.576358404620748, -35.02461453963965 ], [ 150.576358175065735, -35.024594258443713 ], [ 150.576358526692701, -35.024573964521878 ], [ 150.576359284160503, -35.02455365797617 ], [ 150.576359963087015, -35.02453330208337 ], [ 150.576361658801574, -35.024512989045355 ], [ 150.576363973953733, -35.024492703710173 ], [ 150.576366898207112, -35.024472462097592 ], [ 150.576370379953318, -35.024452267683579 ], [ 150.576374427527924, -35.024432135058078 ], [ 150.57637908743942, -35.024412084982558 ], [ 150.576385131616973, -35.024392287933701 ], [ 150.576390893701017, -35.024372432061178 ], [ 150.576397448653381, -35.024352742576085 ], [ 150.576404572779808, -35.024333187062922 ], [ 150.576412246126722, -35.024313773236088 ], [ 150.576419814218639, -35.024294323951281 ], [ 150.576427948841143, -35.024275023910235 ], [ 150.576437551467734, -35.024256184101688 ], [ 150.576437551494337, -35.024256183200748 ], [ 150.576448088743319, -35.024237682086351 ], [ 150.576458397323421, -35.024219131328493 ], [ 150.576468129179545, -35.024200368019329 ], [ 150.576478324295977, -35.024181762707407 ], [ 150.57648127305842, -35.024182956570868 ], [ 150.576491134010809, -35.024164237306422 ], [ 150.576501555994042, -35.024145705036631 ], [ 150.576512534174782, -35.024127374989611 ], [ 150.576526989162005, -35.024110689268824 ], [ 150.576542110106175, -35.024094422511176 ], [ 150.576557714900986, -35.024078507073881 ], [ 150.576573785756949, -35.024062951615917 ], [ 150.57658001991598, -35.024057130128817 ], [ 150.576589774847662, -35.024047455821432 ], [ 150.576589775969495, -35.024047454942391 ], [ 150.576605532116133, -35.024031905812237 ], [ 150.576621270365564, -35.024016405902763 ], [ 150.576637377167089, -35.024001191005574 ], [ 150.576653749109937, -35.023986200459227 ], [ 150.576670568522047, -35.023971568618713 ], [ 150.576687206380711, -35.023956850213665 ], [ 150.576705147732781, -35.023943153065154 ], [ 150.576723247428049, -35.023929660103754 ], [ 150.576741396442003, -35.023916278103371 ], [ 150.576759855833899, -35.023903221419282 ], [ 150.576778618872993, -35.023890495325595 ], [ 150.576797678748704, -35.02387810779932 ], [ 150.576817027608598, -35.023866064993676 ], [ 150.576836552286863, -35.023854265486648 ], [ 150.57685720907682, -35.023843724500416 ], [ 150.576879424221545, -35.023835037402627 ], [ 150.57690182566057, -35.02382683269947 ], [ 150.576923837981496, -35.023818445334413 ], [ 150.576944230668147, -35.023808274966804 ], [ 150.576964142723767, -35.023797532480657 ], [ 150.576984339973563, -35.023787151766605 ], [ 150.577002214129294, -35.023778400460195 ], [ 150.577002215251099, -35.02377839958114 ], [ 150.577004905964827, -35.023777272417391 ], [ 150.577027212424838, -35.023769982581157 ], [ 150.577049803103193, -35.023763347472141 ], [ 150.577049804224998, -35.023763346593093 ], [ 150.577068169543992, -35.023756183550887 ], [ 150.577068170665797, -35.023756182671825 ], [ 150.57706903377715, -35.02375586276672 ], [ 150.57706903487238, -35.023755862788597 ], [ 150.577071233051214, -35.023755049409402 ], [ 150.577092759800593, -35.02374696151459 ], [ 150.577114469705492, -35.023739239662881 ], [ 150.577133410394453, -35.023732482945285 ], [ 150.577133410421055, -35.023732482044352 ], [ 150.577136078132298, -35.023731354418118 ], [ 150.577157204270037, -35.023722470629863 ], [ 150.577178556106958, -35.023713885223422 ], [ 150.57720023587666, -35.023705847241786 ], [ 150.577219489291252, -35.023699447426523 ], [ 150.577219489317855, -35.023699446525605 ], [ 150.577222285726634, -35.023698525198924 ], [ 150.577244622540377, -35.023691802047047 ], [ 150.577255553713485, -35.023689349363877 ], [ 150.577255554808687, -35.023689349385755 ], [ 150.577265236296086, -35.023688878396484 ], [ 150.577265237391288, -35.023688878418362 ], [ 150.577268325841629, -35.023688755310495 ], [ 150.577292598440437, -35.023687805927189 ], [ 150.577304092999952, -35.023687390982907 ], [ 150.577304094095155, -35.023687391004785 ], [ 150.577315382010795, -35.023682727842058 ], [ 150.577315383105997, -35.02368272786395 ], [ 150.577337785118374, -35.023676245786199 ], [ 150.577348382843837, -35.02367302379605 ], [ 150.577348383939039, -35.023673023817928 ], [ 150.577348446950708, -35.023673005244355 ], [ 150.577348446950708, -35.023673005244355 ], [ 150.577360795649753, -35.023671720315569 ], [ 150.577384388768166, -35.023669584537686 ], [ 150.577407941680093, -35.023667622835973 ], [ 150.577431506479797, -35.023666075138841 ], [ 150.577455072911846, -35.023664954763362 ], [ 150.577478628876236, -35.023664263270803 ], [ 150.577502227500929, -35.023664576855985 ], [ 150.577511477578923, -35.023664873390352 ], [ 150.577525773870008, -35.023665435679746 ], [ 150.57754923172763, -35.023666583002324 ], [ 150.577559876218231, -35.023666937131559 ], [ 150.577559877313433, -35.023666937153436 ], [ 150.577566631819849, -35.023668544148677 ], [ 150.577566631819849, -35.023668544148677 ], [ 150.577566725395769, -35.023668566751276 ], [ 150.577566726464369, -35.023668567674093 ], [ 150.577572681281254, -35.023670128047335 ], [ 150.577592858301841, -35.023675095142224 ], [ 150.577592859397015, -35.023675095164101 ], [ 150.577595963985857, -35.023675799012175 ], [ 150.577606477040888, -35.023678230188473 ], [ 150.577606477040888, -35.023678230188473 ], [ 150.577619005712108, -35.023676453924296 ], [ 150.577642128207685, -35.023673889516189 ], [ 150.577652706154112, -35.023672822503279 ], [ 150.577652707249314, -35.023672822525157 ], [ 150.577665225844356, -35.023674358031769 ], [ 150.577688142206057, -35.023677329892521 ], [ 150.577710928944072, -35.023680758005121 ], [ 150.577733570002977, -35.023684629428516 ], [ 150.577733571098179, -35.023684629450386 ], [ 150.577756055712342, -35.023688937659387 ], [ 150.577774668125045, -35.023692856626589 ], [ 150.577774668125045, -35.023692856626589 ], [ 150.577775386572711, -35.023693019716113 ], [ 150.577777687959014, -35.023693758902304 ] ] ] ] } },
{ "type": "Feature", "properties": { "OBJECTID": 5, "FSource": "PHUP-MRBJV-JBR2HR-RW-M2D-000019-ANCILLARY-BDYS.dwg", "Comments": "Converted from \"PHUP-MRBJV-JBR2HR-RW-M2D-000019-ANCILLARY-BDYS.dwg\" using FME workbench.", "ECMLink": null, "SourceDate": "20251020", "PlanAccur": "", "Supplier": "BENG", "AF_ID": "AF8", "SHAPE_Length": 175.98350264458193, "SHAPE_Area": 1271.2975019994819 }, "geometry": { "type": "MultiPolygon", "coordinates": [ [ [ [ 150.578706593773234, -35.02440113103539 ], [ 150.57890633461605, -35.024405118376798 ], [ 150.578859872376199, -35.02503257865704 ], [ 150.5786601300141, -35.025028591177261 ], [ 150.578706593773234, -35.02440113103539 ] ] ] ] } },
{ "type": "Feature", "properties": { "OBJECTID": 6, "FSource": "PHUP-MRBJV-JBR2HR-RW-M2D-000019-ANCILLARY-BDYS.dwg", "Comments": "Converted from \"PHUP-MRBJV-JBR2HR-RW-M2D-000019-ANCILLARY-BDYS.dwg\" using FME workbench.", "ECMLink": null, "SourceDate": "20251020", "PlanAccur": "", "Supplier": "BENG", "AF_ID": "AF8", "SHAPE_Length": 242.78335109104, "SHAPE_Area": 2632.490063459918 }, "geometry": { "type": "MultiPolygon", "coordinates": [ [ [ [ 150.578981320040214, -35.026193279053786 ], [ 150.578670994105948, -35.026187084060695 ], [ 150.578638100716603, -35.025348887595889 ], [ 150.578948423475737, -35.025355082544657 ], [ 150.578981320040214, -35.026193279053786 ] ] ] ] } },
{ "type": "Feature", "properties": { "OBJECTID": 7, "FSource": "PHUP-MRBJV-JBR2HR-RW-M2D-000019-ANCILLARY-BDYS.dwg", "Comments": "Converted from \"PHUP-MRBJV-JBR2HR-RW-M2D-000019-ANCILLARY-BDYS.dwg\" using FME workbench.", "ECMLink": null, "SourceDate": "20251020", "PlanAccur": "", "Supplier": "BENG", "AF_ID": "AF4", "SHAPE_Length": 709.58686486503598, "SHAPE_Area": 26756.118408589555 }, "geometry": { "type": "MultiPolygon", "coordinates": [ [ [ [ 150.581734667845581, -35.00492305692697 ], [ 150.581720520105051, -35.004994918390103 ], [ 150.579390906962601, -35.004669587941031 ], [ 150.579666664937633, -35.00327187446689 ], [ 150.581020221562454, -35.003559685654707 ], [ 150.581237881367144, -35.003642070779577 ], [ 150.581404735006402, -35.003783539847113 ], [ 150.581498291815649, -35.003965023112414 ], [ 150.581505939508759, -35.004162057713245 ], [ 150.581372633436757, -35.004874803202981 ], [ 150.581734667845581, -35.00492305692697 ] ] ] ] } },
{ "type": "Feature", "properties": { "OBJECTID": 8, "FSource": "PHUP-MRBJV-JBR2HR-RW-M2D-000019-ANCILLARY-BDYS.dwg", "Comments": "Converted from \"PHUP-MRBJV-JBR2HR-RW-M2D-000019-ANCILLARY-BDYS.dwg\" using FME workbench.", "ECMLink": null, "SourceDate": "20251020", "PlanAccur": "", "Supplier": "BENG", "AF_ID": "AF4", "SHAPE_Length": 553.42898933062804, "SHAPE_Area": 13490.076179562402 }, "geometry": { "type": "MultiPolygon", "coordinates": [ [ [ [ 150.581630625236755, -35.001190552419132 ], [ 150.581363007982191, -35.002487703082096 ], [ 150.580730250225884, -35.002403184896494 ], [ 150.580851872143825, -35.001782034850976 ], [ 150.580362624490647, -35.001497369649321 ], [ 150.580026496981134, -35.001447934136195 ], [ 150.580113828609086, -35.000978252227355 ], [ 150.581630625236755, -35.001190552419132 ] ] ] ] } },
{ "type": "Feature", "properties": { "OBJECTID": 9, "FSource": "PHUP-MRBJV-JBR2HR-RW-M2D-000019-ANCILLARY-BDYS.dwg", "Comments": "Converted from \"PHUP-MRBJV-JBR2HR-RW-M2D-000019-ANCILLARY-BDYS.dwg\" using FME workbench.", "ECMLink": null, "SourceDate": "20251020", "PlanAccur": "", "Supplier": "BENG", "AF_ID": "AF6", "SHAPE_Length": 803.63732910271051, "SHAPE_Area": 7648.0260598415998 }, "geometry": { "type": "MultiPolygon", "coordinates": [ [ [ [ 150.585777567548689, -35.009548693228396 ], [ 150.58433250755786, -35.009042791386875 ], [ 150.582835479290196, -35.0082312469454 ], [ 150.58228748856564, -35.007830760824959 ], [ 150.582283269624099, -35.007827659534406 ], [ 150.582330890636428, -35.007610381588705 ], [ 150.582969937271713, -35.008089136925285 ], [ 150.584438365772286, -35.008882127752464 ], [ 150.585899150277413, -35.009394122328175 ], [ 150.585777567548689, -35.009548693228396 ] ] ] ] } },
{ "type": "Feature", "properties": { "OBJECTID": 10, "FSource": "PHUP-MRBJV-JBR2HR-RW-M2D-000019-ANCILLARY-BDYS.dwg", "Comments": "Converted from \"PHUP-MRBJV-JBR2HR-RW-M2D-000019-ANCILLARY-BDYS.dwg\" using FME workbench.", "ECMLink": null, "SourceDate": "20251020", "PlanAccur": "", "Supplier": "BENG", "AF_ID": "AF1", "SHAPE_Length": 489.3610625556372, "SHAPE_Area": 12859.150754977494 }, "geometry": { "type": "MultiPolygon", "coordinates": [ [ [ [ 150.585791062185081, -34.988934319334106 ], [ 150.583975451698706, -34.988665814186653 ], [ 150.584123275245418, -34.987986909478082 ], [ 150.585934079904376, -34.988256618243746 ], [ 150.585791062185081, -34.988934319334106 ] ] ] ] } },
{ "type": "Feature", "properties": { "OBJECTID": 11, "FSource": "PHUP-MRBJV-JBR2HR-RW-M2D-000019-ANCILLARY-BDYS.dwg", "Comments": "Converted from \"PHUP-MRBJV-JBR2HR-RW-M2D-000019-ANCILLARY-BDYS.dwg\" using FME workbench.", "ECMLink": null, "SourceDate": "20251020", "PlanAccur": "", "Supplier": "BENG", "AF_ID": "AF3", "SHAPE_Length": 498.73218606171019, "SHAPE_Area": 12155.462369413719 }, "geometry": { "type": "MultiPolygon", "coordinates": [ [ [ [ 150.586079536918248, -34.998195396529177 ], [ 150.584106593637301, -34.997909827734262 ], [ 150.584230191060357, -34.997319618518922 ], [ 150.586203066354528, -34.997605174669758 ], [ 150.586079536918248, -34.998195396529177 ] ] ] ] } },
{ "type": "Feature", "properties": { "OBJECTID": 12, "FSource": "PHUP-MRBJV-JBR2HR-RW-M2D-000019-ANCILLARY-BDYS.dwg", "Comments": "Converted from \"PHUP-MRBJV-JBR2HR-RW-M2D-000019-ANCILLARY-BDYS.dwg\" using FME workbench.", "ECMLink": null, "SourceDate": "20251020", "PlanAccur": "", "Supplier": "BENG", "AF_ID": "AF7", "SHAPE_Length": 493.0020957761144, "SHAPE_Area": 9496.2322643494645 }, "geometry": { "type": "MultiPolygon", "coordinates": [ [ [ [ 150.581201586433565, -35.016900034095919 ], [ 150.580679592450622, -35.01682727861084 ], [ 150.58104527843804, -35.015064925247565 ], [ 150.581556750806413, -35.015130297113551 ], [ 150.581529080487229, -35.015268178064723 ], [ 150.581201586433565, -35.016900034095919 ] ] ] ] } }
]
}
