{
"type": "FeatureCollection",
"name": "JBR2HR_AHIP Boundary",
"crs": { "type": "name", "properties": { "name": "urn:ogc:def:crs:OGC:1.3:CRS84" } },
"xy_coordinate_resolution": 1e-15,
"features": [
{ "type": "Feature", "properties": { "OBJECTID": 1, "Comments": "Downloaded from https://data.nsw.gov.au/data/dataset/aboriginal-heritage-impact-permit-boundaries on 01/04/2026", "FSource": "https://data.nsw.gov.au/data/dataset/aboriginal-heritage-impact-permit-boundaries", "SourceDate": 20260331.0, "Supplier": "DCEW", "output_gdb_path": "C:\\Users\\bri86955\\Mott MacDonald\\MGO - Moata Geospatial - JBR2HR\\02Data/GDA2020MGA56/Property.gdb", "output_feature_class": "Heritage/JBR2HR_PP_HE_AHIPBoundary5003_M260_DCEW_7856_20260331", "ECMLink_alias": "ECM Objective Link", "FSource_alias": "Feature Source", "SourceDate_alias": "Source Date", "PlanAccur_alias": "Planimetric Accuracy", "HID": 2257, "AHIP": 5003, "Method": "Applicant supplied shp", "Variation": 1, "Shape_Leng": 0, "Type": "Variation", "Project_Na": "Variation #1A - Princes Hwy Upgrade Program and Jervis Bay Rd Intersection Upgrade ? footprint change", "Applicant": "Transport For NSW", "Location": "Princes Highway", "LGA": "SHOALHAVEN", "Decision_D": "1/07/2024", "Status": "ACTIVE", "ExpireDate": 20321101.0, "fme_feature_type": "AHIPS1", "multi_reader_full_id": 0, "multi_reader_id": 0, "multi_reader_keyword": "SHAPEFILE_1", "multi_reader_type": "SHAPEFILE", "shapefile_type": "shapefile_polygon", "SHAPE_Length": 5564.6561107555226, "SHAPE_Area": 324498.80115328718 }, "geometry": { "type": "MultiPolygon", "coordinates": [ [ [ [ 150.585098556420149, -34.988819756758232, 0.0 ], [ 150.584736219131571, -34.988765755215958, 0.0 ], [ 150.583980626516933, -34.988653137994582, 0.0 ], [ 150.584273626224615, -34.987321684108579, 0.0 ], [ 150.585327552390652, -34.987463192251234, 0.0 ], [ 150.585363618010661, -34.987284362414073, 0.0 ], [ 150.585672897875128, -34.987326528339182, 0.0 ], [ 150.585733332312714, -34.987026286478532, 0.0 ], [ 150.585866663283724, -34.986881030497358, 0.0 ], [ 150.585963481978922, -34.986460524253744, 0.0 ], [ 150.58585054903611, -34.986444516576107, 0.0 ], [ 150.585856127314173, -34.986417865618193, 0.0 ], [ 150.585969616303629, -34.986433960075381, 0.0 ], [ 150.586084692438561, -34.985934229714481, 0.0 ], [ 150.585859995565613, -34.985899866898855, 0.0 ], [ 150.585734668138855, -34.985880700795335, 0.0 ], [ 150.585791675364192, -34.985628207306021, 0.0 ], [ 150.585938707389715, -34.985519917189066, 0.0 ], [ 150.585985214523589, -34.985308570531132, 0.0 ], [ 150.585896486985888, -34.985163971971076, 0.0 ], [ 150.585914521592684, -34.985084093606559, 0.0 ], [ 150.58607628095902, -34.984952173061551, 0.0 ], [ 150.586210079763674, -34.984238415491831, 0.0 ], [ 150.586430731351101, -34.983586086817141, 0.0 ], [ 150.586398436268411, -34.983313469962141, 0.0 ], [ 150.586458679934452, -34.983222399065603, 0.0 ], [ 150.586975558519953, -34.983291834510887, 0.0 ], [ 150.587004723658481, -34.983155935414189, 0.0 ], [ 150.587033755366377, -34.983020660174823, 0.0 ], [ 150.587183999438849, -34.982320642887551, 0.0 ], [ 150.587239779060809, -34.982058218681452, 0.0 ], [ 150.587293709166602, -34.982065983446056, 0.0 ], [ 150.587328176129688, -34.981901777082335, 0.0 ], [ 150.587430620124593, -34.981413703016564, 0.0 ], [ 150.587552638644354, -34.98083232355372, 0.0 ], [ 150.587770625893, -34.980863481000213, 0.0 ], [ 150.587649335724365, -34.9814411043372, 0.0 ], [ 150.587630795838777, -34.981530641282468, 0.0 ], [ 150.588219846209029, -34.981677225876986, 0.0 ], [ 150.588219847303691, -34.981677225898743, 0.0 ], [ 150.588685744010121, -34.980842966006833, 0.0 ], [ 150.58857309771048, -34.980828217942786, 0.0 ], [ 150.588719106367961, -34.980574032215884, 0.0 ], [ 150.589212532444407, -34.979780939039117, 0.0 ], [ 150.589314609738295, -34.979622733856317, 0.0 ], [ 150.58942368111542, -34.979453691186457, 0.0 ], [ 150.589593656083792, -34.979190251625667, 0.0 ], [ 150.58975559135456, -34.97893926911771, 0.0 ], [ 150.589925122465871, -34.978676510741145, 0.0 ], [ 150.590154474275238, -34.978321032766381, 0.0 ], [ 150.590372216149433, -34.977983546133068, 0.0 ], [ 150.590498078178342, -34.977788466794145, 0.0 ], [ 150.590794122420533, -34.977329607389862, 0.0 ], [ 150.591241418932185, -34.976636301510332, 0.0 ], [ 150.591533695669938, -34.976183277133451, 0.0 ], [ 150.591875456917364, -34.975653533236461, 0.0 ], [ 150.592826684021929, -34.976108114883452, 0.0 ], [ 150.590540239993004, -34.979663542439141, 0.0 ], [ 150.590086515123545, -34.980369042241243, 0.0 ], [ 150.589953417795186, -34.981009493539453, 0.0 ], [ 150.589956753825135, -34.981009911365867, 0.0 ], [ 150.590838834574356, -34.981123372335226, 0.0 ], [ 150.590796126351535, -34.98132869103776, 0.0 ], [ 150.590395196462055, -34.981277125699634, 0.0 ], [ 150.590242786952984, -34.981300305118936, 0.0 ], [ 150.590029284847418, -34.982328162678371, 0.0 ], [ 150.590157546567582, -34.982384546585472, 0.0 ], [ 150.590698288681153, -34.982455079140948, 0.0 ], [ 150.590618252303074, -34.982870783019443, 0.0 ], [ 150.590114616852816, -34.982805096763308, 0.0 ], [ 150.589973165911147, -34.982844052796246, 0.0 ], [ 150.589972815646377, -34.983581605271532, 0.0 ], [ 150.590175615701384, -34.983825163571296, 0.0 ], [ 150.590172818117111, -34.983970687501596, 0.0 ], [ 150.590713248344912, -34.984042872706162, 0.0 ], [ 150.590668784587137, -34.984268395320989, 0.0 ], [ 150.58967820413082, -34.984136136252808, 0.0 ], [ 150.589672750803658, -34.984138180647463, 0.0 ], [ 150.589672724949651, -34.98431872765736, 0.0 ], [ 150.590905995522007, -34.98550636887699, 0.0 ], [ 150.592026825515262, -34.986585692544764, 0.0 ], [ 150.591859348530022, -34.986703492497234, 0.0 ], [ 150.591615425878359, -34.986468606873856, 0.0 ], [ 150.591573804320944, -34.986497882715256, 0.0 ], [ 150.591410838885082, -34.986340951786254, 0.0 ], [ 150.590548866071373, -34.985668550199932, 0.0 ], [ 150.589965342773468, -34.985265559913977, 0.0 ], [ 150.588674592880778, -34.986173403353234, 0.0 ], [ 150.587700555388381, -34.986033443297416, 0.0 ], [ 150.586880601691092, -34.98738199300422, 0.0 ], [ 150.586805911590915, -34.987729051099727, 0.0 ], [ 150.587098511963376, -34.988379410023043, 0.0 ], [ 150.587092867060221, -34.988412068910542, 0.0 ], [ 150.588158036063106, -34.988565967844309, 0.0 ], [ 150.588028475345453, -34.98915532579128, 0.0 ], [ 150.58649322504769, -34.988933507059798, 0.0 ], [ 150.586461871938695, -34.988929286570595, 0.0 ], [ 150.586336092177248, -34.989518889799236, 0.0 ], [ 150.585979947340718, -34.989467431017992, 0.0 ], [ 150.585924797741001, -34.989459927983049, 0.0 ], [ 150.585887069608077, -34.989636770477738, 0.0 ], [ 150.58569279881408, -34.990520319838744, 0.0 ], [ 150.585475971627886, -34.990488028281213, 0.0 ], [ 150.58567096905432, -34.989601223237784, 0.0 ], [ 150.585507792027869, -34.989576922544444, 0.0 ], [ 150.584929105483724, -34.989490741052776, 0.0 ], [ 150.585042318202539, -34.989042446221511, 0.0 ], [ 150.585098556420149, -34.988819756758232, 0.0 ] ], [ [ 150.585098556420149, -34.988819756758232, 0.0 ], [ 150.585098558583184, -34.988819757702743, 0.0 ], [ 150.585099120423166, -34.988817524225411, 0.0 ], [ 150.585098556420149, -34.988819756758232, 0.0 ] ] ] ] } }
]
}
