{
"type": "FeatureCollection",
"name": "JBR2HR_Aboriginal heritage study boundary",
"crs": { "type": "name", "properties": { "name": "urn:ogc:def:crs:OGC:1.3:CRS84" } },
"xy_coordinate_resolution": 1e-15,
"features": [
{ "type": "Feature", "properties": { "OBJECTID": 1, "FSource": "PHUP-MRBJV-JBR2HR-RW-M2D-000017-PROP-BOUNDARIES.dwg", "Comments": "Converted from \"PHUP-MRBJV-JBR2HR-RW-M2D-000017-PROP-BOUNDARIES.dwg\" using FME workbench.", "ECMLink": null, "SourceDate": "20250922", "PlanAccur": "", "Supplier": "BENG", "SHAPE_Length": 18528.758393454384, "SHAPE_Area": 868169.87543514068 }, "geometry": { "type": "MultiPolygon", "coordinates": [ [ [ [ 150.585483555333894, -34.992027501908588 ], [ 150.584726719599416, -34.995568445658911 ], [ 150.584589127459509, -34.996155274193427 ], [ 150.584401207381688, -34.997344874196003 ], [ 150.586204965841063, -34.997605439629758 ], [ 150.586079536918248, -34.998195396529177 ], [ 150.58432879601699, -34.997942328291288 ], [ 150.584138608363361, -34.999136817822311 ], [ 150.584130368115041, -34.99973776427013 ], [ 150.585716897158534, -34.999967309794194 ], [ 150.585306545874118, -35.001973401487852 ], [ 150.585185938465656, -35.002141036708238 ], [ 150.585015499365994, -35.002118420310026 ], [ 150.584775272062188, -35.003352182626131 ], [ 150.58420858988606, -35.003277688876196 ], [ 150.583949494755814, -35.002841707212028 ], [ 150.583607558444868, -35.002805933017186 ], [ 150.583352364294115, -35.003997668495202 ], [ 150.582940666192712, -35.006049209739658 ], [ 150.582766351757442, -35.006938169749255 ], [ 150.582613168379879, -35.007653623247357 ], [ 150.582581791982562, -35.007799736930075 ], [ 150.582970802856579, -35.008088652054411 ], [ 150.584437048612557, -35.008882245759608 ], [ 150.584571111816246, -35.008928655253762 ], [ 150.585899150277413, -35.009394122328175 ], [ 150.585777567548689, -35.009548693228396 ], [ 150.58433250755786, -35.009042791386875 ], [ 150.583971996569943, -35.008845852308419 ], [ 150.582834787417312, -35.00823305141769 ], [ 150.582808855872145, -35.008211679293346 ], [ 150.582509168862714, -35.00799371865552 ], [ 150.582136502877944, -35.009802227904316 ], [ 150.581838293742862, -35.011240333243606 ], [ 150.581482997761697, -35.012953849932565 ], [ 150.581082626480907, -35.014885073168422 ], [ 150.582332933336403, -35.015044485637802 ], [ 150.582299263415649, -35.015226222508844 ], [ 150.582273861962904, -35.015363302399386 ], [ 150.581529080487229, -35.015268178064723 ], [ 150.581201586433565, -35.016900034095919 ], [ 150.580679592450622, -35.01682727861084 ], [ 150.579556519643972, -35.022304875557921 ], [ 150.579575426209061, -35.022307433494767 ], [ 150.579556219447483, -35.02240137940953 ], [ 150.579489618586905, -35.023592786318837 ], [ 150.579632449070431, -35.025048571025387 ], [ 150.579982221829226, -35.026250862666068 ], [ 150.579147313333976, -35.02614019687104 ], [ 150.579110217557627, -35.026777173320163 ], [ 150.579208819884144, -35.0278572691224 ], [ 150.579249981999027, -35.028704931630557 ], [ 150.57974331681234, -35.029646529131526 ], [ 150.580065935731142, -35.030252439102128 ], [ 150.580361317732695, -35.030804703259264 ], [ 150.580738698729789, -35.031301458755436 ], [ 150.581307870935291, -35.031889582136301 ], [ 150.583160462225976, -35.03383854794631 ], [ 150.583502855397455, -35.034290422662608 ], [ 150.583700978851454, -35.034631342843213 ], [ 150.584155765100945, -35.035576875382496 ], [ 150.584113296421663, -35.037121984991991 ], [ 150.583593914058156, -35.038351967981413 ], [ 150.583116556222137, -35.038887005247474 ], [ 150.582047915231499, -35.039933486062154 ], [ 150.579783417920737, -35.042083765939267 ], [ 150.579509143524064, -35.041801057685113 ], [ 150.582429025053727, -35.038910818352555 ], [ 150.583148909704249, -35.037323284590848 ], [ 150.583185380728708, -35.03703059423092 ], [ 150.583086763049522, -35.035767859532292 ], [ 150.58309052687639, -35.035271236397399 ], [ 150.582972339134926, -35.034752832788975 ], [ 150.582254570521457, -35.033778612672521 ], [ 150.581768782385012, -35.033332889050399 ], [ 150.580974921921609, -35.032604630302032 ], [ 150.580417550862649, -35.031871159925316 ], [ 150.58037109002143, -35.03189505024838 ], [ 150.579848138346733, -35.031359257214476 ], [ 150.579549018496635, -35.031029914889679 ], [ 150.578579522849026, -35.030299975522929 ], [ 150.578421167879753, -35.029485640445017 ], [ 150.578041136948684, -35.028982537443902 ], [ 150.578014055425115, -35.028982619532634 ], [ 150.577904047184688, -35.028801049501887 ], [ 150.577776291361118, -35.028251349683323 ], [ 150.577656318811449, -35.028231558898483 ], [ 150.577185042883627, -35.026124220950116 ], [ 150.576680387902684, -35.025814260745619 ], [ 150.575820004060489, -35.025138568039196 ], [ 150.575811844977949, -35.024062503528548 ], [ 150.576071275189918, -35.024098796224244 ], [ 150.576350461438381, -35.022748101525394 ], [ 150.576098564582679, -35.022681129113963 ], [ 150.576221362053076, -35.02238057153729 ], [ 150.576481963116152, -35.022451673221504 ], [ 150.576687572861573, -35.022541429429211 ], [ 150.576884259637893, -35.022627289398116 ], [ 150.577034606533743, -35.022690342120029 ], [ 150.577119364456877, -35.02272306816009 ], [ 150.577300031034724, -35.022793185210077 ], [ 150.577403036822261, -35.022823691953711 ], [ 150.577513892085989, -35.022847518688359 ], [ 150.577627503145465, -35.022865749086201 ], [ 150.577706330443448, -35.022872198508196 ], [ 150.577801694779453, -35.022872233382223 ], [ 150.577922847429505, -35.022864397748428 ], [ 150.57804991534573, -35.022854855549205 ], [ 150.578213443038265, -35.022844268037581 ], [ 150.578332438015082, -35.022841331635441 ], [ 150.578484380065561, -35.022551101932031 ], [ 150.578976978177252, -35.020229936987171 ], [ 150.578709872672192, -35.020194572957031 ], [ 150.578974093131905, -35.018843966406145 ], [ 150.579140029393159, -35.018868290580393 ], [ 150.579478399172189, -35.018915117140544 ], [ 150.579655238831435, -35.018081769527754 ], [ 150.579301784623141, -35.018032007507713 ], [ 150.579584316581958, -35.016571259155647 ], [ 150.57946664820642, -35.016216026422178 ], [ 150.579326245104852, -35.016196450130458 ], [ 150.579534005577813, -35.015188023834263 ], [ 150.578737320363842, -35.015076651623623 ], [ 150.578770532203635, -35.014892914521461 ], [ 150.578802877313933, -35.014713964910015 ], [ 150.578834749436425, -35.014537635414904 ], [ 150.5800810506679, -35.014525973138809 ], [ 150.580361644496804, -35.013263354913377 ], [ 150.580557701024645, -35.013312665985829 ], [ 150.580946048067631, -35.011461827877397 ], [ 150.581193786175248, -35.01036226583691 ], [ 150.582300889008252, -35.00507596011871 ], [ 150.579390906962601, -35.004669587941031 ], [ 150.579666664937633, -35.00327187446689 ], [ 150.581020221562454, -35.003559685654714 ], [ 150.581237881367144, -35.003642070779577 ], [ 150.581404735006402, -35.003783539847113 ], [ 150.581498291815649, -35.003965023112414 ], [ 150.581505939508759, -35.004162057713245 ], [ 150.581372633436757, -35.004874803202981 ], [ 150.581734667845581, -35.00492305692697 ], [ 150.581832467473731, -35.004563632698634 ], [ 150.582423182505011, -35.003767397490755 ], [ 150.582870019168496, -35.00149911544144 ], [ 150.581899235545762, -35.001369634501167 ], [ 150.581922471978885, -35.00123030350754 ], [ 150.581630625236755, -35.001190552419132 ], [ 150.581363007982191, -35.002487703082096 ], [ 150.580730250225884, -35.002403184896494 ], [ 150.580851872143825, -35.00178203485099 ], [ 150.580362624490647, -35.001497369649321 ], [ 150.580026496981134, -35.001447934136195 ], [ 150.580141896753702, -35.00085708069242 ], [ 150.581942341099449, -35.001106400711883 ], [ 150.58198307998191, -35.000854219489675 ], [ 150.582864946120964, -35.000947370399743 ], [ 150.583281058659821, -34.998530309833171 ], [ 150.583457257445247, -34.997528333813833 ], [ 150.583551287998205, -34.997016903503841 ], [ 150.58349669772079, -34.997009291415971 ], [ 150.583601698136363, -34.996499364991671 ], [ 150.583447169175543, -34.996477818917199 ], [ 150.583552170457239, -34.995967880789486 ], [ 150.583606158944434, -34.995975407835033 ], [ 150.584738629839421, -34.990792588219357 ], [ 150.583870413910176, -34.990663389351361 ], [ 150.584013901053396, -34.990026577541585 ], [ 150.584154065786237, -34.989389496481841 ], [ 150.584923655875826, -34.989504123075932 ], [ 150.585093844304907, -34.988830223693455 ], [ 150.58397442401909, -34.988663734768885 ], [ 150.584267264052784, -34.987332091119697 ], [ 150.584325002040259, -34.987156148693387 ], [ 150.586012770680327, -34.9873865165629 ], [ 150.586262574457976, -34.986883347998827 ], [ 150.586558928647037, -34.98550021060057 ], [ 150.586937270040067, -34.985595182805177 ], [ 150.587027556977347, -34.985341323923052 ], [ 150.587665154297412, -34.984339822155292 ], [ 150.587984186573607, -34.983710468417257 ], [ 150.588339381205969, -34.983836263392689 ], [ 150.587703238263799, -34.985210921992426 ], [ 150.58871293439779, -34.985404546412717 ], [ 150.588813408458776, -34.985847538747485 ], [ 150.587695280832804, -34.986046147434088 ], [ 150.586875324801554, -34.987394694347593 ], [ 150.586800634717434, -34.987741750635927 ], [ 150.587028598089887, -34.988382025890417 ], [ 150.588158482584276, -34.988545303304036 ], [ 150.588021465633091, -34.989167316635864 ], [ 150.586275244238777, -34.988914590802231 ], [ 150.586267421734959, -34.988950070293583 ], [ 150.586026582964791, -34.98948666314628 ], [ 150.585521721097592, -34.991848928510869 ], [ 150.585483555333894, -34.992027501908588 ] ] ] ] } }
]
}
