{
"type": "FeatureCollection",
"name": "Construction zones",
"crs": { "type": "name", "properties": { "name": "urn:ogc:def:crs:OGC:1.3:CRS84" } },
"features": [
{ "type": "Feature", "properties": { "OBJECTID": 1, "Comments": "Stage 1 and 2 construction zones", "FSource": "created from markup provided by Transport specialists.", "SourceDate": 20251110.0, "Supplier": "MOTTM", "output_gdb_path": "C:\\Users\\bri86955\\Mott MacDonald\\MGO - Moata Geospatial - JBR2HR\\02Data/GDA2020MGA56/Property.gdb", "output_feature_class": "Transport Planning/JBR2HR_PP_TP_ConstructionZones_M260_MOTTM_7856_20251110", "ECMLink_alias": "ECM Objective Link", "FSource_alias": "Feature Source", "SourceDate_alias": "Source Date", "PlanAccur_alias": "Planimetric Accuracy", "CnstrStage": "Stage 1", "ZoneName": "SB5", "filegdb_type": "geodb_polygon", "fme_feature_type": "Transport/ConstructionZones", "multi_reader_full_id": 0, "multi_reader_id": 0, "multi_reader_keyword": "FILEGDB_1", "multi_reader_type": "FILEGDB", "SHAPE_Length": 3301.210717458976, "SHAPE_Area": 82465.490317381162 }, "geometry": { "type": "MultiPolygon", "coordinates": [ [ [ [ 150.585015499365994, -35.002118420310026 ], [ 150.584775272062188, -35.003352182626131 ], [ 150.58420858988606, -35.003277688876196 ], [ 150.583949494755814, -35.002841707212028 ], [ 150.583607558444868, -35.002805933017186 ], [ 150.583352364294115, -35.003997668495202 ], [ 150.582940666192712, -35.006049209739658 ], [ 150.582790212109813, -35.00681648922621 ], [ 150.582782616626702, -35.006855223551796 ], [ 150.582766351757442, -35.006938169749255 ], [ 150.582613168379879, -35.007653623247357 ], [ 150.582581791982562, -35.007799736930075 ], [ 150.582509168862714, -35.00799371865552 ], [ 150.582136502877944, -35.009802227904316 ], [ 150.581838293742862, -35.011240333243606 ], [ 150.581482997761697, -35.012953849932565 ], [ 150.581082626480907, -35.014885073168422 ], [ 150.580559933501007, -35.014821414586422 ], [ 150.583286086447401, -35.001888922310769 ], [ 150.585015499365994, -35.002118420310026 ] ] ] ] } },
{ "type": "Feature", "properties": { "OBJECTID": 2, "Comments": "Stage 1 and 2 construction zones", "FSource": "created from markup provided by Transport specialists.", "SourceDate": 20251110.0, "Supplier": "MOTTM", "output_gdb_path": "C:\\Users\\bri86955\\Mott MacDonald\\MGO - Moata Geospatial - JBR2HR\\02Data/GDA2020MGA56/Property.gdb", "output_feature_class": "Transport Planning/JBR2HR_PP_TP_ConstructionZones_M260_MOTTM_7856_20251110", "ECMLink_alias": "ECM Objective Link", "FSource_alias": "Feature Source", "SourceDate_alias": "Source Date", "PlanAccur_alias": "Planimetric Accuracy", "CnstrStage": "Stage 1", "ZoneName": "NB2", "filegdb_type": "geodb_polygon", "fme_feature_type": "Transport/ConstructionZones", "multi_reader_full_id": 0, "multi_reader_id": 0, "multi_reader_keyword": "FILEGDB_1", "multi_reader_type": "FILEGDB", "SHAPE_Length": 961.48120831832352, "SHAPE_Area": 20782.292899246069 }, "geometry": { "type": "MultiPolygon", "coordinates": [ [ [ [ 150.57930178243285, -35.018032007463994 ], [ 150.579584316581958, -35.016571259155647 ], [ 150.579582571851091, -35.016565991337856 ], [ 150.57946664820642, -35.016216026422178 ], [ 150.579326245104852, -35.016196450130458 ], [ 150.579434626616774, -35.015670391536908 ], [ 150.579534005577813, -35.015188023834263 ], [ 150.579322066274045, -35.0151583966855 ], [ 150.578737320363842, -35.015076651623623 ], [ 150.578770532203635, -35.014892914521461 ], [ 150.578780159972638, -35.014839648029728 ], [ 150.580357612692353, -35.015046034725472 ], [ 150.580150863292772, -35.016075127292154 ], [ 150.579992558106852, -35.016832752282347 ], [ 150.579770995802477, -35.017967985962784 ], [ 150.579746746185322, -35.018090866643149 ], [ 150.579656353939527, -35.018083566762435 ], [ 150.57965490035167, -35.018083363774906 ], [ 150.579301383764658, -35.018034081890924 ], [ 150.57930178243285, -35.018032007463994 ] ] ] ] } },
{ "type": "Feature", "properties": { "OBJECTID": 3, "Comments": "Stage 1 and 2 construction zones", "FSource": "created from markup provided by Transport specialists.", "SourceDate": 20251110.0, "Supplier": "MOTTM", "output_gdb_path": "C:\\Users\\bri86955\\Mott MacDonald\\MGO - Moata Geospatial - JBR2HR\\02Data/GDA2020MGA56/Property.gdb", "output_feature_class": "Transport Planning/JBR2HR_PP_TP_ConstructionZones_M260_MOTTM_7856_20251110", "ECMLink_alias": "ECM Objective Link", "FSource_alias": "Feature Source", "SourceDate_alias": "Source Date", "PlanAccur_alias": "Planimetric Accuracy", "CnstrStage": "Stage 1", "ZoneName": "SB6", "filegdb_type": "geodb_polygon", "fme_feature_type": "Transport/ConstructionZones", "multi_reader_full_id": 0, "multi_reader_id": 0, "multi_reader_keyword": "FILEGDB_1", "multi_reader_type": "FILEGDB", "SHAPE_Length": 2368.97612740146, "SHAPE_Area": 61475.114185224746 }, "geometry": { "type": "MultiPolygon", "coordinates": [ [ [ [ 150.582299263415649, -35.015226222508844 ], [ 150.582273861962904, -35.015363302399386 ], [ 150.581529080487229, -35.015268178064723 ], [ 150.581201586433565, -35.016900034095919 ], [ 150.580679592450622, -35.01682727861084 ], [ 150.579556519643972, -35.022304875557921 ], [ 150.579575426209061, -35.022307433494767 ], [ 150.579556219447483, -35.02240137940953 ], [ 150.579489618586905, -35.023592786318837 ], [ 150.579533421110796, -35.024039237840491 ], [ 150.578766876983622, -35.023925022084221 ], [ 150.578942343772866, -35.022977996091562 ], [ 150.579317435805791, -35.020889718522795 ], [ 150.57951714754563, -35.019863648615001 ], [ 150.579593488792455, -35.019464764069177 ], [ 150.579673274646495, -35.01904788102064 ], [ 150.579738295492547, -35.018708139073553 ], [ 150.579789948858036, -35.018441078664054 ], [ 150.579815902759009, -35.018307595605641 ], [ 150.579893762783655, -35.01790714633848 ], [ 150.579962970847305, -35.017551191043388 ], [ 150.580023323160844, -35.017240778591471 ], [ 150.58005813009197, -35.017061753376957 ], [ 150.580119960352079, -35.016750577037691 ], [ 150.580173963944702, -35.01648234715217 ], [ 150.580217144156791, -35.016268514764107 ], [ 150.580232545507272, -35.016192246159008 ], [ 150.580254699232484, -35.016082541694253 ], [ 150.580337373540061, -35.015810875713029 ], [ 150.580395492933121, -35.01547536668928 ], [ 150.5804461221324, -35.015225569158005 ], [ 150.580503387323944, -35.014983560097598 ], [ 150.582299263415649, -35.015226222508844 ] ] ] ] } },
{ "type": "Feature", "properties": { "OBJECTID": 4, "Comments": "Stage 1 and 2 construction zones", "FSource": "created from markup provided by Transport specialists.", "SourceDate": 20251110.0, "Supplier": "MOTTM", "output_gdb_path": "C:\\Users\\bri86955\\Mott MacDonald\\MGO - Moata Geospatial - JBR2HR\\02Data/GDA2020MGA56/Property.gdb", "output_feature_class": "Transport Planning/JBR2HR_PP_TP_ConstructionZones_M260_MOTTM_7856_20251110", "ECMLink_alias": "ECM Objective Link", "FSource_alias": "Feature Source", "SourceDate_alias": "Source Date", "PlanAccur_alias": "Planimetric Accuracy", "CnstrStage": "Stage 1", "ZoneName": "NB3", "filegdb_type": "geodb_polygon", "fme_feature_type": "Transport/ConstructionZones", "multi_reader_full_id": 0, "multi_reader_id": 0, "multi_reader_keyword": "FILEGDB_1", "multi_reader_type": "FILEGDB", "SHAPE_Length": 5987.933713927232, "SHAPE_Area": 219471.13895851534 }, "geometry": { "type": "MultiPolygon", "coordinates": [ [ [ [ 150.578974093131905, -35.018843966406145 ], [ 150.579140029393159, -35.018868290580393 ], [ 150.579140064304823, -35.0188682957845 ], [ 150.579478399172189, -35.018915117140544 ], [ 150.57961423524435, -35.018933915297318 ], [ 150.579505324455738, -35.019343951029988 ], [ 150.579355234145453, -35.020127790847567 ], [ 150.579293457613517, -35.020245308750219 ], [ 150.579114134106391, -35.021190078189917 ], [ 150.579112248666235, -35.021415554423307 ], [ 150.579057631541559, -35.021719632410978 ], [ 150.579014183261336, -35.021960603638107 ], [ 150.578939807109094, -35.022159815578185 ], [ 150.578794405419274, -35.022969299763702 ], [ 150.578733038087734, -35.023300290263386 ], [ 150.578646976047963, -35.023759404045343 ], [ 150.578612299589537, -35.023958403100586 ], [ 150.578625382294803, -35.024171488133035 ], [ 150.578558917317736, -35.025074294910922 ], [ 150.578512867557293, -35.025696427411006 ], [ 150.578533370607346, -35.025974496505533 ], [ 150.578572878472329, -35.026510294779982 ], [ 150.578637984759439, -35.026961810638525 ], [ 150.578709969499187, -35.027412583042171 ], [ 150.57883799161948, -35.027892038130574 ], [ 150.579008829526686, -35.028390386054333 ], [ 150.579208359525495, -35.028942596451522 ], [ 150.579353287271545, -35.029294790844951 ], [ 150.579434524889962, -35.029491214851042 ], [ 150.579496201401525, -35.029618876027072 ], [ 150.579660944574044, -35.02994934274291 ], [ 150.579858956726696, -35.030312230792404 ], [ 150.580095988267033, -35.030726886577803 ], [ 150.580194081253154, -35.030887858337906 ], [ 150.580326229846378, -35.03108135818912 ], [ 150.580450416647267, -35.031263198193329 ], [ 150.580514895682285, -35.031352702669444 ], [ 150.580587744482841, -35.031437975848142 ], [ 150.580733953342474, -35.031608667498816 ], [ 150.580814292669999, -35.031698093370288 ], [ 150.581245969723653, -35.032151953466581 ], [ 150.581903820724989, -35.032827877558788 ], [ 150.582243065864475, -35.033174141456925 ], [ 150.582655163894231, -35.033620723750161 ], [ 150.582882683150814, -35.033869018924278 ], [ 150.583121802990604, -35.034155138614061 ], [ 150.583330720409322, -35.034456831853035 ], [ 150.583507947710359, -35.034771947101873 ], [ 150.583652219117113, -35.035098238065416 ], [ 150.583762506842675, -35.035433376628632 ], [ 150.58383802265638, -35.035774974519008 ], [ 150.583878228533479, -35.036120594333262 ], [ 150.583882837102379, -35.036467772080869 ], [ 150.583851814522149, -35.036814031663894 ], [ 150.583785381063336, -35.037156902918007 ], [ 150.583684011608767, -35.037493942357393 ], [ 150.583548428751499, -35.037822744758621 ], [ 150.583379597736837, -35.038140966501281 ], [ 150.583178721748311, -35.038446337197207 ], [ 150.582947235883609, -35.038736678506339 ], [ 150.582686788036398, -35.039009920889043 ], [ 150.582534412827897, -35.039155611140494 ], [ 150.581742416394007, -35.039902348790591 ], [ 150.580065023009894, -35.041449411364155 ], [ 150.579952558489566, -35.041362162673899 ], [ 150.579972807072437, -35.0413421198229 ], [ 150.582336173225286, -35.039002731933913 ], [ 150.582369249367815, -35.038969990376181 ], [ 150.582429025053727, -35.038910818352555 ], [ 150.583148909704249, -35.037323284590848 ], [ 150.583185380728708, -35.03703059423092 ], [ 150.583086763049522, -35.035767859532292 ], [ 150.58309052687639, -35.035271236397399 ], [ 150.582972339134926, -35.034752832788975 ], [ 150.582254570521457, -35.033778612672521 ], [ 150.581768782385012, -35.033332889050399 ], [ 150.580974921921609, -35.032604630302032 ], [ 150.580417550862649, -35.031871159925316 ], [ 150.58037109002143, -35.03189505024838 ], [ 150.579848138346733, -35.031359257214476 ], [ 150.579703079866675, -35.031199542072336 ], [ 150.579372760563558, -35.03089721103202 ], [ 150.578579522849026, -35.030299975522929 ], [ 150.578421167879753, -35.029485640445017 ], [ 150.578041136948684, -35.028982537443902 ], [ 150.578014055425115, -35.028982619532634 ], [ 150.577904047184688, -35.028801049501887 ], [ 150.577776291361118, -35.028251349683323 ], [ 150.577656318811449, -35.028231558898483 ], [ 150.577185042883627, -35.026124220950116 ], [ 150.576680387902684, -35.025814260745619 ], [ 150.575820004060489, -35.025138568039196 ], [ 150.575811844977949, -35.024062503528548 ], [ 150.576071275189918, -35.024098796224244 ], [ 150.576350461438381, -35.022748101525394 ], [ 150.576098564582679, -35.022681129113963 ], [ 150.576221362053076, -35.02238057153729 ], [ 150.576481963116152, -35.022451673221504 ], [ 150.576687572861573, -35.022541429429211 ], [ 150.576884259637893, -35.022627289398116 ], [ 150.577034606533743, -35.022690342120029 ], [ 150.577119364456877, -35.02272306816009 ], [ 150.577300031034724, -35.022793185210077 ], [ 150.577403036822261, -35.022823691953711 ], [ 150.577513892085989, -35.022847518688359 ], [ 150.577627503145465, -35.022865749086201 ], [ 150.577706330443448, -35.022872198508196 ], [ 150.577801694779453, -35.022872233382223 ], [ 150.577922847429505, -35.022864397748428 ], [ 150.57804991534573, -35.022854855549213 ], [ 150.578213443038265, -35.022844268037581 ], [ 150.578332438015082, -35.022841331635441 ], [ 150.578484380065561, -35.022551101932031 ], [ 150.578973768446957, -35.020245062592295 ], [ 150.578976978177252, -35.020229936987171 ], [ 150.578965533353568, -35.02022842215716 ], [ 150.578709872672192, -35.020194572957031 ], [ 150.578776865204787, -35.019852134194934 ], [ 150.578974093131905, -35.018843966406145 ] ] ] ] } },
{ "type": "Feature", "properties": { "OBJECTID": 5, "Comments": "Stage 1 and 2 construction zones", "FSource": "created from markup provided by Transport specialists.", "SourceDate": 20251110.0, "Supplier": "MOTTM", "output_gdb_path": "C:\\Users\\bri86955\\Mott MacDonald\\MGO - Moata Geospatial - JBR2HR\\02Data/GDA2020MGA56/Property.gdb", "output_feature_class": "Transport Planning/JBR2HR_PP_TP_ConstructionZones_M260_MOTTM_7856_20251110", "ECMLink_alias": "ECM Objective Link", "FSource_alias": "Feature Source", "SourceDate_alias": "Source Date", "PlanAccur_alias": "Planimetric Accuracy", "CnstrStage": "Stage 2", "ZoneName": "SB6", "filegdb_type": "geodb_polygon", "fme_feature_type": "Transport/ConstructionZones", "multi_reader_full_id": 0, "multi_reader_id": 0, "multi_reader_keyword": "FILEGDB_1", "multi_reader_type": "FILEGDB", "SHAPE_Length": 4061.6210906333718, "SHAPE_Area": 84150.143984538037 }, "geometry": { "type": "MultiPolygon", "coordinates": [ [ [ [ 150.58357847578003, -35.001767597053501 ], [ 150.584441789247563, -34.996060560628749 ], [ 150.584448507960303, -34.996016142019307 ], [ 150.58450616783378, -34.99570920860095 ], [ 150.584687776354343, -34.994849573189491 ], [ 150.584689828842613, -34.994839861058658 ], [ 150.58493021370478, -34.993701976747865 ], [ 150.585328073442184, -34.991823481172439 ], [ 150.585725710144317, -34.989996538539238 ], [ 150.585811149691381, -34.989641660428958 ], [ 150.58582317248667, -34.989598639915563 ], [ 150.585886369787687, -34.989372499773737 ], [ 150.585939314056844, -34.989194419383004 ], [ 150.585961637697608, -34.989119331172247 ], [ 150.586024521881455, -34.988923848188598 ], [ 150.58616168532285, -34.988535503073962 ], [ 150.5863791516785, -34.987961301647893 ], [ 150.586907572524893, -34.988042104304206 ], [ 150.586919445359655, -34.988075454109669 ], [ 150.587028598089887, -34.988382025890417 ], [ 150.588158482584276, -34.988545303304036 ], [ 150.588021465633091, -34.989167316635864 ], [ 150.586275244238777, -34.988914590802231 ], [ 150.586267421734959, -34.988950070293583 ], [ 150.586026582964791, -34.989486663146273 ], [ 150.585581944463115, -34.991567146683352 ], [ 150.585566749908452, -34.991638241597634 ], [ 150.585521721097592, -34.991848928510869 ], [ 150.585483555333894, -34.992027501908595 ], [ 150.585087657521854, -34.99387979889314 ], [ 150.584946947522695, -34.994581483454056 ], [ 150.584756481264066, -34.995608364670176 ], [ 150.584683546613576, -34.995752579286595 ], [ 150.584589127459509, -34.996155274193427 ], [ 150.584401207381688, -34.997344874195996 ], [ 150.586204965841063, -34.997605439629758 ], [ 150.586079536918248, -34.998195396529177 ], [ 150.58432879601699, -34.99794232829128 ], [ 150.584138608363361, -34.999136817822311 ], [ 150.584130368115041, -34.99973776427013 ], [ 150.584149010334244, -34.999740461268068 ], [ 150.585716897158534, -34.999967309794201 ], [ 150.58565822826975, -35.000254134345958 ], [ 150.585306545874118, -35.001973401487852 ], [ 150.584407033266359, -35.001884654845234 ], [ 150.584313956526955, -35.001871398020214 ], [ 150.583946624875608, -35.001819076680732 ], [ 150.583944415790739, -35.001819054323143 ], [ 150.583833520325499, -35.001817926703815 ], [ 150.583642192635182, -35.00178903915819 ], [ 150.58357847578003, -35.001767597053501 ] ] ] ] } },
{ "type": "Feature", "properties": { "OBJECTID": 6, "Comments": "Stage 1 and 2 construction zones", "FSource": "created from markup provided by Transport specialists.", "SourceDate": 20251110.0, "Supplier": "MOTTM", "output_gdb_path": "C:\\Users\\bri86955\\Mott MacDonald\\MGO - Moata Geospatial - JBR2HR\\02Data/GDA2020MGA56/Property.gdb", "output_feature_class": "Transport Planning/JBR2HR_PP_TP_ConstructionZones_M260_MOTTM_7856_20251110", "ECMLink_alias": "ECM Objective Link", "FSource_alias": "Feature Source", "SourceDate_alias": "Source Date", "PlanAccur_alias": "Planimetric Accuracy", "CnstrStage": "Stage 2", "ZoneName": "NB1", "filegdb_type": "geodb_polygon", "fme_feature_type": "Transport/ConstructionZones", "multi_reader_full_id": 0, "multi_reader_id": 0, "multi_reader_keyword": "FILEGDB_1", "multi_reader_type": "FILEGDB", "SHAPE_Length": 881.40339706110433, "SHAPE_Area": 15463.85278117364 }, "geometry": { "type": "MultiPolygon", "coordinates": [ [ [ [ 150.581942341099449, -35.001106400711883 ], [ 150.581950117792388, -35.001058262305662 ], [ 150.58198307998191, -35.000854219489675 ], [ 150.582864946120964, -35.000947370399743 ], [ 150.583281058659821, -34.998530309833171 ], [ 150.583321060484138, -34.998302836035499 ], [ 150.583619511171378, -34.998342191544033 ], [ 150.583613481212751, -34.998460752406885 ], [ 150.583610039982432, -34.998549291855959 ], [ 150.583608226818086, -34.998637863729087 ], [ 150.583608043402847, -34.998726448227664 ], [ 150.583607346596551, -34.998905151258199 ], [ 150.583600533846777, -34.999083766731118 ], [ 150.583587610342676, -34.999262154118938 ], [ 150.583548787542043, -34.999775577206535 ], [ 150.583493008455775, -35.000258348850792 ], [ 150.583436431717161, -35.000409989167295 ], [ 150.583406643605429, -35.000662416160274 ], [ 150.583373716660248, -35.000914577780925 ], [ 150.583337653758747, -35.001166449743785 ], [ 150.58333614626136, -35.001174158814152 ], [ 150.583333834272764, -35.001181731062864 ], [ 150.583330733696442, -35.001189110014224 ], [ 150.583326869142155, -35.00119624116882 ], [ 150.583322268504361, -35.001203070092778 ], [ 150.583316967262476, -35.001209545207537 ], [ 150.583311005169548, -35.001215618625693 ], [ 150.583304425183854, -35.001221245227988 ], [ 150.583297278996554, -35.001226380970614 ], [ 150.583289619181613, -35.001230989039115 ], [ 150.583281503734668, -35.001235034529948 ], [ 150.583272992708658, -35.001238487087917 ], [ 150.583264150430125, -35.00124132004882 ], [ 150.583255043256543, -35.00124351219776 ], [ 150.581942341099449, -35.001106400711883 ] ] ] ] } },
{ "type": "Feature", "properties": { "OBJECTID": 7, "Comments": "Stage 1 and 2 construction zones", "FSource": "created from markup provided by Transport specialists.", "SourceDate": 20251110.0, "Supplier": "MOTTM", "output_gdb_path": "C:\\Users\\bri86955\\Mott MacDonald\\MGO - Moata Geospatial - JBR2HR\\02Data/GDA2020MGA56/Property.gdb", "output_feature_class": "Transport Planning/JBR2HR_PP_TP_ConstructionZones_M260_MOTTM_7856_20251110", "ECMLink_alias": "ECM Objective Link", "FSource_alias": "Feature Source", "SourceDate_alias": "Source Date", "PlanAccur_alias": "Planimetric Accuracy", "CnstrStage": "Stage 2", "ZoneName": "SB5", "filegdb_type": "geodb_polygon", "fme_feature_type": "Transport/ConstructionZones", "multi_reader_full_id": 0, "multi_reader_id": 0, "multi_reader_keyword": "FILEGDB_1", "multi_reader_type": "FILEGDB", "SHAPE_Length": 3331.4494866327022, "SHAPE_Area": 30214.255650231778 }, "geometry": { "type": "MultiPolygon", "coordinates": [ [ [ [ 150.586051929038859, -34.987979063613182 ], [ 150.586266186739607, -34.987566372551697 ], [ 150.586451488083185, -34.987231239107338 ], [ 150.586628924795008, -34.986855426937069 ], [ 150.586834655715336, -34.986489513664765 ], [ 150.587067872505202, -34.986134943449507 ], [ 150.587706298263839, -34.985295653437554 ], [ 150.587798974765349, -34.985343655544277 ], [ 150.587159066952552, -34.986185278433972 ], [ 150.586929760445571, -34.986534488919816 ], [ 150.586727526020155, -34.986894850328305 ], [ 150.586553160291743, -34.987264944404494 ], [ 150.586208583352771, -34.988034321851352 ], [ 150.586176927257668, -34.988204152855459 ], [ 150.586089081787435, -34.988432703815093 ], [ 150.586005710020601, -34.988662387596449 ], [ 150.585926833468704, -34.988893144238837 ], [ 150.58583461873576, -34.989181668446498 ], [ 150.585750355820636, -34.98947183459159 ], [ 150.585674089647398, -34.989763495745066 ], [ 150.585554493326583, -34.990277693177099 ], [ 150.585454375013029, -34.990727991544546 ], [ 150.584752849516349, -34.994041435327745 ], [ 150.584311961240843, -34.995957883981646 ], [ 150.584175427540032, -34.996620206642511 ], [ 150.584059917683817, -34.997285232903153 ], [ 150.583965510088291, -34.997952510956509 ], [ 150.583859636753999, -34.998819456521332 ], [ 150.583719731117071, -34.999743579370062 ], [ 150.583646593848471, -34.999737904790301 ], [ 150.583696167060054, -34.999047875543887 ], [ 150.58369985786365, -34.998937068500297 ], [ 150.583700773161382, -34.998786202638826 ], [ 150.583701109103345, -34.998625534392801 ], [ 150.583706633698228, -34.99846492981402 ], [ 150.583717343550404, -34.998304503319972 ], [ 150.583764416961884, -34.997901579530392 ], [ 150.583811692416049, -34.997522906501537 ], [ 150.583868508785258, -34.997129753832354 ], [ 150.58393399248925, -34.996727607571131 ], [ 150.584017513503255, -34.996270407153681 ], [ 150.584084818941676, -34.995941709887198 ], [ 150.58425357595317, -34.995159092337538 ], [ 150.584595577979172, -34.993593894943217 ], [ 150.585142300988622, -34.991091698083885 ], [ 150.585316700948056, -34.990293412007162 ], [ 150.585428920251388, -34.989806129255648 ], [ 150.585512561293399, -34.989490391640381 ], [ 150.585601143430694, -34.989175568988138 ], [ 150.585694651991588, -34.988861711477469 ], [ 150.585723819628925, -34.988769847012321 ], [ 150.585753744770159, -34.988678146351624 ], [ 150.585784423969955, -34.988586614835079 ], [ 150.585862065676935, -34.988380744021896 ], [ 150.585951299363956, -34.988178079514036 ], [ 150.586051929038859, -34.987979063613182 ] ] ] ] } },
{ "type": "Feature", "properties": { "OBJECTID": 8, "Comments": "Stage 1 and 2 construction zones", "FSource": "created from markup provided by Transport specialists.", "SourceDate": 20251110.0, "Supplier": "MOTTM", "output_gdb_path": "C:\\Users\\bri86955\\Mott MacDonald\\MGO - Moata Geospatial - JBR2HR\\02Data/GDA2020MGA56/Property.gdb", "output_feature_class": "Transport Planning/JBR2HR_PP_TP_ConstructionZones_M260_MOTTM_7856_20251110", "ECMLink_alias": "ECM Objective Link", "FSource_alias": "Feature Source", "SourceDate_alias": "Source Date", "PlanAccur_alias": "Planimetric Accuracy", "CnstrStage": "Stage 2", "ZoneName": "NB2", "filegdb_type": "geodb_polygon", "fme_feature_type": "Transport/ConstructionZones", "multi_reader_full_id": 0, "multi_reader_id": 0, "multi_reader_keyword": "FILEGDB_1", "multi_reader_type": "FILEGDB", "SHAPE_Length": 4897.4254929488689, "SHAPE_Area": 101482.51612027368 }, "geometry": { "type": "MultiPolygon", "coordinates": [ [ [ [ 150.583080578787417, -35.0013455769353 ], [ 150.58312695719934, -35.001351744690837 ], [ 150.583218413207447, -35.001363908198577 ], [ 150.583226941936601, -35.001366445347415 ], [ 150.583235186543646, -35.001369553775085 ], [ 150.583243090650001, -35.001373213427712 ], [ 150.583250599157509, -35.001377397966777 ], [ 150.583257660305691, -35.001382079317196 ], [ 150.583264227914611, -35.001387225909291 ], [ 150.58327025486841, -35.001392800745883 ], [ 150.583275701689132, -35.001398767883416 ], [ 150.583280529084249, -35.001405085071767 ], [ 150.583284704357169, -35.001411709290721 ], [ 150.583288199270555, -35.001418594904493 ], [ 150.583290991114438, -35.00142569458442 ], [ 150.58329305830037, -35.001432960122777 ], [ 150.583294388052138, -35.001440341684365 ], [ 150.583294971999692, -35.001447788620283 ], [ 150.583294805084222, -35.001455249446138 ], [ 150.583293887694879, -35.001462673687499 ], [ 150.583156397589079, -35.002212188653317 ], [ 150.583165695367938, -35.002365940641518 ], [ 150.583155004679952, -35.002420978604285 ], [ 150.583027692879142, -35.003034505068399 ], [ 150.582736377983139, -35.004438084412584 ], [ 150.582551258010852, -35.005329936383681 ], [ 150.582382351998149, -35.006143697821848 ], [ 150.58213341664964, -35.007342956276716 ], [ 150.581912144735156, -35.008408964252148 ], [ 150.581729219204561, -35.009294618807992 ], [ 150.581478091351897, -35.010504334277869 ], [ 150.581230714242196, -35.01169593839311 ], [ 150.581100720102029, -35.012317647371866 ], [ 150.580963342698993, -35.012983810692326 ], [ 150.580797834932781, -35.013691724819758 ], [ 150.580728891558891, -35.013984263604989 ], [ 150.580655122931461, -35.014132085811987 ], [ 150.580475555885414, -35.014888516987355 ], [ 150.580472722255024, -35.01489651325516 ], [ 150.580469052899076, -35.014904275599982 ], [ 150.580464575825317, -35.014911745985188 ], [ 150.58045932558548, -35.014918867406095 ], [ 150.580453341058586, -35.014925584747253 ], [ 150.580446668630145, -35.014931848451745 ], [ 150.580439357917783, -35.014937610830032 ], [ 150.580431466125162, -35.01494282704833 ], [ 150.580423051365273, -35.014947458601199 ], [ 150.580414178268512, -35.014951468916216 ], [ 150.580404914538349, -35.014954828693902 ], [ 150.580395331057161, -35.014957512304157 ], [ 150.580385499669802, -35.014959498643364 ], [ 150.580375494198961, -35.014960773859109 ], [ 150.580365392767987, -35.014961326889207 ], [ 150.580230674390492, -35.014944935468321 ], [ 150.580209867436594, -35.014942447030336 ], [ 150.578802877313933, -35.014713964910015 ], [ 150.578826401136212, -35.014583819402375 ], [ 150.578834749436425, -35.014537635414904 ], [ 150.5800810506679, -35.014525973138809 ], [ 150.580361644496804, -35.013263354913377 ], [ 150.580557701024645, -35.013312665985829 ], [ 150.580946048067631, -35.011461827877397 ], [ 150.581193786175248, -35.01036226583691 ], [ 150.582286491382177, -35.005144713827562 ], [ 150.582300889008252, -35.00507596011871 ], [ 150.579390906962601, -35.004669587941031 ], [ 150.579666664937633, -35.00327187446689 ], [ 150.581020221562454, -35.003559685654707 ], [ 150.581237881367144, -35.003642070779577 ], [ 150.581404735006402, -35.003783539847113 ], [ 150.581498291815649, -35.003965023112414 ], [ 150.581505939508759, -35.004162057713245 ], [ 150.581372633436757, -35.004874803202981 ], [ 150.581734667845581, -35.00492305692697 ], [ 150.581832467473731, -35.004563632698641 ], [ 150.582423182505011, -35.003767397490755 ], [ 150.582870019168496, -35.00149911544144 ], [ 150.581899235545762, -35.001369634501167 ], [ 150.581922471978885, -35.00123030350754 ], [ 150.581630625236755, -35.001190552419132 ], [ 150.581363007982191, -35.002487703082096 ], [ 150.580730250225884, -35.002403184896494 ], [ 150.580851872143825, -35.001782034850976 ], [ 150.580362624490647, -35.001497369649321 ], [ 150.580026496981134, -35.001447934136195 ], [ 150.580122997570072, -35.000953844898334 ], [ 150.583080578787417, -35.0013455769353 ] ] ] ] } },
{ "type": "Feature", "properties": { "OBJECTID": 9, "Comments": "Stage 1 and 2 construction zones", "FSource": "created from markup provided by Transport specialists.", "SourceDate": 20251110.0, "Supplier": "MOTTM", "output_gdb_path": "C:\\Users\\bri86955\\Mott MacDonald\\MGO - Moata Geospatial - JBR2HR\\02Data/GDA2020MGA56/Property.gdb", "output_feature_class": "Transport Planning/JBR2HR_PP_TP_ConstructionZones_M260_MOTTM_7856_20251110", "ECMLink_alias": "ECM Objective Link", "FSource_alias": "Feature Source", "SourceDate_alias": "Source Date", "PlanAccur_alias": "Planimetric Accuracy", "CnstrStage": "Stage 2", "ZoneName": "SB7", "filegdb_type": "geodb_polygon", "fme_feature_type": "Transport/ConstructionZones", "multi_reader_full_id": 0, "multi_reader_id": 0, "multi_reader_keyword": "FILEGDB_1", "multi_reader_type": "FILEGDB", "SHAPE_Length": 1683.7028226178033, "SHAPE_Area": 38083.513762205977 }, "geometry": { "type": "MultiPolygon", "coordinates": [ [ [ [ 150.585015499365994, -35.002118420310026 ], [ 150.584775272062188, -35.003352182626131 ], [ 150.58420858988606, -35.003277688876196 ], [ 150.583949494755814, -35.002841707212028 ], [ 150.583607558444868, -35.002805933017186 ], [ 150.583352364294115, -35.003997668495202 ], [ 150.582940666192712, -35.006049209739658 ], [ 150.582766351757442, -35.006938169749255 ], [ 150.582613168379879, -35.007653623247357 ], [ 150.582581791982562, -35.007799736930075 ], [ 150.582165172333475, -35.00777598840439 ], [ 150.58337095452697, -35.001948969344411 ], [ 150.585015499365994, -35.002118420310026 ] ] ] ] } },
{ "type": "Feature", "properties": { "OBJECTID": 10, "Comments": "Stage 1 and 2 construction zones", "FSource": "created from markup provided by Transport specialists.", "SourceDate": 20251110.0, "Supplier": "MOTTM", "output_gdb_path": "C:\\Users\\bri86955\\Mott MacDonald\\MGO - Moata Geospatial - JBR2HR\\02Data/GDA2020MGA56/Property.gdb", "output_feature_class": "Transport Planning/JBR2HR_PP_TP_ConstructionZones_M260_MOTTM_7856_20251110", "ECMLink_alias": "ECM Objective Link", "FSource_alias": "Feature Source", "SourceDate_alias": "Source Date", "PlanAccur_alias": "Planimetric Accuracy", "CnstrStage": "Stage 2", "ZoneName": "SB8", "filegdb_type": "geodb_polygon", "fme_feature_type": "Transport/ConstructionZones", "multi_reader_full_id": 0, "multi_reader_id": 0, "multi_reader_keyword": "FILEGDB_1", "multi_reader_type": "FILEGDB", "SHAPE_Length": 1620.2046378620557, "SHAPE_Area": 28651.881336513969 }, "geometry": { "type": "MultiPolygon", "coordinates": [ [ [ [ 150.582509168862714, -35.00799371865552 ], [ 150.582136502877944, -35.009802227904316 ], [ 150.581838293742862, -35.011240333243606 ], [ 150.581482997761697, -35.012953849932565 ], [ 150.581082626480907, -35.014885073168422 ], [ 150.580678437314475, -35.014780757543427 ], [ 150.582123483282118, -35.007942557118291 ], [ 150.582509168862714, -35.00799371865552 ] ] ] ] } },
{ "type": "Feature", "properties": { "OBJECTID": 11, "Comments": "Stage 1 and 2 construction zones", "FSource": "created from markup provided by Transport specialists.", "SourceDate": 20251110.0, "Supplier": "MOTTM", "output_gdb_path": "C:\\Users\\bri86955\\Mott MacDonald\\MGO - Moata Geospatial - JBR2HR\\02Data/GDA2020MGA56/Property.gdb", "output_feature_class": "Transport Planning/JBR2HR_PP_TP_ConstructionZones_M260_MOTTM_7856_20251110", "ECMLink_alias": "ECM Objective Link", "FSource_alias": "Feature Source", "SourceDate_alias": "Source Date", "PlanAccur_alias": "Planimetric Accuracy", "CnstrStage": "Stage 2", "ZoneName": "NB3", "filegdb_type": "geodb_polygon", "fme_feature_type": "Transport/ConstructionZones", "multi_reader_full_id": 0, "multi_reader_id": 0, "multi_reader_keyword": "FILEGDB_1", "multi_reader_type": "FILEGDB", "SHAPE_Length": 1141.8946678617174, "SHAPE_Area": 26122.437019356879 }, "geometry": { "type": "MultiPolygon", "coordinates": [ [ [ [ 150.578777779604422, -35.014852815990793 ], [ 150.580498384844873, -35.015100289303334 ], [ 150.579711021103094, -35.01881857144835 ], [ 150.579501920944267, -35.018804272794021 ], [ 150.579655238831435, -35.018081769527754 ], [ 150.579301784623141, -35.018032007507713 ], [ 150.579584316581958, -35.016571259155647 ], [ 150.57946664820642, -35.016216026422178 ], [ 150.579326245104852, -35.016196450130458 ], [ 150.579534005577813, -35.015188023834263 ], [ 150.578737320363842, -35.015076651623623 ], [ 150.578770532203635, -35.014892914521461 ], [ 150.578777779604422, -35.014852815990793 ] ] ] ] } },
{ "type": "Feature", "properties": { "OBJECTID": 12, "Comments": "Stage 1 and 2 construction zones", "FSource": "created from markup provided by Transport specialists.", "SourceDate": 20251110.0, "Supplier": "MOTTM", "output_gdb_path": "C:\\Users\\bri86955\\Mott MacDonald\\MGO - Moata Geospatial - JBR2HR\\02Data/GDA2020MGA56/Property.gdb", "output_feature_class": "Transport Planning/JBR2HR_PP_TP_ConstructionZones_M260_MOTTM_7856_20251110", "ECMLink_alias": "ECM Objective Link", "FSource_alias": "Feature Source", "SourceDate_alias": "Source Date", "PlanAccur_alias": "Planimetric Accuracy", "CnstrStage": "Stage 2", "ZoneName": "SB9", "filegdb_type": "geodb_polygon", "fme_feature_type": "Transport/ConstructionZones", "multi_reader_full_id": 0, "multi_reader_id": 0, "multi_reader_keyword": "FILEGDB_1", "multi_reader_type": "FILEGDB", "SHAPE_Length": 5267.7798676752063, "SHAPE_Area": 89566.604105131861 }, "geometry": { "type": "MultiPolygon", "coordinates": [ [ [ [ 150.579381879459334, -35.020736733460048 ], [ 150.579861473311951, -35.020817599633133 ], [ 150.579556519643972, -35.022304875557921 ], [ 150.579575426209061, -35.022307433494767 ], [ 150.579556219447483, -35.02240137940953 ], [ 150.579489618586905, -35.023592786318837 ], [ 150.579632449070431, -35.025048571025387 ], [ 150.579982221829226, -35.026250862666075 ], [ 150.579147313333976, -35.02614019687104 ], [ 150.579131372670787, -35.026413919086998 ], [ 150.579110217557627, -35.026777173320163 ], [ 150.579143459494048, -35.027141307797564 ], [ 150.579208819884144, -35.0278572691224 ], [ 150.579249981999027, -35.028704931630557 ], [ 150.57974331681234, -35.029646529131526 ], [ 150.580065935731142, -35.030252439102128 ], [ 150.580361317732695, -35.030804703259264 ], [ 150.580738698729789, -35.031301458755436 ], [ 150.581307870935291, -35.031889582136309 ], [ 150.583160462225976, -35.03383854794631 ], [ 150.583502855397455, -35.034290422662608 ], [ 150.583700978851454, -35.034631342843213 ], [ 150.584155765100945, -35.035576875382496 ], [ 150.584113296421663, -35.037121984991991 ], [ 150.583593914058156, -35.038351967981413 ], [ 150.583116556222137, -35.038887005247474 ], [ 150.582047915231499, -35.039933486062154 ], [ 150.580272002708682, -35.041619838048966 ], [ 150.580098355063797, -35.041472815924593 ], [ 150.580187211445434, -35.04139041872876 ], [ 150.580259370814332, -35.041323519752609 ], [ 150.580301422456103, -35.041284534994659 ], [ 150.580461928643047, -35.04113572957889 ], [ 150.58078486008165, -35.040835945964574 ], [ 150.581305348786657, -35.040343036102612 ], [ 150.581531620554614, -35.040126440214586 ], [ 150.581850648768494, -35.039818394934727 ], [ 150.582200327664395, -35.039482959549829 ], [ 150.582268513253496, -35.039417303406339 ], [ 150.582335376430109, -35.039350732915729 ], [ 150.582400899084149, -35.039283267551298 ], [ 150.582463118610917, -35.039216789205526 ], [ 150.582523921561659, -35.039149430702579 ], [ 150.582583290922344, -35.039081211537628 ], [ 150.582664035031513, -35.039004118044097 ], [ 150.582765877964221, -35.038903371504951 ], [ 150.582898720738996, -35.038761285092846 ], [ 150.583020845578432, -35.038618278153436 ], [ 150.583112531466895, -35.038501613651768 ], [ 150.583186502578911, -35.038400282377332 ], [ 150.583326401372744, -35.038189363343164 ], [ 150.583485629212134, -35.037904403612515 ], [ 150.583600632395104, -35.03765276482504 ], [ 150.583665998085991, -35.037481780568925 ], [ 150.583728580954386, -35.037286822296707 ], [ 150.583815713780695, -35.036958149587967 ], [ 150.583850593358903, -35.036735480866305 ], [ 150.583870003665055, -35.036511539352432 ], [ 150.583873883924213, -35.036287053129243 ], [ 150.583848936390098, -35.035928457868522 ], [ 150.58380833491205, -35.035676210950712 ], [ 150.58374820799699, -35.035426614716812 ], [ 150.583668801893594, -35.035180691800292 ], [ 150.583617183044026, -35.035052881458896 ], [ 150.583502602403712, -35.034800751423667 ], [ 150.583345386822373, -35.034514659124127 ], [ 150.583216999914413, -35.034316790442588 ], [ 150.583075615520443, -35.034125010701786 ], [ 150.582889410688011, -35.033903715120275 ], [ 150.582789764056116, -35.03379696993531 ], [ 150.582381745050526, -35.033373141197856 ], [ 150.581900506694069, -35.032881940746663 ], [ 150.581659887971881, -35.032636341197502 ], [ 150.581385435684354, -35.03235520776105 ], [ 150.580943850624692, -35.031893907246683 ], [ 150.580700635733251, -35.031638049528937 ], [ 150.5806187588108, -35.031524543675928 ], [ 150.580371197480702, -35.031167106485555 ], [ 150.580341420180901, -35.031121999935706 ], [ 150.580268302640974, -35.031014937396684 ], [ 150.580176353017293, -35.030883219955207 ], [ 150.580105210366554, -35.030768665003002 ], [ 150.580092350772588, -35.030747958717093 ], [ 150.580066791852488, -35.030701298316416 ], [ 150.580016496740967, -35.030609477725029 ], [ 150.5799673289861, -35.030525588146197 ], [ 150.579918998479855, -35.030441369093886 ], [ 150.5798715105106, -35.030356826984821 ], [ 150.579771373585203, -35.030174457625264 ], [ 150.57972058659422, -35.030079901978837 ], [ 150.579572069749673, -35.029793298948796 ], [ 150.579368626546568, -35.029359447052478 ], [ 150.579318886211041, -35.029238767001054 ], [ 150.57919776001512, -35.028944891849783 ], [ 150.57882735920461, -35.027894227371242 ], [ 150.57869916841031, -35.027414139684183 ], [ 150.578612998311428, -35.026862533048686 ], [ 150.578623320223414, -35.026862431724055 ], [ 150.578605656355819, -35.02676085826095 ], [ 150.578587496199134, -35.026635733171631 ], [ 150.578572878472329, -35.026510294779982 ], [ 150.578546018084097, -35.026146018945425 ], [ 150.578523740433127, -35.025843893131885 ], [ 150.579381879459334, -35.020736733460048 ] ] ] ] } },
{ "type": "Feature", "properties": { "OBJECTID": 13, "Comments": "Stage 1 and 2 construction zones", "FSource": "created from markup provided by Transport specialists.", "SourceDate": 20251110.0, "Supplier": "MOTTM", "output_gdb_path": "C:\\Users\\bri86955\\Mott MacDonald\\MGO - Moata Geospatial - JBR2HR\\02Data/GDA2020MGA56/Property.gdb", "output_feature_class": "Transport Planning/JBR2HR_PP_TP_ConstructionZones_M260_MOTTM_7856_20251110", "ECMLink_alias": "ECM Objective Link", "FSource_alias": "Feature Source", "SourceDate_alias": "Source Date", "PlanAccur_alias": "Planimetric Accuracy", "CnstrStage": "Stage 2", "ZoneName": "NB4", "filegdb_type": "geodb_polygon", "fme_feature_type": "Transport/ConstructionZones", "multi_reader_full_id": 0, "multi_reader_id": 0, "multi_reader_keyword": "FILEGDB_1", "multi_reader_type": "FILEGDB", "SHAPE_Length": 736.35542871131599, "SHAPE_Area": 15142.970129872083 }, "geometry": { "type": "MultiPolygon", "coordinates": [ [ [ [ 150.578876562743034, -35.021678630855789 ], [ 150.578671326809598, -35.021670209580869 ], [ 150.578683908992986, -35.021610923571046 ], [ 150.578964720993952, -35.020287694340922 ], [ 150.578976978177252, -35.020229936987171 ], [ 150.578870423013541, -35.020215829627553 ], [ 150.578709872672192, -35.020194572957031 ], [ 150.578727084778194, -35.020106591091505 ], [ 150.578756214550623, -35.019957689988537 ], [ 150.578767986403648, -35.019897516959354 ], [ 150.578888787687987, -35.019280023787232 ], [ 150.578974093131905, -35.018843966406145 ], [ 150.579031987412293, -35.018852452658727 ], [ 150.579140029393159, -35.018868290580393 ], [ 150.579478399172189, -35.018915117140544 ], [ 150.579673878816862, -35.018938452580166 ], [ 150.579677728555509, -35.018946472201833 ], [ 150.579680741728055, -35.018954731146472 ], [ 150.579682897089384, -35.018963169493581 ], [ 150.579559277686371, -35.019597116801911 ], [ 150.579391725698429, -35.020365643876708 ], [ 150.579335921763885, -35.02057693050287 ], [ 150.579268080567886, -35.020785820551538 ], [ 150.579188352686373, -35.020991850047785 ], [ 150.579056502057824, -35.021317879619261 ], [ 150.578999268163273, -35.021439048778213 ], [ 150.57893928178143, -35.021559312882303 ], [ 150.578876562743034, -35.021678630855789 ] ] ] ] } },
{ "type": "Feature", "properties": { "OBJECTID": 14, "Comments": "Stage 1 and 2 construction zones", "FSource": "created from markup provided by Transport specialists.", "SourceDate": 20251110.0, "Supplier": "MOTTM", "output_gdb_path": "C:\\Users\\bri86955\\Mott MacDonald\\MGO - Moata Geospatial - JBR2HR\\02Data/GDA2020MGA56/Property.gdb", "output_feature_class": "Transport Planning/JBR2HR_PP_TP_ConstructionZones_M260_MOTTM_7856_20251110", "ECMLink_alias": "ECM Objective Link", "FSource_alias": "Feature Source", "SourceDate_alias": "Source Date", "PlanAccur_alias": "Planimetric Accuracy", "CnstrStage": "Stage 1", "ZoneName": "SB4", "filegdb_type": "geodb_polygon", "fme_feature_type": "Transport/ConstructionZones", "multi_reader_full_id": 0, "multi_reader_id": 0, "multi_reader_keyword": "FILEGDB_1", "multi_reader_type": "FILEGDB", "SHAPE_Length": 4420.7756851239619, "SHAPE_Area": 104227.96419160944 }, "geometry": { "type": "MultiPolygon", "coordinates": [ [ [ [ 150.586758826241066, -34.986496273918505 ], [ 150.587339338709967, -34.98663155774593 ], [ 150.586875324801554, -34.987394694347586 ], [ 150.586800634717434, -34.987741750635927 ], [ 150.587028598089887, -34.988382025890417 ], [ 150.588158482584276, -34.988545303304036 ], [ 150.588021465633091, -34.989167316635864 ], [ 150.586275244238777, -34.988914590802231 ], [ 150.586267421734959, -34.988950070293583 ], [ 150.586026582964791, -34.989486663146273 ], [ 150.585581945557919, -34.99156714670513 ], [ 150.585566749908452, -34.991638241597634 ], [ 150.585521721097592, -34.991848928510869 ], [ 150.585483555333894, -34.992027501908595 ], [ 150.584726719599416, -34.995568445658911 ], [ 150.584589127459509, -34.996155274193427 ], [ 150.584401207381688, -34.997344874195996 ], [ 150.586204965841063, -34.997605439629758 ], [ 150.586079536918248, -34.998195396529177 ], [ 150.58432879601699, -34.99794232829128 ], [ 150.584138608363361, -34.999136817822311 ], [ 150.584130368115041, -34.99973776427013 ], [ 150.584149010334244, -34.999740461268068 ], [ 150.585716897158534, -34.999967309794201 ], [ 150.585306545874118, -35.001973401487852 ], [ 150.584407033266359, -35.001884654845234 ], [ 150.583946624875608, -35.001819076680732 ], [ 150.583833520325499, -35.001817926703815 ], [ 150.583642192635182, -35.00178903915819 ], [ 150.583496264945182, -35.001739932420904 ], [ 150.583345833699525, -35.001669224084765 ], [ 150.583342292434793, -35.00166666910048 ], [ 150.583339031040225, -35.001663873590346 ], [ 150.583336073020888, -35.001660857854851 ], [ 150.583333441828671, -35.00165764399641 ], [ 150.583331155388038, -35.001654255810251 ], [ 150.583329231596792, -35.001650717992518 ], [ 150.583327683893629, -35.001647057854946 ], [ 150.583326524622322, -35.001643302687455 ], [ 150.583325761799898, -35.001639477890841 ], [ 150.583325401094669, -35.001635614227922 ], [ 150.583325444996092, -35.001631738792291 ], [ 150.583325893724322, -35.001627881336795 ], [ 150.583415248163874, -35.001048552700851 ], [ 150.583445235376018, -35.000873080763945 ], [ 150.583450548065827, -35.000653682828137 ], [ 150.583482797766692, -35.000494618471983 ], [ 150.583562165130644, -35.000138696130662 ], [ 150.583646593848471, -34.999737904790301 ], [ 150.583754110231837, -34.999248527062463 ], [ 150.583853627675495, -34.998817636685153 ], [ 150.583976983447883, -34.998122932091249 ], [ 150.58406135000223, -34.997735457318839 ], [ 150.584121324574596, -34.997471845281083 ], [ 150.584202701154339, -34.997089881885508 ], [ 150.584231630269727, -34.996951388389483 ], [ 150.584259489820255, -34.996823186383224 ], [ 150.584287480127159, -34.996693887178608 ], [ 150.584344268979919, -34.996427909183332 ], [ 150.584387675722667, -34.996226812031487 ], [ 150.584395975413486, -34.996188610779249 ], [ 150.584401466531716, -34.996162920078667 ], [ 150.584448738732107, -34.995946701092663 ], [ 150.584472275417085, -34.995818550867178 ], [ 150.584489765753688, -34.995731361980688 ], [ 150.584642487231775, -34.995009003225356 ], [ 150.585005212013328, -34.993294695761989 ], [ 150.585165908680807, -34.992535702096461 ], [ 150.585250963966359, -34.992133967613945 ], [ 150.585295060151594, -34.991926195647636 ], [ 150.585306916564889, -34.991870333177147 ], [ 150.585352098248705, -34.991657445306238 ], [ 150.585425272989028, -34.991310653119953 ], [ 150.585483675353913, -34.991035962999661 ], [ 150.585547362999137, -34.990733969729199 ], [ 150.585632738723803, -34.990348922869686 ], [ 150.58570558398273, -34.99003845937613 ], [ 150.585760511925457, -34.989798927530295 ], [ 150.585760703112214, -34.989798124519062 ], [ 150.585763108890546, -34.989795206551037 ], [ 150.585796686169175, -34.989653216167497 ], [ 150.585848488146326, -34.989546475234818 ], [ 150.585856581185766, -34.989529798603492 ], [ 150.585869686683424, -34.989502795300496 ], [ 150.586055261955664, -34.988680882627783 ], [ 150.586071218586511, -34.988610207523841 ], [ 150.586135480120305, -34.988316079683067 ], [ 150.58620493923047, -34.988022753818292 ], [ 150.58627958202311, -34.987730290943148 ], [ 150.586289742426914, -34.987569289505913 ], [ 150.586334809467417, -34.98743586693891 ], [ 150.586383951936341, -34.987303423277027 ], [ 150.586437139987652, -34.987172041758093 ], [ 150.586532716266447, -34.986963444107204 ], [ 150.586631438268768, -34.986755841048868 ], [ 150.586733291859957, -34.9865492656483 ], [ 150.586758826241066, -34.986496273918505 ] ] ] ] } },
{ "type": "Feature", "properties": { "OBJECTID": 15, "Comments": "Stage 1 and 2 construction zones", "FSource": "created from markup provided by Transport specialists.", "SourceDate": 20251110.0, "Supplier": "MOTTM", "output_gdb_path": "C:\\Users\\bri86955\\Mott MacDonald\\MGO - Moata Geospatial - JBR2HR\\02Data/GDA2020MGA56/Property.gdb", "output_feature_class": "Transport Planning/JBR2HR_PP_TP_ConstructionZones_M260_MOTTM_7856_20251110", "ECMLink_alias": "ECM Objective Link", "FSource_alias": "Feature Source", "SourceDate_alias": "Source Date", "PlanAccur_alias": "Planimetric Accuracy", "CnstrStage": "Stage 1", "ZoneName": "NB1", "filegdb_type": "geodb_polygon", "fme_feature_type": "Transport/ConstructionZones", "multi_reader_full_id": 0, "multi_reader_id": 0, "multi_reader_keyword": "FILEGDB_1", "multi_reader_type": "FILEGDB", "SHAPE_Length": 3754.4403799901606, "SHAPE_Area": 121486.41658509572 }, "geometry": { "type": "MultiPolygon", "coordinates": [ [ [ [ 150.585919515665694, -34.988616137493224 ], [ 150.585690314017626, -34.989631266492623 ], [ 150.585531038555416, -34.990310015609296 ], [ 150.585364200315354, -34.991075600271735 ], [ 150.58518731770323, -34.991910709688057 ], [ 150.584933864815383, -34.993107811976159 ], [ 150.584825971071922, -34.993617398497918 ], [ 150.58471101582154, -34.994160330248945 ], [ 150.584583942148356, -34.994760490999326 ], [ 150.584445027137093, -34.9954146580436 ], [ 150.584342502729925, -34.995924070389556 ], [ 150.584310249908867, -34.996130471187413 ], [ 150.584257249535199, -34.996425468053694 ], [ 150.584117163434939, -34.997083968841316 ], [ 150.584006213103578, -34.997593532043659 ], [ 150.583948214629999, -34.997858102858991 ], [ 150.583892394984531, -34.998109663761412 ], [ 150.583777696119625, -34.998664923109857 ], [ 150.583642521473337, -34.999248666518731 ], [ 150.583543427718013, -34.999699915736755 ], [ 150.583439052265447, -35.00018907541461 ], [ 150.583266996260335, -35.001289817093841 ], [ 150.581942341099449, -35.001106400711883 ], [ 150.58198307998191, -35.000854219489675 ], [ 150.582810043627234, -35.000941570894256 ], [ 150.582864946120964, -35.000947370399743 ], [ 150.583281058659821, -34.998530309833171 ], [ 150.583411923164022, -34.997786137747845 ], [ 150.583457257445247, -34.997528333813833 ], [ 150.583551287998205, -34.997016903503841 ], [ 150.58349669772079, -34.997009291415971 ], [ 150.583601698136363, -34.996499364991678 ], [ 150.583447169175543, -34.996477818917199 ], [ 150.583552170457239, -34.995967880789486 ], [ 150.583606158944434, -34.995975407835033 ], [ 150.584738629839421, -34.990792588219357 ], [ 150.583870413910176, -34.990663389351361 ], [ 150.584013901053396, -34.990026577541585 ], [ 150.584154065786237, -34.989389496481841 ], [ 150.584923655875826, -34.989504123075932 ], [ 150.585076079232806, -34.98890056877763 ], [ 150.585093844304907, -34.988830223693455 ], [ 150.58397442401909, -34.988663734768885 ], [ 150.584267264052784, -34.987332091119697 ], [ 150.584280106256898, -34.987292957077059 ], [ 150.584298713794368, -34.987236255485243 ], [ 150.585285483891312, -34.987406741636285 ], [ 150.585710245221492, -34.987480126433688 ], [ 150.586160458996545, -34.987548973253297 ], [ 150.585919515665694, -34.988616137493224 ] ] ] ] } }
]
}
