{
"type": "FeatureCollection",
"name": "JBR2HR_Drainage basins_20250915",
"crs": { "type": "name", "properties": { "name": "urn:ogc:def:crs:OGC:1.3:CRS84" } },
"xy_coordinate_resolution": 1e-15,
"features": [
{ "type": "Feature", "properties": { "OBJECTID": 1, "Discipline": "UT", "SubDiscipline": "UD", "FSource": "PHUP-MRBJV-JBR2HR-SD-M2D-000002-DRAINAGE.dwg", "Comments": "Converted from \"PHUP-MRBJV-JBR2HR-SD-M2D-000002-DRAINAGE.dwg\" using FME workbench.", "ECMLink": null, "SourceDate": "20250915", "PlanAccur": "", "Supplier": "BENG", "LineWt": null, "HatchName": "GRASS", "Layer": "D DETENTION BASIN HATCH", "Text": null, "LineType": null, "Thickness": "0", "Color": "94", "_source_file_name": null, "_download_path": null, "Last_Updated": null, "_rootname": "PHUP-MRBJV-JBR2HR-SD-M2D-000002-DRAINAGE", "fme_rejection_code": null, "LayerColor": null, "_issues___count": null, "_issues___issue_found": null, "_issues___location_sample_x": null, "_issues___location_sample_y": null, "_issues___location_sample_z": null, "SHAPE_Length": 153.97335470511698, "SHAPE_Area": 1580.1223555317408 }, "geometry": { "type": "MultiPolygon", "coordinates": [ [ [ [ 150.585481490415276, -34.987670363503064 ], [ 150.585470663014718, -34.987714533717977 ], [ 150.585459834506395, -34.987758703909371 ], [ 150.585449007079802, -34.987802874120817 ], [ 150.585438179613703, -34.987847045231469 ], [ 150.585427351066357, -34.987891215417655 ], [ 150.585416523600713, -34.987935385623899 ], [ 150.585405696122052, -34.987979555828403 ], [ 150.585399198512675, -34.988006058649255 ], [ 150.585398934222525, -34.988007075656675 ], [ 150.585398640506867, -34.988008087571217 ], [ 150.585398316297443, -34.988009093470126 ], [ 150.58539787215696, -34.988010341280784 ], [ 150.585397382328779, -34.988011578266146 ], [ 150.585396847986999, -34.988012801745143 ], [ 150.58539626913165, -34.988014011717794 ], [ 150.585395647978686, -34.988015207326711 ], [ 150.585394982365074, -34.988016387627383 ], [ 150.585394275628005, -34.988017550883271 ], [ 150.585393526699107, -34.988018696171665 ], [ 150.585392736699703, -34.988019822613388 ], [ 150.585391906777431, -34.988020928428348 ], [ 150.585391036905776, -34.988022014517476 ], [ 150.585390127164203, -34.988023078177967 ], [ 150.58538918083687, -34.988024119475142 ], [ 150.585388196855575, -34.988025137486282 ], [ 150.585387176367902, -34.988026130431315 ], [ 150.585386120495144, -34.988027097431036 ], [ 150.585385029237244, -34.98802803848546 ], [ 150.585383905904905, -34.988028952759009 ], [ 150.585382749429868, -34.988029839328945 ], [ 150.585381560959775, -34.988030696415173 ], [ 150.585380342657658, -34.988031524962182 ], [ 150.585379094602928, -34.988032322267173 ], [ 150.585377817863787, -34.988033089252838 ], [ 150.585376514656275, -34.988033825061848 ], [ 150.585375185033286, -34.988034527892275 ], [ 150.585373830089566, -34.988035197765925 ], [ 150.585372453109272, -34.988035834748125 ], [ 150.585371051955917, -34.988036436993454 ], [ 150.585369630982001, -34.988037005489979 ], [ 150.585368189145697, -34.988037538414005 ], [ 150.58536672973122, -34.988038035830925 ], [ 150.585365251643822, -34.988038497718932 ], [ 150.585363758220694, -34.988038922341495 ], [ 150.58536225050355, -34.988039311522279 ], [ 150.585360728571885, -34.98803966255845 ], [ 150.585359195683424, -34.988039976416331 ], [ 150.585357650769851, -34.988040252173178 ], [ 150.585356097088948, -34.988040490795271 ], [ 150.585354535788412, -34.988040690502537 ], [ 150.585352967936444, -34.988040852217694 ], [ 150.585351394627821, -34.988040975962512 ], [ 150.585349818078498, -34.988041060879645 ], [ 150.585348238288447, -34.988041106969057 ], [ 150.585346658541937, -34.988041114296131 ], [ 150.585345078838884, -34.98804108286086 ], [ 150.585343500274092, -34.988041012685017 ], [ 150.585341926131719, -34.988040903833983 ], [ 150.585340355317072, -34.988040756285926 ], [ 150.585338916585386, -34.988040587026582 ], [ 150.585337483185583, -34.988040385420426 ], [ 150.585336057307131, -34.988040151511001 ], [ 150.585289550171666, -34.988031976411975 ], [ 150.585236005437537, -34.988022565057541 ], [ 150.585182460743539, -34.988013152779011 ], [ 150.585128914968436, -34.988003740455547 ], [ 150.585097118378229, -34.98799815047802 ], [ 150.585095818713512, -34.987997908259992 ], [ 150.585094527506158, -34.987997639166217 ], [ 150.585093244756138, -34.987997343196618 ], [ 150.585091734600354, -34.987996957963169 ], [ 150.58509023976157, -34.98799653607427 ], [ 150.585088761307986, -34.98799607845266 ], [ 150.585087299266149, -34.987995584197407 ], [ 150.58508585579898, -34.98799505425302 ], [ 150.585084433096, -34.98799448866307 ], [ 150.585083031104233, -34.987993889229465 ], [ 150.585081650918454, -34.987993255973961 ], [ 150.585080293659843, -34.987992588017427 ], [ 150.585078962533203, -34.987991888128036 ], [ 150.585077656443758, -34.987991156284011 ], [ 150.585076377607493, -34.987990391627989 ], [ 150.585075127039715, -34.987989596884574 ], [ 150.585073905861606, -34.987988771174621 ], [ 150.58507271511499, -34.987987916321806 ], [ 150.585071555868126, -34.987987033248857 ], [ 150.585070428147475, -34.98798612105481 ], [ 150.585069335157783, -34.987985182507892 ], [ 150.585068275804389, -34.987984217586295 ], [ 150.585067252276701, -34.987983226333604 ], [ 150.58506626449531, -34.987982211452632 ], [ 150.5850653146762, -34.987981172086023 ], [ 150.585064401671644, -34.987980110013858 ], [ 150.585063528739369, -34.987979026202488 ], [ 150.585062694758221, -34.987977921531026 ], [ 150.585061900796376, -34.987976796922219 ], [ 150.585061147922147, -34.987975653298797 ], [ 150.585060437203794, -34.987974491583493 ], [ 150.585059768588337, -34.987973313578173 ], [ 150.585059143170554, -34.987972119304658 ], [ 150.585058560897465, -34.987970910564805 ], [ 150.585058022863791, -34.987969687380414 ], [ 150.585057528990149, -34.987968452454318 ], [ 150.58505707930297, -34.987967204885578 ], [ 150.58505667588588, -34.987965948321509 ], [ 150.585056317697024, -34.987964680938475 ], [ 150.585056005725278, -34.987963406362013 ], [ 150.585055739970613, -34.987962124592144 ], [ 150.585055520406598, -34.987960836529794 ], [ 150.585055348074974, -34.987959543998628 ], [ 150.585055221881021, -34.987958246976866 ], [ 150.585055142840076, -34.987956948189144 ], [ 150.585055110952084, -34.987955647635438 ], [ 150.58505512616415, -34.98795434711765 ], [ 150.585055188449758, -34.987953047536699 ], [ 150.585055231878272, -34.987952464248743 ], [ 150.58505528406468, -34.987951881135096 ], [ 150.58505534719842, -34.987951298239309 ], [ 150.585055752053336, -34.987947771634602 ], [ 150.585060910611702, -34.987902911702946 ], [ 150.585066069162934, -34.987858051770502 ], [ 150.58507122770709, -34.987813191837319 ], [ 150.585076386244197, -34.987768331903389 ], [ 150.58508154474768, -34.987723472869654 ], [ 150.585086703270576, -34.987678612934211 ], [ 150.585091861786339, -34.987633752998022 ], [ 150.585093519907275, -34.987619335439575 ], [ 150.585093644807728, -34.987618365239584 ], [ 150.585093795928742, -34.987617397364367 ], [ 150.585093973270261, -34.987616431813912 ], [ 150.585094250766332, -34.987615151840856 ], [ 150.585094574055745, -34.98761387908943 ], [ 150.585094943111983, -34.987612614460602 ], [ 150.585095356787377, -34.987611359734437 ], [ 150.585095817271366, -34.987610114954535 ], [ 150.585096322295129, -34.98760888278013 ], [ 150.58509687076392, -34.987607663189443 ], [ 150.585097463745939, -34.98760645710523 ], [ 150.585098100067086, -34.98760526720848 ], [ 150.585098778659074, -34.987604092576504 ], [ 150.58509949946901, -34.987602935011168 ], [ 150.585100262443888, -34.987601796314365 ], [ 150.585101065394241, -34.987600676442504 ], [ 150.585101909388413, -34.987599576318338 ], [ 150.585102792157414, -34.987598498601102 ], [ 150.585103713754279, -34.987597441488937 ], [ 150.585104672978332, -34.987596408563782 ], [ 150.585105669856063, -34.987595398924718 ], [ 150.585106702145083, -34.987594414330069 ], [ 150.585107769818876, -34.987593455680766 ], [ 150.585108871782779, -34.987592522955012 ], [ 150.585110006889067, -34.987591617932907 ], [ 150.585111174016532, -34.987590741493612 ], [ 150.585112372070455, -34.98758989361535 ], [ 150.585113599929656, -34.987589075177262 ], [ 150.585114857541186, -34.987588287981239 ], [ 150.585116143836785, -34.987587531104538 ], [ 150.58511745547932, -34.987586806283709 ], [ 150.585118793537049, -34.987586114441456 ], [ 150.585120155820505, -34.987585455534209 ], [ 150.585121541234969, -34.987584829540197 ], [ 150.585122948632744, -34.987584238239513 ], [ 150.585124376892679, -34.9875836825113 ], [ 150.585125824972948, -34.987583160531898 ], [ 150.585127290604703, -34.987582674960549 ], [ 150.585128773787943, -34.987582225797262 ], [ 150.585130272333174, -34.987581812998478 ], [ 150.585131785145705, -34.987581436542378 ], [ 150.585133311104357, -34.987581097308144 ], [ 150.585134847993174, -34.987580796153125 ], [ 150.585136395812157, -34.987580533077342 ], [ 150.585137951303579, -34.987580307114477 ], [ 150.58513951550924, -34.987580120088204 ], [ 150.585141085171472, -34.98757997103224 ], [ 150.585142660290188, -34.987579859946557 ], [ 150.58514423752834, -34.9875797885677 ], [ 150.58514581693882, -34.987579755093783 ], [ 150.585147397400448, -34.987579760403939 ], [ 150.585148976697326, -34.98757980535558 ], [ 150.585150553787628, -34.987579888124991 ], [ 150.585152127550174, -34.987580009591369 ], [ 150.585153084362076, -34.987580102553359 ], [ 150.585154038587433, -34.987580208985889 ], [ 150.585154990173294, -34.987580330690896 ], [ 150.585158003596575, -34.987580738628075 ], [ 150.585212032755379, -34.98758804300099 ], [ 150.585266060830492, -34.987595347328416 ], [ 150.585320088916603, -34.987602651632166 ], [ 150.585374116987254, -34.987609956813159 ], [ 150.585428145095392, -34.987617261069531 ], [ 150.58543804735254, -34.98761859937175 ], [ 150.585439164279563, -34.987618760423388 ], [ 150.585440275150603, -34.987618941186831 ], [ 150.585441382155182, -34.987619141705643 ], [ 150.58544291639754, -34.987619452591964 ], [ 150.585444438580907, -34.987619801100038 ], [ 150.585445947610566, -34.987620187208066 ], [ 150.585447442418257, -34.987620609993343 ], [ 150.585448920814514, -34.987621069412285 ], [ 150.585450382825798, -34.987621564563973 ], [ 150.58545182519444, -34.987622094482099 ], [ 150.585453247867434, -34.987622660968547 ], [ 150.585454649829501, -34.987623261298708 ], [ 150.585456028891173, -34.987623895429024 ], [ 150.58545738505245, -34.987624563359489 ], [ 150.585458716150328, -34.987625264145599 ], [ 150.585460022211322, -34.987625996886393 ], [ 150.585461299951191, -34.987626761516545 ], [ 150.585462549369993, -34.987627558036046 ], [ 150.585463770547079, -34.987628383742084 ], [ 150.585464961266524, -34.987629239491987 ], [ 150.585466119391839, -34.987630123440368 ], [ 150.585467246017743, -34.987631035608977 ], [ 150.585468338981229, -34.987631975053283 ], [ 150.585469397214069, -34.987632940850609 ], [ 150.585470419647947, -34.987633932078204 ], [ 150.585471406309409, -34.987634947835133 ], [ 150.585472356103651, -34.987635988099605 ], [ 150.585473268015392, -34.987637050147015 ], [ 150.585474139828676, -34.987638134834725 ], [ 150.585474972717662, -34.987639239481709 ], [ 150.585475765561114, -34.987640364967127 ], [ 150.585476517343722, -34.987641508566369 ], [ 150.585477228065514, -34.987642670279421 ], [ 150.585477895563486, -34.987643849161785 ], [ 150.585478519890557, -34.987645043411568 ], [ 150.58547910104673, -34.987646253028778 ], [ 150.585479639084951, -34.987647476211514 ], [ 150.585480131842218, -34.987648712015307 ], [ 150.585480579371449, -34.987649958638208 ], [ 150.585480981646214, -34.98765121698122 ], [ 150.585481338772354, -34.987652483440549 ], [ 150.585481650723409, -34.987653758917141 ], [ 150.585481915389323, -34.987655040664599 ], [ 150.585482133864843, -34.987656328704681 ], [ 150.585482305081655, -34.987657622114703 ], [ 150.585482430213943, -34.987658918213604 ], [ 150.585482508166905, -34.987660216979577 ], [ 150.585482538967085, -34.987661517511732 ], [ 150.585482522667405, -34.987662818008133 ], [ 150.585482459294326, -34.98766411756786 ], [ 150.585482348900769, -34.987665414389006 ], [ 150.585482192581452, -34.987666708493393 ], [ 150.585481988199859, -34.987667998035533 ], [ 150.585481737971918, -34.987669282158059 ], [ 150.585481659458225, -34.987669642986567 ], [ 150.585481576592088, -34.987670002827031 ], [ 150.585481490441737, -34.987670362602117 ], [ 150.585481490441737, -34.987670362602117 ], [ 150.585481490415276, -34.987670363503064 ], [ 150.585481490415276, -34.987670363503064 ] ] ] ] } },
{ "type": "Feature", "properties": { "OBJECTID": 2, "Discipline": "UT", "SubDiscipline": "UD", "FSource": "PHUP-MRBJV-JBR2HR-SD-M2D-000002-DRAINAGE.dwg", "Comments": "Converted from \"PHUP-MRBJV-JBR2HR-SD-M2D-000002-DRAINAGE.dwg\" using FME workbench.", "ECMLink": null, "SourceDate": "20250915", "PlanAccur": "", "Supplier": "BENG", "LineWt": null, "HatchName": "GRASS", "Layer": "D DETENTION BASIN HATCH", "Text": null, "LineType": null, "Thickness": "0", "Color": "94", "_source_file_name": null, "_download_path": null, "Last_Updated": null, "_rootname": "PHUP-MRBJV-JBR2HR-SD-M2D-000002-DRAINAGE", "fme_rejection_code": null, "LayerColor": null, "_issues___count": null, "_issues___issue_found": null, "_issues___location_sample_x": null, "_issues___location_sample_y": null, "_issues___location_sample_z": null, "SHAPE_Length": 126.32134492339277, "SHAPE_Area": 777.3087380388306 }, "geometry": { "type": "MultiPolygon", "coordinates": [ [ [ [ 150.580175917251324, -35.015156436554157 ], [ 150.580166346649207, -35.01520080324682 ], [ 150.580156774940235, -35.015245169916149 ], [ 150.580147204314613, -35.015289536605856 ], [ 150.580137633677225, -35.015333903294099 ], [ 150.580128063028098, -35.01537826998085 ], [ 150.580118492367234, -35.015422636666152 ], [ 150.580108921694602, -35.015467003349968 ], [ 150.580099349915145, -35.015511370010458 ], [ 150.58009552208145, -35.015529116511523 ], [ 150.580095372353071, -35.015529772495441 ], [ 150.580095208441548, -35.015530426393461 ], [ 150.580095030373428, -35.015531077304651 ], [ 150.58009452039002, -35.01553269157062 ], [ 150.580093920071164, -35.015534285103662 ], [ 150.580093230618218, -35.015535854321847 ], [ 150.580092453232425, -35.015537395643328 ], [ 150.58009159021023, -35.015538905508016 ], [ 150.580090642752964, -35.015540380334023 ], [ 150.580089614198982, -35.015541818385039 ], [ 150.580088505776217, -35.015543215178219 ], [ 150.580087319754483, -35.015544568054466 ], [ 150.580086058403651, -35.015545874354615 ], [ 150.580084726157224, -35.015547132364247 ], [ 150.580083323174506, -35.015548336677703 ], [ 150.580081854931024, -35.015549487404229 ], [ 150.580080322628078, -35.015550580961929 ], [ 150.580078731820834, -35.015551614757221 ], [ 150.580077083657471, -35.015552587010099 ], [ 150.580075382598068, -35.015553495105131 ], [ 150.580073631981037, -35.015554337305993 ], [ 150.580071836213307, -35.015555112799113 ], [ 150.58006999868644, -35.015555818046323 ], [ 150.580068123780791, -35.015556453134984 ], [ 150.580066214834773, -35.015557016328778 ], [ 150.580064276281888, -35.015557505913215 ], [ 150.580062312529094, -35.015557921074752 ], [ 150.580060326861684, -35.015558261878937 ], [ 150.580058324834852, -35.015558525732175 ], [ 150.58005630970726, -35.015558713600974 ], [ 150.580055748651858, -35.015558751988465 ], [ 150.580055187782307, -35.01555878406942 ], [ 150.580054625976999, -35.015558810722908 ], [ 150.580025923612567, -35.01556001759775 ], [ 150.579971224332525, -35.015562317630199 ], [ 150.579970448691029, -35.015562349933212 ], [ 150.579968679935121, -35.01556239487558 ], [ 150.579966910715171, -35.015562381213442 ], [ 150.579965144316475, -35.015562309012338 ], [ 150.57996312507052, -35.015562153339232 ], [ 150.57996111684264, -35.015561921261401 ], [ 150.579959124013271, -35.015561612866236 ], [ 150.579957150936224, -35.015561229142037 ], [ 150.579955200896819, -35.015560770154373 ], [ 150.579953279317436, -35.015560237814356 ], [ 150.579951389456852, -35.015559633088458 ], [ 150.579949535668788, -35.015558956965009 ], [ 150.579947721185562, -35.015558211311422 ], [ 150.579945951455983, -35.01555739713789 ], [ 150.579944229712339, -35.015556516311833 ], [ 150.579942558091659, -35.015555570678806 ], [ 150.57994094311141, -35.015554562171779 ], [ 150.579939385787043, -35.015553493515391 ], [ 150.579937889324185, -35.015552367478016 ], [ 150.579936459171762, -35.015551185069818 ], [ 150.579935096345167, -35.015549949015472 ], [ 150.579933805118628, -35.015548663006101 ], [ 150.579932587629173, -35.015547328887266 ], [ 150.579931445960767, -35.015545950306425 ], [ 150.579930383345584, -35.015544529130977 ], [ 150.579929400745982, -35.015543069887464 ], [ 150.579928502515742, -35.015541573564207 ], [ 150.579927689590619, -35.015540045588672 ], [ 150.579926963012639, -35.015538487784568 ], [ 150.579926324839136, -35.015536904700298 ], [ 150.579925776112134, -35.015535298159548 ], [ 150.579925318888996, -35.015533672710703 ], [ 150.579924953063568, -35.015532031957513 ], [ 150.579924680746302, -35.015530378646467 ], [ 150.579924500709325, -35.015528717260416 ], [ 150.579924415063175, -35.015527050545835 ], [ 150.579924422606496, -35.015525382084633 ], [ 150.579924524328135, -35.015523715502397 ], [ 150.579924720095335, -35.015522055303791 ], [ 150.579925008733312, -35.015520404169777 ], [ 150.579925032939457, -35.015520289265197 ], [ 150.579925056023939, -35.015520175239708 ], [ 150.5799250813252, -35.015520060356963 ], [ 150.579930324279076, -35.015495755090441 ], [ 150.579939895051723, -35.015451388424985 ], [ 150.579949465812575, -35.01540702175808 ], [ 150.579959036561746, -35.01536265508966 ], [ 150.579968608394211, -35.015318288441641 ], [ 150.579978179119848, -35.015273921770309 ], [ 150.579987749833748, -35.015229555097477 ], [ 150.579997320535881, -35.015185188423196 ], [ 150.580006891226276, -35.015140821747423 ], [ 150.580009305107836, -35.015129633143182 ], [ 150.580009589092384, -35.015128437155852 ], [ 150.580009921021968, -35.015127250238194 ], [ 150.580010301991706, -35.015126072412116 ], [ 150.580010902308658, -35.015124478879358 ], [ 150.580011590664185, -35.015122909639608 ], [ 150.580012366951962, -35.015121368296612 ], [ 150.5800132288756, -35.015119858410422 ], [ 150.580014175260402, -35.015118382661989 ], [ 150.580015202714804, -35.015116944589508 ], [ 150.580016311132567, -35.015115547796725 ], [ 150.580017496080274, -35.015114193998116 ], [ 150.580018756356594, -35.015112886775562 ], [ 150.580020089691629, -35.015111628788191 ], [ 150.580021490503754, -35.015110423530494 ], [ 150.580022958739789, -35.015109272804324 ], [ 150.580024489939774, -35.01510817922513 ], [ 150.580026080765293, -35.015107144529217 ], [ 150.580027728919958, -35.015106172276639 ], [ 150.580029428901724, -35.01510526325908 ], [ 150.580031179535865, -35.015104420157485 ], [ 150.58003297419873, -35.015103644642679 ], [ 150.580034811768627, -35.015102937593717 ], [ 150.580036686663931, -35.015102302505113 ], [ 150.580038595625922, -35.015101738410387 ], [ 150.580040533099464, -35.015101247903118 ], [ 150.580042496867833, -35.015100831840527 ], [ 150.580044482524102, -35.015100491036158 ], [ 150.580046484566282, -35.015100226281739 ], [ 150.580048499682533, -35.015100038412641 ], [ 150.58005052242396, -35.015099926418692 ], [ 150.580052550547265, -35.015099892058082 ], [ 150.580054577481945, -35.015099935199714 ], [ 150.580056599969254, -35.015100054877109 ], [ 150.580058290331522, -35.015100215706276 ], [ 150.580059971461395, -35.015100429537675 ], [ 150.58006164114218, -35.015100697228533 ], [ 150.580086398462555, -35.015105074643166 ], [ 150.580139946310453, -35.015114542745344 ], [ 150.580141990154175, -35.015114904440033 ], [ 150.5801432879027, -35.015115151188049 ], [ 150.580144574865983, -35.015115429272171 ], [ 150.580145850990959, -35.015115740494274 ], [ 150.58014777250844, -35.015116274632767 ], [ 150.580149661212459, -35.015116881135313 ], [ 150.58015151381781, -35.015117559936364 ], [ 150.58015332714541, -35.015118307366642 ], [ 150.580155095693215, -35.015119124217861 ], [ 150.580156816282226, -35.015120006820723 ], [ 150.580158485653726, -35.015120954208776 ], [ 150.580160099506941, -35.015121963591838 ], [ 150.580161655678268, -35.015123034025258 ], [ 150.580163148798505, -35.015124161796081 ], [ 150.58016457779911, -35.015125345981531 ], [ 150.580165938405884, -35.015126582890481 ], [ 150.58016722848177, -35.015127870677361 ], [ 150.580168443752655, -35.015129205651071 ], [ 150.580169583176513, -35.015130585987869 ], [ 150.580170643574291, -35.015132008018497 ], [ 150.580171622835422, -35.015133468996453 ], [ 150.580172518876026, -35.015134965274306 ], [ 150.580173330680566, -35.015136494127404 ], [ 150.580174053948411, -35.015138052765565 ], [ 150.580174689907409, -35.01513963670596 ], [ 150.580175235325328, -35.015141244081164 ], [ 150.580175690361528, -35.01514286948558 ], [ 150.580176053974043, -35.015144511095471 ], [ 150.580176324105395, -35.01514616436252 ], [ 150.580176500835307, -35.015147826583863 ], [ 150.580176584296481, -35.015149493254867 ], [ 150.580176573473494, -35.015151161650856 ], [ 150.580176468499133, -35.015152827267151 ], [ 150.580176270521605, -35.015154488323745 ], [ 150.580176166974496, -35.015155138918807 ], [ 150.580176049217755, -35.015155788328954 ], [ 150.58017591727787, -35.015156435653225 ], [ 150.58017591727787, -35.015156435653225 ], [ 150.58017591727787, -35.015156435653225 ], [ 150.580175917251324, -35.015156436554157 ] ] ] ] } }
]
}
