{
"type": "FeatureCollection",
"name": "LCA_Rural Residential",
"crs": { "type": "name", "properties": { "name": "urn:ogc:def:crs:OGC:1.3:CRS84" } },
"features": [
{ "type": "Feature", "properties": { "OBJECTID": 1, "Comments": "Converted from shapefile provided on 25/09/2025", "FSource": "SPMM delivered shapefile", "SourceDate": "25/09/2025", "Supplier": "SPMM", "id": 0, "LCZ": "Rural Residential", "multi_reader_type": "SHAPEFILE", "shapefile_type": "shapefile_polygon", "SHAPE_Length": 3228.9237532187481, "SHAPE_Area": 616115.08732906345 }, "geometry": { "type": "MultiPolygon", "coordinates": [ [ [ [ 150.578907700487235, -34.987835262660845 ], [ 150.585648031170308, -34.988762384853388 ], [ 150.585567370961797, -34.989076036434668 ], [ 150.584680587301847, -34.993130177793503 ], [ 150.583741237281345, -34.997568167895139 ], [ 150.577042414953041, -34.996643544415299 ], [ 150.578907700487235, -34.987835262660845 ] ] ] ] } },
{ "type": "Feature", "properties": { "OBJECTID": 2, "Comments": "Converted from shapefile provided on 25/09/2025", "FSource": "SPMM delivered shapefile", "SourceDate": "25/09/2025", "Supplier": "SPMM", "id": 0, "LCZ": "Rural Residential", "multi_reader_type": "SHAPEFILE", "shapefile_type": "shapefile_polygon", "SHAPE_Length": 5091.5162364615953, "SHAPE_Area": 1200766.0455002668 }, "geometry": { "type": "MultiPolygon", "coordinates": [ [ [ [ 150.586371374350165, -34.988793748051584 ], [ 150.59296173682111, -34.989705545152198 ], [ 150.589441317614302, -35.006740439540678 ], [ 150.582668913987334, -35.006010801401068 ], [ 150.584576987548502, -34.996654317997049 ], [ 150.585747244452222, -34.991273838866512 ], [ 150.586371374350165, -34.988793748051584 ] ] ] ] } },
{ "type": "Feature", "properties": { "OBJECTID": 4, "Comments": "Converted from shapefile provided on 25/09/2025", "FSource": "SPMM delivered shapefile", "SourceDate": "25/09/2025", "Supplier": "SPMM", "id": 0, "LCZ": "Rural Residential", "multi_reader_type": "SHAPEFILE", "shapefile_type": "shapefile_polygon", "SHAPE_Length": 2074.2599075022567, "SHAPE_Area": 256199.34644805404 }, "geometry": { "type": "MultiPolygon", "coordinates": [ [ [ [ 150.576144102528247, -35.000502912344956 ], [ 150.58298704935541, -35.001354882832736 ], [ 150.582193191731534, -35.005063850773304 ], [ 150.575497714075965, -35.004102749911581 ], [ 150.575914220274655, -35.002099913160194 ], [ 150.576144102528247, -35.000502912344956 ] ] ] ] } },
{ "type": "Feature", "properties": { "OBJECTID": 8, "Comments": "Converted from shapefile provided on 25/09/2025", "FSource": "SPMM delivered shapefile", "SourceDate": "25/09/2025", "Supplier": "SPMM", "id": 0, "LCZ": "Rural Residential", "multi_reader_type": "SHAPEFILE", "shapefile_type": "shapefile_polygon", "SHAPE_Length": 3720.4265276988981, "SHAPE_Area": 724286.75513748638 }, "geometry": { "type": "MultiPolygon", "coordinates": [ [ [ [ 150.581208432520356, -35.012916048890233 ], [ 150.583943859624242, -35.013319538580987 ], [ 150.584929001044372, -35.011531366797094 ], [ 150.588228349031567, -35.011956635779924 ], [ 150.586035875148582, -35.023180929844905 ], [ 150.579227523658375, -35.022262479224828 ], [ 150.581208432520356, -35.012916048890233 ] ] ] ] } },
{ "type": "Feature", "properties": { "OBJECTID": 12, "Comments": "Converted from shapefile provided on 25/09/2025", "FSource": "SPMM delivered shapefile", "SourceDate": "25/09/2025", "Supplier": "SPMM", "id": 0, "LCZ": "Rural Residential", "multi_reader_type": "SHAPEFILE", "shapefile_type": "shapefile_polygon", "SHAPE_Length": 2814.8505225762478, "SHAPE_Area": 489986.87681783235 }, "geometry": { "type": "MultiPolygon", "coordinates": [ [ [ [ 150.573989971281122, -35.011027847996154 ], [ 150.58077088287331, -35.012031487425745 ], [ 150.579479466225052, -35.018917355135436 ], [ 150.572624456151885, -35.017946415470114 ], [ 150.573989971281122, -35.011027847996154 ] ] ] ] } }
]
}
