{
"type": "FeatureCollection",
"name": "Bus stops",
"crs": { "type": "name", "properties": { "name": "urn:ogc:def:crs:OGC:1.3:CRS84" } },
"features": [
{ "type": "Feature", "properties": { "OBJECTID": 1, "Comments": "Bus Stops extracted from TfNSW GTFS", "FSource": "https://opendata.transport.nsw.gov.au/data/dataset/timetables-complete-gtfs", "SourceDate": 20250805.0, "Supplier": "TFNSW", "output_gdb_path": "C:\\Users\\bri86955\\Mott MacDonald\\MGO - Moata Geospatial - JBR2HR\\02Data/GDA2020MGA56/Property.gdb", "output_feature_class": "Transport Planning/JBR2HR_PP_TP_BusStops_M260_TFNSW_7856_20250805", "ECMLink_alias": "ECM Objective Link", "FSource_alias": "Feature Source", "SourceDate_alias": "Source Date", "PlanAccur_alias": "Planimetric Accuracy", "stop_id": "2540139", "stop_code": 2540139.0, "stop_name": "Hawken Rd Opp Oldham Cl", "location_type": null, "parent_station": "G2540139", "wheelchair_boarding": 0, "_predicate": "INTERSECTS", "fme_feature_type": "stops", "gtfs_type": "gtfs_point", "level_id": "Level 0", "multi_reader_full_id": 0, "multi_reader_id": 0, "multi_reader_keyword": "GTFS_2", "multi_reader_type": "GTFS", "Direction": "Northbound" }, "geometry": { "type": "Point", "coordinates": [ 150.584166030409648, -35.037257919696373 ] } },
{ "type": "Feature", "properties": { "OBJECTID": 2, "Comments": "Bus Stops extracted from TfNSW GTFS", "FSource": "https://opendata.transport.nsw.gov.au/data/dataset/timetables-complete-gtfs", "SourceDate": 20250805.0, "Supplier": "TFNSW", "output_gdb_path": "C:\\Users\\bri86955\\Mott MacDonald\\MGO - Moata Geospatial - JBR2HR\\02Data/GDA2020MGA56/Property.gdb", "output_feature_class": "Transport Planning/JBR2HR_PP_TP_BusStops_M260_TFNSW_7856_20250805", "ECMLink_alias": "ECM Objective Link", "FSource_alias": "Feature Source", "SourceDate_alias": "Source Date", "PlanAccur_alias": "Planimetric Accuracy", "stop_id": "2540140", "stop_code": 2540140.0, "stop_name": "Princes Hwy At Blackbutt Range Rd", "location_type": null, "parent_station": "G2540140", "wheelchair_boarding": 0, "_predicate": "INTERSECTS", "fme_feature_type": "stops", "gtfs_type": "gtfs_point", "level_id": "Level 0", "multi_reader_full_id": 0, "multi_reader_id": 0, "multi_reader_keyword": "GTFS_2", "multi_reader_type": "GTFS", "Direction": "Northbound" }, "geometry": { "type": "Point", "coordinates": [ 150.578774490355016, -35.02292700036989 ] } },
{ "type": "Feature", "properties": { "OBJECTID": 3, "Comments": "Bus Stops extracted from TfNSW GTFS", "FSource": "https://opendata.transport.nsw.gov.au/data/dataset/timetables-complete-gtfs", "SourceDate": 20250805.0, "Supplier": "TFNSW", "output_gdb_path": "C:\\Users\\bri86955\\Mott MacDonald\\MGO - Moata Geospatial - JBR2HR\\02Data/GDA2020MGA56/Property.gdb", "output_feature_class": "Transport Planning/JBR2HR_PP_TP_BusStops_M260_TFNSW_7856_20250805", "ECMLink_alias": "ECM Objective Link", "FSource_alias": "Feature Source", "SourceDate_alias": "Source Date", "PlanAccur_alias": "Planimetric Accuracy", "stop_id": "2540141", "stop_code": 2540141.0, "stop_name": "Princes Hwy Opp Gorindah Rd", "location_type": null, "parent_station": "G2540141", "wheelchair_boarding": 0, "_predicate": "INTERSECTS", "fme_feature_type": "stops", "gtfs_type": "gtfs_point", "level_id": "Level 0", "multi_reader_full_id": 0, "multi_reader_id": 0, "multi_reader_keyword": "GTFS_2", "multi_reader_type": "GTFS", "Direction": "Northbound" }, "geometry": { "type": "Point", "coordinates": [ 150.58191485990173, -35.007541960071755 ] } },
{ "type": "Feature", "properties": { "OBJECTID": 4, "Comments": "Bus Stops extracted from TfNSW GTFS", "FSource": "https://opendata.transport.nsw.gov.au/data/dataset/timetables-complete-gtfs", "SourceDate": 20250805.0, "Supplier": "TFNSW", "output_gdb_path": "C:\\Users\\bri86955\\Mott MacDonald\\MGO - Moata Geospatial - JBR2HR\\02Data/GDA2020MGA56/Property.gdb", "output_feature_class": "Transport Planning/JBR2HR_PP_TP_BusStops_M260_TFNSW_7856_20250805", "ECMLink_alias": "ECM Objective Link", "FSource_alias": "Feature Source", "SourceDate_alias": "Source Date", "PlanAccur_alias": "Planimetric Accuracy", "stop_id": "2540142", "stop_code": 2540142.0, "stop_name": "1024 Princes Hwy", "location_type": null, "parent_station": "G2540142", "wheelchair_boarding": 0, "_predicate": "INTERSECTS", "fme_feature_type": "stops", "gtfs_type": "gtfs_point", "level_id": "Level 0", "multi_reader_full_id": 0, "multi_reader_id": 0, "multi_reader_keyword": "GTFS_2", "multi_reader_type": "GTFS", "Direction": "Northbound" }, "geometry": { "type": "Point", "coordinates": [ 150.584658829823184, -34.994385359921267 ] } },
{ "type": "Feature", "properties": { "OBJECTID": 5, "Comments": "Bus Stops extracted from TfNSW GTFS", "FSource": "https://opendata.transport.nsw.gov.au/data/dataset/timetables-complete-gtfs", "SourceDate": 20250805.0, "Supplier": "TFNSW", "output_gdb_path": "C:\\Users\\bri86955\\Mott MacDonald\\MGO - Moata Geospatial - JBR2HR\\02Data/GDA2020MGA56/Property.gdb", "output_feature_class": "Transport Planning/JBR2HR_PP_TP_BusStops_M260_TFNSW_7856_20250805", "ECMLink_alias": "ECM Objective Link", "FSource_alias": "Feature Source", "SourceDate_alias": "Source Date", "PlanAccur_alias": "Planimetric Accuracy", "stop_id": "2540143", "stop_code": 2540143.0, "stop_name": "Princes Hwy Opp Jervis Bay Rd", "location_type": null, "parent_station": "G2540143", "wheelchair_boarding": 0, "_predicate": "INTERSECTS", "fme_feature_type": "stops", "gtfs_type": "gtfs_point", "level_id": "Level 0", "multi_reader_full_id": 0, "multi_reader_id": 0, "multi_reader_keyword": "GTFS_2", "multi_reader_type": "GTFS", "Direction": "Northbound" }, "geometry": { "type": "Point", "coordinates": [ 150.587570149768737, -34.983071089589203 ] } },
{ "type": "Feature", "properties": { "OBJECTID": 6, "Comments": "Bus Stops extracted from TfNSW GTFS", "FSource": "https://opendata.transport.nsw.gov.au/data/dataset/timetables-complete-gtfs", "SourceDate": 20250805.0, "Supplier": "TFNSW", "output_gdb_path": "C:\\Users\\bri86955\\Mott MacDonald\\MGO - Moata Geospatial - JBR2HR\\02Data/GDA2020MGA56/Property.gdb", "output_feature_class": "Transport Planning/JBR2HR_PP_TP_BusStops_M260_TFNSW_7856_20250805", "ECMLink_alias": "ECM Objective Link", "FSource_alias": "Feature Source", "SourceDate_alias": "Source Date", "PlanAccur_alias": "Planimetric Accuracy", "stop_id": "2540147", "stop_code": 2540147.0, "stop_name": "1033 Princes Hwy", "location_type": null, "parent_station": "G2540147", "wheelchair_boarding": 0, "_predicate": "INTERSECTS", "fme_feature_type": "stops", "gtfs_type": "gtfs_point", "level_id": "Level 0", "multi_reader_full_id": 0, "multi_reader_id": 0, "multi_reader_keyword": "GTFS_2", "multi_reader_type": "GTFS", "Direction": "Southbound" }, "geometry": { "type": "Point", "coordinates": [ 150.584867409798989, -34.994397210432915 ] } },
{ "type": "Feature", "properties": { "OBJECTID": 7, "Comments": "Bus Stops extracted from TfNSW GTFS", "FSource": "https://opendata.transport.nsw.gov.au/data/dataset/timetables-complete-gtfs", "SourceDate": 20250805.0, "Supplier": "TFNSW", "output_gdb_path": "C:\\Users\\bri86955\\Mott MacDonald\\MGO - Moata Geospatial - JBR2HR\\02Data/GDA2020MGA56/Property.gdb", "output_feature_class": "Transport Planning/JBR2HR_PP_TP_BusStops_M260_TFNSW_7856_20250805", "ECMLink_alias": "ECM Objective Link", "FSource_alias": "Feature Source", "SourceDate_alias": "Source Date", "PlanAccur_alias": "Planimetric Accuracy", "stop_id": "2540149", "stop_code": 2540149.0, "stop_name": "Princes Hwy Opp Blackbutt Range Rd", "location_type": null, "parent_station": "G2540140", "wheelchair_boarding": 0, "_predicate": "INTERSECTS", "fme_feature_type": "stops", "gtfs_type": "gtfs_point", "level_id": "Level 0", "multi_reader_full_id": 0, "multi_reader_id": 0, "multi_reader_keyword": "GTFS_2", "multi_reader_type": "GTFS", "Direction": "Southbound" }, "geometry": { "type": "Point", "coordinates": [ 150.578888660182685, -35.023284090182067 ] } },
{ "type": "Feature", "properties": { "OBJECTID": 8, "Comments": "Bus Stops extracted from TfNSW GTFS", "FSource": "https://opendata.transport.nsw.gov.au/data/dataset/timetables-complete-gtfs", "SourceDate": 20250805.0, "Supplier": "TFNSW", "output_gdb_path": "C:\\Users\\bri86955\\Mott MacDonald\\MGO - Moata Geospatial - JBR2HR\\02Data/GDA2020MGA56/Property.gdb", "output_feature_class": "Transport Planning/JBR2HR_PP_TP_BusStops_M260_TFNSW_7856_20250805", "ECMLink_alias": "ECM Objective Link", "FSource_alias": "Feature Source", "SourceDate_alias": "Source Date", "PlanAccur_alias": "Planimetric Accuracy", "stop_id": "2540150", "stop_code": 2540150.0, "stop_name": "Hawken Rd After Oldham Cl", "location_type": null, "parent_station": "G2540150", "wheelchair_boarding": 0, "_predicate": "INTERSECTS", "fme_feature_type": "stops", "gtfs_type": "gtfs_point", "level_id": "Level 0", "multi_reader_full_id": 0, "multi_reader_id": 0, "multi_reader_keyword": "GTFS_2", "multi_reader_type": "GTFS", "Direction": null }, "geometry": { "type": "Point", "coordinates": [ 150.584419980121822, -35.03705215957276 ] } },
{ "type": "Feature", "properties": { "OBJECTID": 9, "Comments": "Bus Stops extracted from TfNSW GTFS", "FSource": "https://opendata.transport.nsw.gov.au/data/dataset/timetables-complete-gtfs", "SourceDate": 20250805.0, "Supplier": "TFNSW", "output_gdb_path": "C:\\Users\\bri86955\\Mott MacDonald\\MGO - Moata Geospatial - JBR2HR\\02Data/GDA2020MGA56/Property.gdb", "output_feature_class": "Transport Planning/JBR2HR_PP_TP_BusStops_M260_TFNSW_7856_20250805", "ECMLink_alias": "ECM Objective Link", "FSource_alias": "Feature Source", "SourceDate_alias": "Source Date", "PlanAccur_alias": "Planimetric Accuracy", "stop_id": "2540374", "stop_code": 2540374.0, "stop_name": "Princes Hwy At Sinclair Rd", "location_type": null, "parent_station": "G2540374", "wheelchair_boarding": 0, "_predicate": "INTERSECTS", "fme_feature_type": "stops", "gtfs_type": "gtfs_point", "level_id": "Level 0", "multi_reader_full_id": 0, "multi_reader_id": 0, "multi_reader_keyword": "GTFS_2", "multi_reader_type": "GTFS", "Direction": "Northbound" }, "geometry": { "type": "Point", "coordinates": [ 150.58027895994806, -35.015231920043547 ] } },
{ "type": "Feature", "properties": { "OBJECTID": 10, "Comments": "Bus Stops extracted from TfNSW GTFS", "FSource": "https://opendata.transport.nsw.gov.au/data/dataset/timetables-complete-gtfs", "SourceDate": 20250805.0, "Supplier": "TFNSW", "output_gdb_path": "C:\\Users\\bri86955\\Mott MacDonald\\MGO - Moata Geospatial - JBR2HR\\02Data/GDA2020MGA56/Property.gdb", "output_feature_class": "Transport Planning/JBR2HR_PP_TP_BusStops_M260_TFNSW_7856_20250805", "ECMLink_alias": "ECM Objective Link", "FSource_alias": "Feature Source", "SourceDate_alias": "Source Date", "PlanAccur_alias": "Planimetric Accuracy", "stop_id": "2540407", "stop_code": 2540407.0, "stop_name": "Princes Hwy After Jervis Bay Rd", "location_type": null, "parent_station": "G2540407", "wheelchair_boarding": 0, "_predicate": "INTERSECTS", "fme_feature_type": "stops", "gtfs_type": "gtfs_point", "level_id": "Level 0", "multi_reader_full_id": 0, "multi_reader_id": 0, "multi_reader_keyword": "GTFS_2", "multi_reader_type": "GTFS", "Direction": "Southbound" }, "geometry": { "type": "Point", "coordinates": [ 150.587632440537163, -34.983745099985825 ] } },
{ "type": "Feature", "properties": { "OBJECTID": 11, "Comments": "Bus Stops extracted from TfNSW GTFS", "FSource": "https://opendata.transport.nsw.gov.au/data/dataset/timetables-complete-gtfs", "SourceDate": 20250805.0, "Supplier": "TFNSW", "output_gdb_path": "C:\\Users\\bri86955\\Mott MacDonald\\MGO - Moata Geospatial - JBR2HR\\02Data/GDA2020MGA56/Property.gdb", "output_feature_class": "Transport Planning/JBR2HR_PP_TP_BusStops_M260_TFNSW_7856_20250805", "ECMLink_alias": "ECM Objective Link", "FSource_alias": "Feature Source", "SourceDate_alias": "Source Date", "PlanAccur_alias": "Planimetric Accuracy", "stop_id": "2540449", "stop_code": 2540449.0, "stop_name": "Hawken Rd Before Princes Hwy", "location_type": null, "parent_station": "G2540449", "wheelchair_boarding": 0, "_predicate": "INTERSECTS", "fme_feature_type": "stops", "gtfs_type": "gtfs_point", "level_id": "Level 0", "multi_reader_full_id": 0, "multi_reader_id": 0, "multi_reader_keyword": "GTFS_2", "multi_reader_type": "GTFS", "Direction": "Northbound" }, "geometry": { "type": "Point", "coordinates": [ 150.578987349530365, -35.026047659810445 ] } },
{ "type": "Feature", "properties": { "OBJECTID": 12, "Comments": "Bus Stops extracted from TfNSW GTFS", "FSource": "https://opendata.transport.nsw.gov.au/data/dataset/timetables-complete-gtfs", "SourceDate": 20250805.0, "Supplier": "TFNSW", "output_gdb_path": "C:\\Users\\bri86955\\Mott MacDonald\\MGO - Moata Geospatial - JBR2HR\\02Data/GDA2020MGA56/Property.gdb", "output_feature_class": "Transport Planning/JBR2HR_PP_TP_BusStops_M260_TFNSW_7856_20250805", "ECMLink_alias": "ECM Objective Link", "FSource_alias": "Feature Source", "SourceDate_alias": "Source Date", "PlanAccur_alias": "Planimetric Accuracy", "stop_id": "2540535", "stop_code": 2540535.0, "stop_name": "989 Princes Hwy", "location_type": null, "parent_station": "G2540535", "wheelchair_boarding": 0, "_predicate": "INTERSECTS", "fme_feature_type": "stops", "gtfs_type": "gtfs_point", "level_id": "Level 0", "multi_reader_full_id": 0, "multi_reader_id": 0, "multi_reader_keyword": "GTFS_2", "multi_reader_type": "GTFS", "Direction": "Southbound" }, "geometry": { "type": "Point", "coordinates": [ 150.585453700014511, -34.991523269602929 ] } },
{ "type": "Feature", "properties": { "OBJECTID": 13, "Comments": "Bus Stops extracted from TfNSW GTFS", "FSource": "https://opendata.transport.nsw.gov.au/data/dataset/timetables-complete-gtfs", "SourceDate": 20250805.0, "Supplier": "TFNSW", "output_gdb_path": "C:\\Users\\bri86955\\Mott MacDonald\\MGO - Moata Geospatial - JBR2HR\\02Data/GDA2020MGA56/Property.gdb", "output_feature_class": "Transport Planning/JBR2HR_PP_TP_BusStops_M260_TFNSW_7856_20250805", "ECMLink_alias": "ECM Objective Link", "FSource_alias": "Feature Source", "SourceDate_alias": "Source Date", "PlanAccur_alias": "Planimetric Accuracy", "stop_id": "2540536", "stop_code": 2540536.0, "stop_name": "Princes Hwy At Mortimer Rd", "location_type": null, "parent_station": "G2540536", "wheelchair_boarding": 0, "_predicate": "INTERSECTS", "fme_feature_type": "stops", "gtfs_type": "gtfs_point", "level_id": "Level 0", "multi_reader_full_id": 0, "multi_reader_id": 0, "multi_reader_keyword": "GTFS_2", "multi_reader_type": "GTFS", "Direction": "Southbound" }, "geometry": { "type": "Point", "coordinates": [ 150.583246740455451, -35.00192455962064 ] } },
{ "type": "Feature", "properties": { "OBJECTID": 14, "Comments": "Bus Stops extracted from TfNSW GTFS", "FSource": "https://opendata.transport.nsw.gov.au/data/dataset/timetables-complete-gtfs", "SourceDate": 20250805.0, "Supplier": "TFNSW", "output_gdb_path": "C:\\Users\\bri86955\\Mott MacDonald\\MGO - Moata Geospatial - JBR2HR\\02Data/GDA2020MGA56/Property.gdb", "output_feature_class": "Transport Planning/JBR2HR_PP_TP_BusStops_M260_TFNSW_7856_20250805", "ECMLink_alias": "ECM Objective Link", "FSource_alias": "Feature Source", "SourceDate_alias": "Source Date", "PlanAccur_alias": "Planimetric Accuracy", "stop_id": "2540694", "stop_code": 2540694.0, "stop_name": "Princes Hwy Opp Willowgreen Rd", "location_type": null, "parent_station": "G2540673", "wheelchair_boarding": 0, "_predicate": "INTERSECTS", "fme_feature_type": "stops", "gtfs_type": "gtfs_point", "level_id": "Level 0", "multi_reader_full_id": 0, "multi_reader_id": 0, "multi_reader_keyword": "GTFS_2", "multi_reader_type": "GTFS", "Direction": "Southbound" }, "geometry": { "type": "Point", "coordinates": [ 150.586211179798596, -34.987806209689552 ] } },
{ "type": "Feature", "properties": { "OBJECTID": 15, "Comments": "Bus Stops extracted from TfNSW GTFS", "FSource": "https://opendata.transport.nsw.gov.au/data/dataset/timetables-complete-gtfs", "SourceDate": 20250805.0, "Supplier": "TFNSW", "output_gdb_path": "C:\\Users\\bri86955\\Mott MacDonald\\MGO - Moata Geospatial - JBR2HR\\02Data/GDA2020MGA56/Property.gdb", "output_feature_class": "Transport Planning/JBR2HR_PP_TP_BusStops_M260_TFNSW_7856_20250805", "ECMLink_alias": "ECM Objective Link", "FSource_alias": "Feature Source", "SourceDate_alias": "Source Date", "PlanAccur_alias": "Planimetric Accuracy", "stop_id": "2540697", "stop_code": 2540697.0, "stop_name": "D970B Princes Hwy", "location_type": null, "parent_station": "G2540697", "wheelchair_boarding": 0, "_predicate": "INTERSECTS", "fme_feature_type": "stops", "gtfs_type": "gtfs_point", "level_id": "Level 0", "multi_reader_full_id": 0, "multi_reader_id": 0, "multi_reader_keyword": "GTFS_2", "multi_reader_type": "GTFS", "Direction": "Northbound" }, "geometry": { "type": "Point", "coordinates": [ 150.585583740292464, -34.989987489959873 ] } },
{ "type": "Feature", "properties": { "OBJECTID": 16, "Comments": "Bus Stops extracted from TfNSW GTFS", "FSource": "https://opendata.transport.nsw.gov.au/data/dataset/timetables-complete-gtfs", "SourceDate": 20250805.0, "Supplier": "TFNSW", "output_gdb_path": "C:\\Users\\bri86955\\Mott MacDonald\\MGO - Moata Geospatial - JBR2HR\\02Data/GDA2020MGA56/Property.gdb", "output_feature_class": "Transport Planning/JBR2HR_PP_TP_BusStops_M260_TFNSW_7856_20250805", "ECMLink_alias": "ECM Objective Link", "FSource_alias": "Feature Source", "SourceDate_alias": "Source Date", "PlanAccur_alias": "Planimetric Accuracy", "stop_id": "2540702", "stop_code": 2540702.0, "stop_name": "D1046 Princes Hwy", "location_type": null, "parent_station": "G2540702", "wheelchair_boarding": 0, "_predicate": "INTERSECTS", "fme_feature_type": "stops", "gtfs_type": "gtfs_point", "level_id": "Level 0", "multi_reader_full_id": 0, "multi_reader_id": 0, "multi_reader_keyword": "GTFS_2", "multi_reader_type": "GTFS", "Direction": "Northbound" }, "geometry": { "type": "Point", "coordinates": [ 150.584287049798519, -34.996153570046737 ] } },
{ "type": "Feature", "properties": { "OBJECTID": 17, "Comments": "Bus Stops extracted from TfNSW GTFS", "FSource": "https://opendata.transport.nsw.gov.au/data/dataset/timetables-complete-gtfs", "SourceDate": 20250805.0, "Supplier": "TFNSW", "output_gdb_path": "C:\\Users\\bri86955\\Mott MacDonald\\MGO - Moata Geospatial - JBR2HR\\02Data/GDA2020MGA56/Property.gdb", "output_feature_class": "Transport Planning/JBR2HR_PP_TP_BusStops_M260_TFNSW_7856_20250805", "ECMLink_alias": "ECM Objective Link", "FSource_alias": "Feature Source", "SourceDate_alias": "Source Date", "PlanAccur_alias": "Planimetric Accuracy", "stop_id": "2540705", "stop_code": 2540705.0, "stop_name": "Princes Hwy Opp Peterson Rd", "location_type": null, "parent_station": "G2540704", "wheelchair_boarding": 0, "_predicate": "INTERSECTS", "fme_feature_type": "stops", "gtfs_type": "gtfs_point", "level_id": "Level 0", "multi_reader_full_id": 0, "multi_reader_id": 0, "multi_reader_keyword": "GTFS_2", "multi_reader_type": "GTFS", "Direction": "Southbound" }, "geometry": { "type": "Point", "coordinates": [ 150.583352059876944, -35.001326700312482 ] } },
{ "type": "Feature", "properties": { "OBJECTID": 18, "Comments": "Bus Stops extracted from TfNSW GTFS", "FSource": "https://opendata.transport.nsw.gov.au/data/dataset/timetables-complete-gtfs", "SourceDate": 20250805.0, "Supplier": "TFNSW", "output_gdb_path": "C:\\Users\\bri86955\\Mott MacDonald\\MGO - Moata Geospatial - JBR2HR\\02Data/GDA2020MGA56/Property.gdb", "output_feature_class": "Transport Planning/JBR2HR_PP_TP_BusStops_M260_TFNSW_7856_20250805", "ECMLink_alias": "ECM Objective Link", "FSource_alias": "Feature Source", "SourceDate_alias": "Source Date", "PlanAccur_alias": "Planimetric Accuracy", "stop_id": "2540783", "stop_code": 2540783.0, "stop_name": "11 Hawken Rd", "location_type": null, "parent_station": "G2540783", "wheelchair_boarding": 0, "_predicate": "INTERSECTS", "fme_feature_type": "stops", "gtfs_type": "gtfs_point", "level_id": "Level 0", "multi_reader_full_id": 0, "multi_reader_id": 0, "multi_reader_keyword": "GTFS_2", "multi_reader_type": "GTFS", "Direction": "Southbound" }, "geometry": { "type": "Point", "coordinates": [ 150.579090310523242, -35.026900700137155 ] } },
{ "type": "Feature", "properties": { "OBJECTID": 19, "Comments": "Bus Stops extracted from TfNSW GTFS", "FSource": "https://opendata.transport.nsw.gov.au/data/dataset/timetables-complete-gtfs", "SourceDate": 20250805.0, "Supplier": "TFNSW", "output_gdb_path": "C:\\Users\\bri86955\\Mott MacDonald\\MGO - Moata Geospatial - JBR2HR\\02Data/GDA2020MGA56/Property.gdb", "output_feature_class": "Transport Planning/JBR2HR_PP_TP_BusStops_M260_TFNSW_7856_20250805", "ECMLink_alias": "ECM Objective Link", "FSource_alias": "Feature Source", "SourceDate_alias": "Source Date", "PlanAccur_alias": "Planimetric Accuracy", "stop_id": "2540784", "stop_code": 2540784.0, "stop_name": "89 Hawken Rd", "location_type": null, "parent_station": "G2540784", "wheelchair_boarding": 0, "_predicate": "INTERSECTS", "fme_feature_type": "stops", "gtfs_type": "gtfs_point", "level_id": "Level 0", "multi_reader_full_id": 0, "multi_reader_id": 0, "multi_reader_keyword": "GTFS_2", "multi_reader_type": "GTFS", "Direction": "Southbound" }, "geometry": { "type": "Point", "coordinates": [ 150.582074770358048, -35.032525719683228 ] } },
{ "type": "Feature", "properties": { "OBJECTID": 20, "Comments": "Bus Stops extracted from TfNSW GTFS", "FSource": "https://opendata.transport.nsw.gov.au/data/dataset/timetables-complete-gtfs", "SourceDate": 20250805.0, "Supplier": "TFNSW", "output_gdb_path": "C:\\Users\\bri86955\\Mott MacDonald\\MGO - Moata Geospatial - JBR2HR\\02Data/GDA2020MGA56/Property.gdb", "output_feature_class": "Transport Planning/JBR2HR_PP_TP_BusStops_M260_TFNSW_7856_20250805", "ECMLink_alias": "ECM Objective Link", "FSource_alias": "Feature Source", "SourceDate_alias": "Source Date", "PlanAccur_alias": "Planimetric Accuracy", "stop_id": "254080", "stop_code": 254080.0, "stop_name": "Jervis Bay Rd After Princes Hwy", "location_type": null, "parent_station": "G254080", "wheelchair_boarding": 0, "_predicate": "INTERSECTS", "fme_feature_type": "stops", "gtfs_type": "gtfs_point", "level_id": "Level 0", "multi_reader_full_id": 0, "multi_reader_id": 0, "multi_reader_keyword": "GTFS_2", "multi_reader_type": "GTFS", "Direction": null }, "geometry": { "type": "Point", "coordinates": [ 150.588356430234313, -34.983525419902151 ] } },
{ "type": "Feature", "properties": { "OBJECTID": 21, "Comments": "Bus Stops extracted from TfNSW GTFS", "FSource": "https://opendata.transport.nsw.gov.au/data/dataset/timetables-complete-gtfs", "SourceDate": 20250805.0, "Supplier": "TFNSW", "output_gdb_path": "C:\\Users\\bri86955\\Mott MacDonald\\MGO - Moata Geospatial - JBR2HR\\02Data/GDA2020MGA56/Property.gdb", "output_feature_class": "Transport Planning/JBR2HR_PP_TP_BusStops_M260_TFNSW_7856_20250805", "ECMLink_alias": "ECM Objective Link", "FSource_alias": "Feature Source", "SourceDate_alias": "Source Date", "PlanAccur_alias": "Planimetric Accuracy", "stop_id": "G25401168", "stop_code": null, "stop_name": "Princess Hwy Opp Sinclair Rd", "location_type": 1, "parent_station": "", "wheelchair_boarding": 0, "_predicate": "INTERSECTS", "fme_feature_type": "stops", "gtfs_type": "gtfs_point", "level_id": "", "multi_reader_full_id": 0, "multi_reader_id": 0, "multi_reader_keyword": "GTFS_2", "multi_reader_type": "GTFS", "Direction": "Southbound" }, "geometry": { "type": "Point", "coordinates": [ 150.580421960062012, -35.015245719935272 ] } },
{ "type": "Feature", "properties": { "OBJECTID": 22, "Comments": "Bus Stops extracted from TfNSW GTFS", "FSource": "https://opendata.transport.nsw.gov.au/data/dataset/timetables-complete-gtfs", "SourceDate": 20250805.0, "Supplier": "TFNSW", "output_gdb_path": "C:\\Users\\bri86955\\Mott MacDonald\\MGO - Moata Geospatial - JBR2HR\\02Data/GDA2020MGA56/Property.gdb", "output_feature_class": "Transport Planning/JBR2HR_PP_TP_BusStops_M260_TFNSW_7856_20250805", "ECMLink_alias": "ECM Objective Link", "FSource_alias": "Feature Source", "SourceDate_alias": "Source Date", "PlanAccur_alias": "Planimetric Accuracy", "stop_id": "G2540139", "stop_code": null, "stop_name": "Hawken Rd Opp Oldham Cl", "location_type": 1, "parent_station": "", "wheelchair_boarding": 0, "_predicate": "INTERSECTS", "fme_feature_type": "stops", "gtfs_type": "gtfs_point", "level_id": "", "multi_reader_full_id": 0, "multi_reader_id": 0, "multi_reader_keyword": "GTFS_2", "multi_reader_type": "GTFS", "Direction": "Northbound" }, "geometry": { "type": "Point", "coordinates": [ 150.584166030409648, -35.037257919696373 ] } },
{ "type": "Feature", "properties": { "OBJECTID": 23, "Comments": "Bus Stops extracted from TfNSW GTFS", "FSource": "https://opendata.transport.nsw.gov.au/data/dataset/timetables-complete-gtfs", "SourceDate": 20250805.0, "Supplier": "TFNSW", "output_gdb_path": "C:\\Users\\bri86955\\Mott MacDonald\\MGO - Moata Geospatial - JBR2HR\\02Data/GDA2020MGA56/Property.gdb", "output_feature_class": "Transport Planning/JBR2HR_PP_TP_BusStops_M260_TFNSW_7856_20250805", "ECMLink_alias": "ECM Objective Link", "FSource_alias": "Feature Source", "SourceDate_alias": "Source Date", "PlanAccur_alias": "Planimetric Accuracy", "stop_id": "G2540140", "stop_code": null, "stop_name": "Princes Hwy At Blackbutt Range Rd", "location_type": 1, "parent_station": "", "wheelchair_boarding": 0, "_predicate": "INTERSECTS", "fme_feature_type": "stops", "gtfs_type": "gtfs_point", "level_id": "", "multi_reader_full_id": 0, "multi_reader_id": 0, "multi_reader_keyword": "GTFS_2", "multi_reader_type": "GTFS", "Direction": null }, "geometry": { "type": "Point", "coordinates": [ 150.578825720428767, -35.023096710357756 ] } },
{ "type": "Feature", "properties": { "OBJECTID": 24, "Comments": "Bus Stops extracted from TfNSW GTFS", "FSource": "https://opendata.transport.nsw.gov.au/data/dataset/timetables-complete-gtfs", "SourceDate": 20250805.0, "Supplier": "TFNSW", "output_gdb_path": "C:\\Users\\bri86955\\Mott MacDonald\\MGO - Moata Geospatial - JBR2HR\\02Data/GDA2020MGA56/Property.gdb", "output_feature_class": "Transport Planning/JBR2HR_PP_TP_BusStops_M260_TFNSW_7856_20250805", "ECMLink_alias": "ECM Objective Link", "FSource_alias": "Feature Source", "SourceDate_alias": "Source Date", "PlanAccur_alias": "Planimetric Accuracy", "stop_id": "G2540141", "stop_code": null, "stop_name": "Princes Hwy Opp Gorindah Rd", "location_type": 1, "parent_station": "", "wheelchair_boarding": 0, "_predicate": "INTERSECTS", "fme_feature_type": "stops", "gtfs_type": "gtfs_point", "level_id": "", "multi_reader_full_id": 0, "multi_reader_id": 0, "multi_reader_keyword": "GTFS_2", "multi_reader_type": "GTFS", "Direction": "Northbound" }, "geometry": { "type": "Point", "coordinates": [ 150.58191485990173, -35.007541960071755 ] } },
{ "type": "Feature", "properties": { "OBJECTID": 25, "Comments": "Bus Stops extracted from TfNSW GTFS", "FSource": "https://opendata.transport.nsw.gov.au/data/dataset/timetables-complete-gtfs", "SourceDate": 20250805.0, "Supplier": "TFNSW", "output_gdb_path": "C:\\Users\\bri86955\\Mott MacDonald\\MGO - Moata Geospatial - JBR2HR\\02Data/GDA2020MGA56/Property.gdb", "output_feature_class": "Transport Planning/JBR2HR_PP_TP_BusStops_M260_TFNSW_7856_20250805", "ECMLink_alias": "ECM Objective Link", "FSource_alias": "Feature Source", "SourceDate_alias": "Source Date", "PlanAccur_alias": "Planimetric Accuracy", "stop_id": "G2540142", "stop_code": null, "stop_name": "1024 Princes Hwy", "location_type": 1, "parent_station": "", "wheelchair_boarding": 0, "_predicate": "INTERSECTS", "fme_feature_type": "stops", "gtfs_type": "gtfs_point", "level_id": "", "multi_reader_full_id": 0, "multi_reader_id": 0, "multi_reader_keyword": "GTFS_2", "multi_reader_type": "GTFS", "Direction": "Northbound" }, "geometry": { "type": "Point", "coordinates": [ 150.584658829823184, -34.994385359921267 ] } },
{ "type": "Feature", "properties": { "OBJECTID": 26, "Comments": "Bus Stops extracted from TfNSW GTFS", "FSource": "https://opendata.transport.nsw.gov.au/data/dataset/timetables-complete-gtfs", "SourceDate": 20250805.0, "Supplier": "TFNSW", "output_gdb_path": "C:\\Users\\bri86955\\Mott MacDonald\\MGO - Moata Geospatial - JBR2HR\\02Data/GDA2020MGA56/Property.gdb", "output_feature_class": "Transport Planning/JBR2HR_PP_TP_BusStops_M260_TFNSW_7856_20250805", "ECMLink_alias": "ECM Objective Link", "FSource_alias": "Feature Source", "SourceDate_alias": "Source Date", "PlanAccur_alias": "Planimetric Accuracy", "stop_id": "G2540143", "stop_code": null, "stop_name": "Princes Hwy Opp Jervis Bay Rd", "location_type": 1, "parent_station": "", "wheelchair_boarding": 0, "_predicate": "INTERSECTS", "fme_feature_type": "stops", "gtfs_type": "gtfs_point", "level_id": "", "multi_reader_full_id": 0, "multi_reader_id": 0, "multi_reader_keyword": "GTFS_2", "multi_reader_type": "GTFS", "Direction": null }, "geometry": { "type": "Point", "coordinates": [ 150.587548279538936, -34.983071730264129 ] } },
{ "type": "Feature", "properties": { "OBJECTID": 27, "Comments": "Bus Stops extracted from TfNSW GTFS", "FSource": "https://opendata.transport.nsw.gov.au/data/dataset/timetables-complete-gtfs", "SourceDate": 20250805.0, "Supplier": "TFNSW", "output_gdb_path": "C:\\Users\\bri86955\\Mott MacDonald\\MGO - Moata Geospatial - JBR2HR\\02Data/GDA2020MGA56/Property.gdb", "output_feature_class": "Transport Planning/JBR2HR_PP_TP_BusStops_M260_TFNSW_7856_20250805", "ECMLink_alias": "ECM Objective Link", "FSource_alias": "Feature Source", "SourceDate_alias": "Source Date", "PlanAccur_alias": "Planimetric Accuracy", "stop_id": "G2540147", "stop_code": null, "stop_name": "1033 Princes Hwy", "location_type": 1, "parent_station": "", "wheelchair_boarding": 0, "_predicate": "INTERSECTS", "fme_feature_type": "stops", "gtfs_type": "gtfs_point", "level_id": "", "multi_reader_full_id": 0, "multi_reader_id": 0, "multi_reader_keyword": "GTFS_2", "multi_reader_type": "GTFS", "Direction": "Southbound" }, "geometry": { "type": "Point", "coordinates": [ 150.584867409798989, -34.994397210432915 ] } },
{ "type": "Feature", "properties": { "OBJECTID": 28, "Comments": "Bus Stops extracted from TfNSW GTFS", "FSource": "https://opendata.transport.nsw.gov.au/data/dataset/timetables-complete-gtfs", "SourceDate": 20250805.0, "Supplier": "TFNSW", "output_gdb_path": "C:\\Users\\bri86955\\Mott MacDonald\\MGO - Moata Geospatial - JBR2HR\\02Data/GDA2020MGA56/Property.gdb", "output_feature_class": "Transport Planning/JBR2HR_PP_TP_BusStops_M260_TFNSW_7856_20250805", "ECMLink_alias": "ECM Objective Link", "FSource_alias": "Feature Source", "SourceDate_alias": "Source Date", "PlanAccur_alias": "Planimetric Accuracy", "stop_id": "G2540150", "stop_code": null, "stop_name": "Hawken Rd After Oldham Cl", "location_type": 1, "parent_station": "", "wheelchair_boarding": 0, "_predicate": "INTERSECTS", "fme_feature_type": "stops", "gtfs_type": "gtfs_point", "level_id": "", "multi_reader_full_id": 0, "multi_reader_id": 0, "multi_reader_keyword": "GTFS_2", "multi_reader_type": "GTFS", "Direction": "Southbound" }, "geometry": { "type": "Point", "coordinates": [ 150.584419190525722, -35.037034159649934 ] } },
{ "type": "Feature", "properties": { "OBJECTID": 29, "Comments": "Bus Stops extracted from TfNSW GTFS", "FSource": "https://opendata.transport.nsw.gov.au/data/dataset/timetables-complete-gtfs", "SourceDate": 20250805.0, "Supplier": "TFNSW", "output_gdb_path": "C:\\Users\\bri86955\\Mott MacDonald\\MGO - Moata Geospatial - JBR2HR\\02Data/GDA2020MGA56/Property.gdb", "output_feature_class": "Transport Planning/JBR2HR_PP_TP_BusStops_M260_TFNSW_7856_20250805", "ECMLink_alias": "ECM Objective Link", "FSource_alias": "Feature Source", "SourceDate_alias": "Source Date", "PlanAccur_alias": "Planimetric Accuracy", "stop_id": "G2540374", "stop_code": null, "stop_name": "Princes Hwy At Sinclair Rd", "location_type": 1, "parent_station": "", "wheelchair_boarding": 0, "_predicate": "INTERSECTS", "fme_feature_type": "stops", "gtfs_type": "gtfs_point", "level_id": "", "multi_reader_full_id": 0, "multi_reader_id": 0, "multi_reader_keyword": "GTFS_2", "multi_reader_type": "GTFS", "Direction": "Northbound" }, "geometry": { "type": "Point", "coordinates": [ 150.58027895994806, -35.015231920043547 ] } },
{ "type": "Feature", "properties": { "OBJECTID": 30, "Comments": "Bus Stops extracted from TfNSW GTFS", "FSource": "https://opendata.transport.nsw.gov.au/data/dataset/timetables-complete-gtfs", "SourceDate": 20250805.0, "Supplier": "TFNSW", "output_gdb_path": "C:\\Users\\bri86955\\Mott MacDonald\\MGO - Moata Geospatial - JBR2HR\\02Data/GDA2020MGA56/Property.gdb", "output_feature_class": "Transport Planning/JBR2HR_PP_TP_BusStops_M260_TFNSW_7856_20250805", "ECMLink_alias": "ECM Objective Link", "FSource_alias": "Feature Source", "SourceDate_alias": "Source Date", "PlanAccur_alias": "Planimetric Accuracy", "stop_id": "G2540407", "stop_code": null, "stop_name": "Princes Hwy After Jervis Bay Rd", "location_type": 1, "parent_station": "", "wheelchair_boarding": 0, "_predicate": "INTERSECTS", "fme_feature_type": "stops", "gtfs_type": "gtfs_point", "level_id": "", "multi_reader_full_id": 0, "multi_reader_id": 0, "multi_reader_keyword": "GTFS_2", "multi_reader_type": "GTFS", "Direction": "Southbound" }, "geometry": { "type": "Point", "coordinates": [ 150.587632440537163, -34.983745099985825 ] } },
{ "type": "Feature", "properties": { "OBJECTID": 31, "Comments": "Bus Stops extracted from TfNSW GTFS", "FSource": "https://opendata.transport.nsw.gov.au/data/dataset/timetables-complete-gtfs", "SourceDate": 20250805.0, "Supplier": "TFNSW", "output_gdb_path": "C:\\Users\\bri86955\\Mott MacDonald\\MGO - Moata Geospatial - JBR2HR\\02Data/GDA2020MGA56/Property.gdb", "output_feature_class": "Transport Planning/JBR2HR_PP_TP_BusStops_M260_TFNSW_7856_20250805", "ECMLink_alias": "ECM Objective Link", "FSource_alias": "Feature Source", "SourceDate_alias": "Source Date", "PlanAccur_alias": "Planimetric Accuracy", "stop_id": "25401168", "stop_code": 25401168.0, "stop_name": "Princess Hwy Opp Sinclair Rd", "location_type": null, "parent_station": "G25401168", "wheelchair_boarding": 0, "_predicate": "INTERSECTS", "fme_feature_type": "stops", "gtfs_type": "gtfs_point", "level_id": "Level 0", "multi_reader_full_id": 0, "multi_reader_id": 0, "multi_reader_keyword": "GTFS_2", "multi_reader_type": "GTFS", "Direction": "Southbound" }, "geometry": { "type": "Point", "coordinates": [ 150.580421960062012, -35.015245719935272 ] } },
{ "type": "Feature", "properties": { "OBJECTID": 32, "Comments": "Bus Stops extracted from TfNSW GTFS", "FSource": "https://opendata.transport.nsw.gov.au/data/dataset/timetables-complete-gtfs", "SourceDate": 20250805.0, "Supplier": "TFNSW", "output_gdb_path": "C:\\Users\\bri86955\\Mott MacDonald\\MGO - Moata Geospatial - JBR2HR\\02Data/GDA2020MGA56/Property.gdb", "output_feature_class": "Transport Planning/JBR2HR_PP_TP_BusStops_M260_TFNSW_7856_20250805", "ECMLink_alias": "ECM Objective Link", "FSource_alias": "Feature Source", "SourceDate_alias": "Source Date", "PlanAccur_alias": "Planimetric Accuracy", "stop_id": "G2540535", "stop_code": null, "stop_name": "989 Princes Hwy", "location_type": 1, "parent_station": "", "wheelchair_boarding": 0, "_predicate": "INTERSECTS", "fme_feature_type": "stops", "gtfs_type": "gtfs_point", "level_id": "", "multi_reader_full_id": 0, "multi_reader_id": 0, "multi_reader_keyword": "GTFS_2", "multi_reader_type": "GTFS", "Direction": "Southbound" }, "geometry": { "type": "Point", "coordinates": [ 150.585453700014511, -34.991523269602929 ] } },
{ "type": "Feature", "properties": { "OBJECTID": 33, "Comments": "Bus Stops extracted from TfNSW GTFS", "FSource": "https://opendata.transport.nsw.gov.au/data/dataset/timetables-complete-gtfs", "SourceDate": 20250805.0, "Supplier": "TFNSW", "output_gdb_path": "C:\\Users\\bri86955\\Mott MacDonald\\MGO - Moata Geospatial - JBR2HR\\02Data/GDA2020MGA56/Property.gdb", "output_feature_class": "Transport Planning/JBR2HR_PP_TP_BusStops_M260_TFNSW_7856_20250805", "ECMLink_alias": "ECM Objective Link", "FSource_alias": "Feature Source", "SourceDate_alias": "Source Date", "PlanAccur_alias": "Planimetric Accuracy", "stop_id": "G2540536", "stop_code": null, "stop_name": "Princes Hwy At Mortimer Rd", "location_type": 1, "parent_station": "", "wheelchair_boarding": 0, "_predicate": "INTERSECTS", "fme_feature_type": "stops", "gtfs_type": "gtfs_point", "level_id": "", "multi_reader_full_id": 0, "multi_reader_id": 0, "multi_reader_keyword": "GTFS_2", "multi_reader_type": "GTFS", "Direction": "Southbound" }, "geometry": { "type": "Point", "coordinates": [ 150.583246740455451, -35.00192455962064 ] } },
{ "type": "Feature", "properties": { "OBJECTID": 34, "Comments": "Bus Stops extracted from TfNSW GTFS", "FSource": "https://opendata.transport.nsw.gov.au/data/dataset/timetables-complete-gtfs", "SourceDate": 20250805.0, "Supplier": "TFNSW", "output_gdb_path": "C:\\Users\\bri86955\\Mott MacDonald\\MGO - Moata Geospatial - JBR2HR\\02Data/GDA2020MGA56/Property.gdb", "output_feature_class": "Transport Planning/JBR2HR_PP_TP_BusStops_M260_TFNSW_7856_20250805", "ECMLink_alias": "ECM Objective Link", "FSource_alias": "Feature Source", "SourceDate_alias": "Source Date", "PlanAccur_alias": "Planimetric Accuracy", "stop_id": "G2540673", "stop_code": null, "stop_name": "Princes Hwy At Willowgreen Rd", "location_type": 1, "parent_station": "", "wheelchair_boarding": 0, "_predicate": "INTERSECTS", "fme_feature_type": "stops", "gtfs_type": "gtfs_point", "level_id": "", "multi_reader_full_id": 0, "multi_reader_id": 0, "multi_reader_keyword": "GTFS_2", "multi_reader_type": "GTFS", "Direction": "Northbound" }, "geometry": { "type": "Point", "coordinates": [ 150.586156759865617, -34.987312189910284 ] } },
{ "type": "Feature", "properties": { "OBJECTID": 35, "Comments": "Bus Stops extracted from TfNSW GTFS", "FSource": "https://opendata.transport.nsw.gov.au/data/dataset/timetables-complete-gtfs", "SourceDate": 20250805.0, "Supplier": "TFNSW", "output_gdb_path": "C:\\Users\\bri86955\\Mott MacDonald\\MGO - Moata Geospatial - JBR2HR\\02Data/GDA2020MGA56/Property.gdb", "output_feature_class": "Transport Planning/JBR2HR_PP_TP_BusStops_M260_TFNSW_7856_20250805", "ECMLink_alias": "ECM Objective Link", "FSource_alias": "Feature Source", "SourceDate_alias": "Source Date", "PlanAccur_alias": "Planimetric Accuracy", "stop_id": "G2540697", "stop_code": null, "stop_name": "D970B Princes Hwy", "location_type": 1, "parent_station": "", "wheelchair_boarding": 0, "_predicate": "INTERSECTS", "fme_feature_type": "stops", "gtfs_type": "gtfs_point", "level_id": "", "multi_reader_full_id": 0, "multi_reader_id": 0, "multi_reader_keyword": "GTFS_2", "multi_reader_type": "GTFS", "Direction": "Northbound" }, "geometry": { "type": "Point", "coordinates": [ 150.585583740292464, -34.989987489959873 ] } },
{ "type": "Feature", "properties": { "OBJECTID": 36, "Comments": "Bus Stops extracted from TfNSW GTFS", "FSource": "https://opendata.transport.nsw.gov.au/data/dataset/timetables-complete-gtfs", "SourceDate": 20250805.0, "Supplier": "TFNSW", "output_gdb_path": "C:\\Users\\bri86955\\Mott MacDonald\\MGO - Moata Geospatial - JBR2HR\\02Data/GDA2020MGA56/Property.gdb", "output_feature_class": "Transport Planning/JBR2HR_PP_TP_BusStops_M260_TFNSW_7856_20250805", "ECMLink_alias": "ECM Objective Link", "FSource_alias": "Feature Source", "SourceDate_alias": "Source Date", "PlanAccur_alias": "Planimetric Accuracy", "stop_id": "G2540449", "stop_code": null, "stop_name": "Hawken Rd Before Princes Hwy", "location_type": 1, "parent_station": "", "wheelchair_boarding": 0, "_predicate": "INTERSECTS", "fme_feature_type": "stops", "gtfs_type": "gtfs_point", "level_id": "", "multi_reader_full_id": 0, "multi_reader_id": 0, "multi_reader_keyword": "GTFS_2", "multi_reader_type": "GTFS", "Direction": "Northbound" }, "geometry": { "type": "Point", "coordinates": [ 150.578987349530365, -35.026047659810445 ] } },
{ "type": "Feature", "properties": { "OBJECTID": 37, "Comments": "Bus Stops extracted from TfNSW GTFS", "FSource": "https://opendata.transport.nsw.gov.au/data/dataset/timetables-complete-gtfs", "SourceDate": 20250805.0, "Supplier": "TFNSW", "output_gdb_path": "C:\\Users\\bri86955\\Mott MacDonald\\MGO - Moata Geospatial - JBR2HR\\02Data/GDA2020MGA56/Property.gdb", "output_feature_class": "Transport Planning/JBR2HR_PP_TP_BusStops_M260_TFNSW_7856_20250805", "ECMLink_alias": "ECM Objective Link", "FSource_alias": "Feature Source", "SourceDate_alias": "Source Date", "PlanAccur_alias": "Planimetric Accuracy", "stop_id": "G2540704", "stop_code": null, "stop_name": "Princes Hwy At Peterson Rd", "location_type": 1, "parent_station": "", "wheelchair_boarding": 0, "_predicate": "INTERSECTS", "fme_feature_type": "stops", "gtfs_type": "gtfs_point", "level_id": "", "multi_reader_full_id": 0, "multi_reader_id": 0, "multi_reader_keyword": "GTFS_2", "multi_reader_type": "GTFS", "Direction": "Northbound" }, "geometry": { "type": "Point", "coordinates": [ 150.583216099865837, -35.001222579624098 ] } },
{ "type": "Feature", "properties": { "OBJECTID": 38, "Comments": "Bus Stops extracted from TfNSW GTFS", "FSource": "https://opendata.transport.nsw.gov.au/data/dataset/timetables-complete-gtfs", "SourceDate": 20250805.0, "Supplier": "TFNSW", "output_gdb_path": "C:\\Users\\bri86955\\Mott MacDonald\\MGO - Moata Geospatial - JBR2HR\\02Data/GDA2020MGA56/Property.gdb", "output_feature_class": "Transport Planning/JBR2HR_PP_TP_BusStops_M260_TFNSW_7856_20250805", "ECMLink_alias": "ECM Objective Link", "FSource_alias": "Feature Source", "SourceDate_alias": "Source Date", "PlanAccur_alias": "Planimetric Accuracy", "stop_id": "G2540783", "stop_code": null, "stop_name": "11 Hawken Rd", "location_type": 1, "parent_station": "", "wheelchair_boarding": 0, "_predicate": "INTERSECTS", "fme_feature_type": "stops", "gtfs_type": "gtfs_point", "level_id": "", "multi_reader_full_id": 0, "multi_reader_id": 0, "multi_reader_keyword": "GTFS_2", "multi_reader_type": "GTFS", "Direction": "Southbound" }, "geometry": { "type": "Point", "coordinates": [ 150.579090310523242, -35.026900700137155 ] } },
{ "type": "Feature", "properties": { "OBJECTID": 39, "Comments": "Bus Stops extracted from TfNSW GTFS", "FSource": "https://opendata.transport.nsw.gov.au/data/dataset/timetables-complete-gtfs", "SourceDate": 20250805.0, "Supplier": "TFNSW", "output_gdb_path": "C:\\Users\\bri86955\\Mott MacDonald\\MGO - Moata Geospatial - JBR2HR\\02Data/GDA2020MGA56/Property.gdb", "output_feature_class": "Transport Planning/JBR2HR_PP_TP_BusStops_M260_TFNSW_7856_20250805", "ECMLink_alias": "ECM Objective Link", "FSource_alias": "Feature Source", "SourceDate_alias": "Source Date", "PlanAccur_alias": "Planimetric Accuracy", "stop_id": "G2540784", "stop_code": null, "stop_name": "89 Hawken Rd", "location_type": 1, "parent_station": "", "wheelchair_boarding": 0, "_predicate": "INTERSECTS", "fme_feature_type": "stops", "gtfs_type": "gtfs_point", "level_id": "", "multi_reader_full_id": 0, "multi_reader_id": 0, "multi_reader_keyword": "GTFS_2", "multi_reader_type": "GTFS", "Direction": "Southbound" }, "geometry": { "type": "Point", "coordinates": [ 150.582074770358048, -35.032525719683228 ] } },
{ "type": "Feature", "properties": { "OBJECTID": 40, "Comments": "Bus Stops extracted from TfNSW GTFS", "FSource": "https://opendata.transport.nsw.gov.au/data/dataset/timetables-complete-gtfs", "SourceDate": 20250805.0, "Supplier": "TFNSW", "output_gdb_path": "C:\\Users\\bri86955\\Mott MacDonald\\MGO - Moata Geospatial - JBR2HR\\02Data/GDA2020MGA56/Property.gdb", "output_feature_class": "Transport Planning/JBR2HR_PP_TP_BusStops_M260_TFNSW_7856_20250805", "ECMLink_alias": "ECM Objective Link", "FSource_alias": "Feature Source", "SourceDate_alias": "Source Date", "PlanAccur_alias": "Planimetric Accuracy", "stop_id": "G254080", "stop_code": null, "stop_name": "Jervis Bay Rd After Princes Hwy", "location_type": 1, "parent_station": "", "wheelchair_boarding": 0, "_predicate": "INTERSECTS", "fme_feature_type": "stops", "gtfs_type": "gtfs_point", "level_id": "", "multi_reader_full_id": 0, "multi_reader_id": 0, "multi_reader_keyword": "GTFS_2", "multi_reader_type": "GTFS", "Direction": null }, "geometry": { "type": "Point", "coordinates": [ 150.588356829938505, -34.983534420017257 ] } },
{ "type": "Feature", "properties": { "OBJECTID": 41, "Comments": "Bus Stops extracted from TfNSW GTFS", "FSource": "https://opendata.transport.nsw.gov.au/data/dataset/timetables-complete-gtfs", "SourceDate": 20250805.0, "Supplier": "TFNSW", "output_gdb_path": "C:\\Users\\bri86955\\Mott MacDonald\\MGO - Moata Geospatial - JBR2HR\\02Data/GDA2020MGA56/Property.gdb", "output_feature_class": "Transport Planning/JBR2HR_PP_TP_BusStops_M260_TFNSW_7856_20250805", "ECMLink_alias": "ECM Objective Link", "FSource_alias": "Feature Source", "SourceDate_alias": "Source Date", "PlanAccur_alias": "Planimetric Accuracy", "stop_id": "G2540702", "stop_code": null, "stop_name": "D1046 Princes Hwy", "location_type": 1, "parent_station": "", "wheelchair_boarding": 0, "_predicate": "INTERSECTS", "fme_feature_type": "stops", "gtfs_type": "gtfs_point", "level_id": "", "multi_reader_full_id": 0, "multi_reader_id": 0, "multi_reader_keyword": "GTFS_2", "multi_reader_type": "GTFS", "Direction": "Northbound" }, "geometry": { "type": "Point", "coordinates": [ 150.584287049798519, -34.996153570046737 ] } }
]
}
