{
"type": "FeatureCollection",
"name": "JBR2HR_EasternPCT_3654",
"crs": { "type": "name", "properties": { "name": "urn:ogc:def:crs:OGC:1.3:CRS84" } },
"xy_coordinate_resolution": 1e-15,
"features": [
{ "type": "Feature", "properties": { "OBJECTID_1": 9, "OBJECTID": 18, "Zone_ID": "9", "CONDITION": "Moderate", "EasternPCT": "3654", "E_PCT_Name": "Shoalhaven Lowland Bloodwood Shrub Forest", "VEG_CLASS": "South East Dry Sclerophyll Forests", "BC_Act": "-", "EPBC_Act": "-", "Area_ha": 0.547709118577, "Area_m2": 5477.0911857700003, "Comments": null, "ECMLink": null, "FSource": "Derived from field observations and aerial imagery.", "SourceDate": "2026-02-04T00:00:00Z", "PlanAccur": null, "Supplier": "Stantec Australia Pty Ltd (3045)", "Shape_Length": 488.38113950273828, "Shape_Area": 5477.0911857718247 }, "geometry": { "type": "MultiPolygon", "coordinates": [ [ [ [ 150.586347922428303, -34.990143182781267 ], [ 150.586205006732996, -34.990808357596528 ], [ 150.586164852130821, -34.990802728717512 ], [ 150.586129160249129, -34.990814626630254 ], [ 150.58609346786352, -34.990820574823985 ], [ 150.586045879278601, -34.9908265234263 ], [ 150.585998290147757, -34.990826524103795 ], [ 150.585986392552456, -34.990784882913253 ], [ 150.585962597691093, -34.990743242111627 ], [ 150.585909059865884, -34.990761088887261 ], [ 150.585841552546412, -34.990769118352397 ], [ 150.58578498532367, -34.991036165580013 ], [ 150.585849573181662, -34.991052572790572 ], [ 150.585879316932051, -34.991064469898156 ], [ 150.585950700741762, -34.991076366994946 ], [ 150.585974495803356, -34.991094213519055 ], [ 150.586022084401861, -34.991123955924081 ], [ 150.586016136093633, -34.991159648454925 ], [ 150.585992341141036, -34.991219134489675 ], [ 150.585915008923934, -34.991231032345127 ], [ 150.585879316935262, -34.991231031683135 ], [ 150.585819830253627, -34.991231031757742 ], [ 150.585813881349111, -34.991260775468326 ], [ 150.585772241417601, -34.991302416095202 ], [ 150.585727986519373, -34.991305248708962 ], [ 150.585631748797084, -34.991290958444381 ], [ 150.585578210327924, -34.991279061072788 ], [ 150.585560365133745, -34.991201728620105 ], [ 150.585590108520478, -34.991142242046109 ], [ 150.585673389606143, -34.991100601594937 ], [ 150.585703132268236, -34.991047063771447 ], [ 150.585655543374088, -34.991011371540857 ], [ 150.585590108252205, -34.9910054233438 ], [ 150.585560365070677, -34.990945936712698 ], [ 150.585602005513266, -34.990844809107202 ], [ 150.585637697624293, -34.990755579711738 ], [ 150.58563769739888, -34.990660401673381 ], [ 150.58563769747343, -34.990594965818033 ], [ 150.585661491803222, -34.990487890367866 ], [ 150.585697183392767, -34.990368916953138 ], [ 150.585697183565742, -34.990279687712835 ], [ 150.585709080850847, -34.990202354794604 ], [ 150.585738824125315, -34.990160714554214 ], [ 150.585792362834383, -34.990119073576693 ], [ 150.585792361985881, -34.990083381680087 ], [ 150.585798311263289, -34.990059587669975 ], [ 150.585834003272993, -34.990065536241154 ], [ 150.585917284535952, -34.990065536272652 ], [ 150.585985251114977, -34.990090739547306 ], [ 150.586347922428303, -34.990143182781267 ] ], [ [ 150.585972090867415, -34.990152866627149 ], [ 150.585959071806741, -34.990214325820233 ], [ 150.586039930540096, -34.990195966926102 ], [ 150.586099416981369, -34.990213812213284 ], [ 150.586141057083523, -34.990231658527861 ], [ 150.586212441318537, -34.990243555465931 ], [ 150.586224339060266, -34.990237607163351 ], [ 150.586224339089739, -34.990225709569117 ], [ 150.586194595050131, -34.990207863747059 ], [ 150.586135108673489, -34.990166223318276 ], [ 150.586069673675667, -34.990154325696679 ], [ 150.586010187250821, -34.990148377088957 ], [ 150.585972090867415, -34.990152866627149 ] ] ] ] } },
{ "type": "Feature", "properties": { "OBJECTID_1": 10, "OBJECTID": 19, "Zone_ID": "9", "CONDITION": "Moderate", "EasternPCT": "3654", "E_PCT_Name": "Shoalhaven Lowland Bloodwood Shrub Forest", "VEG_CLASS": "South East Dry Sclerophyll Forests", "BC_Act": "-", "EPBC_Act": "-", "Area_ha": 3.91605153784, "Area_m2": 39160.515378399999, "Comments": null, "ECMLink": null, "FSource": "Derived from field observations and aerial imagery.", "SourceDate": "2026-02-04T00:00:00Z", "PlanAccur": null, "Supplier": "Stantec Australia Pty Ltd (3045)", "Shape_Length": 1852.9625665447666, "Shape_Area": 39160.515378386161 }, "geometry": { "type": "MultiPolygon", "coordinates": [ [ [ [ 150.585280756812949, -34.991082950795708 ], [ 150.585244227459214, -34.991166357947336 ], [ 150.58519666457417, -34.991380507335634 ], [ 150.585142560826682, -34.991583206769789 ], [ 150.585087956966959, -34.991802876286634 ], [ 150.585018274334345, -34.992067530046825 ], [ 150.584916105284151, -34.992501349551958 ], [ 150.584873088061158, -34.992794835547073 ], [ 150.584840934294135, -34.992952687288245 ], [ 150.584810444245591, -34.993053968902089 ], [ 150.584800742127101, -34.993150003071982 ], [ 150.584782836536732, -34.993291157429539 ], [ 150.584743642865362, -34.993454529316217 ], [ 150.584734273162724, -34.993539249445007 ], [ 150.58472407310137, -34.993652254654535 ], [ 150.584701288382774, -34.993725387092418 ], [ 150.584697297379734, -34.993861158084592 ], [ 150.584666141610569, -34.99398506677359 ], [ 150.584649731097812, -34.99407530704994 ], [ 150.584606323124319, -34.994148028917991 ], [ 150.58459074402262, -34.994209983223072 ], [ 150.584643578095722, -34.994284620078311 ], [ 150.58470308537801, -34.994332067137194 ], [ 150.584650220498816, -34.994437795543725 ], [ 150.584626426267931, -34.994538922798419 ], [ 150.58458478598638, -34.99467574180369 ], [ 150.58454909365625, -34.994759022887948 ], [ 150.584447966354702, -34.994800663244661 ], [ 150.584317096967851, -34.994806611784156 ], [ 150.584227867234205, -34.994759022586884 ], [ 150.584156482309055, -34.994651947351834 ], [ 150.584108893558266, -34.994586512353813 ], [ 150.584061304884784, -34.994538922810207 ], [ 150.584061304565012, -34.994461590327631 ], [ 150.584102944503115, -34.994414000666097 ], [ 150.584102944855516, -34.994312873932614 ], [ 150.584073202078713, -34.99425933575948 ], [ 150.584079150424969, -34.994205797890672 ], [ 150.584150534450288, -34.994217695197662 ], [ 150.584192174280474, -34.994259336463564 ], [ 150.584269507769733, -34.994253387692694 ], [ 150.584352787988024, -34.994205798536697 ], [ 150.584430120974048, -34.994176054485862 ], [ 150.584442018013959, -34.99409872266618 ], [ 150.584400377718026, -34.994051133584946 ], [ 150.58428140505498, -34.994039235499692 ], [ 150.58416837962244, -34.994027338521029 ], [ 150.584079150069272, -34.994021389868628 ], [ 150.584019663964426, -34.994009492347864 ], [ 150.583895121178557, -34.993967935539317 ], [ 150.583856774502891, -34.993961463839412 ], [ 150.583797288139039, -34.993943617414999 ], [ 150.583737802112523, -34.99393172066074 ], [ 150.583666417975479, -34.993931720695365 ], [ 150.583595034726045, -34.993907925543731 ], [ 150.58350580424775, -34.993901977355463 ], [ 150.583446317549004, -34.993896028334859 ], [ 150.583438900058809, -34.993854392321012 ], [ 150.583687778364833, -34.992642969396428 ], [ 150.583749699502164, -34.992676554405385 ], [ 150.583779442302216, -34.992724143861892 ], [ 150.583767544994402, -34.9927657846698 ], [ 150.583737802115195, -34.992849065919714 ], [ 150.583767544886058, -34.992932346324899 ], [ 150.583785391250757, -34.992997781436557 ], [ 150.583856774833691, -34.993039422844994 ], [ 150.583940055765623, -34.993075114337962 ], [ 150.583969799905901, -34.993140549250683 ], [ 150.584005490896089, -34.993164343836682 ], [ 150.584057054587163, -34.993231962945167 ], [ 150.584073271910881, -34.99315825544366 ], [ 150.584138636373666, -34.993140989364711 ], [ 150.584204071567257, -34.993140989586891 ], [ 150.584239764348808, -34.993123143497925 ], [ 150.584287353178382, -34.99308150288936 ], [ 150.584400377785414, -34.993033913594537 ], [ 150.58443012033942, -34.993004170395857 ], [ 150.584471761069409, -34.992885196885794 ], [ 150.58445391535102, -34.992772173337819 ], [ 150.58448365848389, -34.992671045522087 ], [ 150.584447967354293, -34.992611559218908 ], [ 150.584394428740836, -34.992558021562573 ], [ 150.584323045269997, -34.992516380473582 ], [ 150.584226628700094, -34.992461261593846 ], [ 150.584330609160219, -34.991988675979563 ], [ 150.584273180367717, -34.991986511260443 ], [ 150.584249385831043, -34.991974613210068 ], [ 150.58421369436175, -34.991903230150704 ], [ 150.584183950855333, -34.99186158957545 ], [ 150.584136361860715, -34.991837794339752 ], [ 150.58407687548916, -34.991831845663924 ], [ 150.584023337644766, -34.991831846102762 ], [ 150.583993594301774, -34.991879435574511 ], [ 150.583993593957871, -34.991909178629726 ], [ 150.58398764506498, -34.99193297344064 ], [ 150.583963850955257, -34.991962715990645 ], [ 150.583951953151484, -34.992028151084043 ], [ 150.583946004595617, -34.992057894691321 ], [ 150.583922210389289, -34.992123329984203 ], [ 150.583898415075112, -34.992170918871999 ], [ 150.583874620800259, -34.992218508676395 ], [ 150.58383892874329, -34.992224457096512 ], [ 150.583772814993296, -34.992229043374728 ], [ 150.583833068829989, -34.991935748708293 ], [ 150.583880569276943, -34.991932973309581 ], [ 150.583838929598528, -34.991891332855758 ], [ 150.583773493720685, -34.991825897529935 ], [ 150.583737801604855, -34.9917723598018 ], [ 150.583714007345066, -34.991706924325541 ], [ 150.583714007881326, -34.991641489422086 ], [ 150.583773494242024, -34.991576053662925 ], [ 150.583850825946826, -34.991564156276915 ], [ 150.583898415454456, -34.991564156459596 ], [ 150.583981697088888, -34.991564156959583 ], [ 150.584029285985054, -34.991641488683179 ], [ 150.584088772235191, -34.991665283756312 ], [ 150.584130413236949, -34.991641489231071 ], [ 150.584136361973037, -34.991582002550288 ], [ 150.584118515274668, -34.991546310536187 ], [ 150.584035234304878, -34.991504670395358 ], [ 150.583975748547743, -34.991504670480005 ], [ 150.583910312475837, -34.991504670144138 ], [ 150.583844877504788, -34.991486824317917 ], [ 150.583791340325917, -34.991457080708429 ], [ 150.583743750908127, -34.991439235010169 ], [ 150.583743751035485, -34.991385696779716 ], [ 150.583803237491026, -34.991344056172686 ], [ 150.583874620495266, -34.991308364131555 ], [ 150.583987645375345, -34.991284570342799 ], [ 150.584035234750644, -34.99128456956425 ], [ 150.584106618762775, -34.991284570163273 ], [ 150.584189899053968, -34.991284569585979 ], [ 150.584243437047945, -34.991326210623967 ], [ 150.58430292416719, -34.991332159225919 ], [ 150.584344564936572, -34.991308364616529 ], [ 150.584368359215205, -34.991302416259188 ], [ 150.584398102026086, -34.991302416121236 ], [ 150.584476039181538, -34.991327708766072 ], [ 150.584531247515542, -34.991308804215343 ], [ 150.584578837300029, -34.99131475292716 ], [ 150.584638323763471, -34.991326650145787 ], [ 150.584697809904839, -34.991302855465229 ], [ 150.584679963770498, -34.991231471675803 ], [ 150.584668066862633, -34.991160088215857 ], [ 150.584662118249639, -34.99110655054988 ], [ 150.584596683125739, -34.991053012363345 ], [ 150.584548997023035, -34.990996122432577 ], [ 150.584463537434914, -34.990957394236403 ], [ 150.584445692046955, -34.990957394156908 ], [ 150.584410000176803, -34.990957393968237 ], [ 150.584368359025603, -34.991004982872276 ], [ 150.584314821581614, -34.991052572908806 ], [ 150.584261283878504, -34.991046623770963 ], [ 150.584195848162295, -34.991046623604049 ], [ 150.584130412863004, -34.991070418584428 ], [ 150.584064977926431, -34.991100161427809 ], [ 150.584017388683748, -34.991100161321455 ], [ 150.583957902464221, -34.991088264709099 ], [ 150.58392815901712, -34.991129905379104 ], [ 150.583856775502994, -34.991135853480742 ], [ 150.583832980888531, -34.991118007460393 ], [ 150.58379134013947, -34.991088264559508 ], [ 150.58380323753525, -34.99101688067212 ], [ 150.583827031816327, -34.990975239660898 ], [ 150.583862723715555, -34.990921701784153 ], [ 150.583886518283947, -34.990868164079956 ], [ 150.583886518656612, -34.990820574641717 ], [ 150.583910313189222, -34.990802728789873 ], [ 150.583934107323529, -34.990743242271918 ], [ 150.583934107298091, -34.990725396792243 ], [ 150.583904364690824, -34.990689704964957 ], [ 150.583916261584392, -34.990683755975923 ], [ 150.583940056068258, -34.990648063735108 ], [ 150.583940056375695, -34.99060047519496 ], [ 150.583987645618635, -34.990535039495704 ], [ 150.584017388802863, -34.990493398797369 ], [ 150.584106618949363, -34.990517193811954 ], [ 150.58422559168369, -34.990540988656022 ], [ 150.58430292372222, -34.990582629211474 ], [ 150.58434456442177, -34.990612371936038 ], [ 150.584415948660535, -34.990624269933846 ], [ 150.584481383118288, -34.990594525977393 ], [ 150.584570612844317, -34.990624269441149 ], [ 150.584629820590493, -34.99062878708898 ], [ 150.584691861943725, -34.990642555196125 ], [ 150.584757296259284, -34.990642555060475 ], [ 150.584858423412385, -34.990642554972915 ], [ 150.584911961555662, -34.99061281198211 ], [ 150.58498929455294, -34.990559274107106 ], [ 150.585078523723524, -34.990565222908643 ], [ 150.585126113680531, -34.990535479529804 ], [ 150.585191548322456, -34.990470044215215 ], [ 150.585262931856505, -34.990374866079939 ], [ 150.585322418213678, -34.990309430405361 ], [ 150.585399750686349, -34.990297533817049 ], [ 150.585441391784627, -34.990315379488038 ], [ 150.585459237959753, -34.990380814388466 ], [ 150.585441391650136, -34.990517634044835 ], [ 150.585387853692396, -34.990642555308341 ], [ 150.585364059400973, -34.99071393882209 ], [ 150.585328367319192, -34.99082101451895 ], [ 150.58532241826336, -34.99093403953529 ], [ 150.585286727282181, -34.991029217644758 ], [ 150.585280756812949, -34.991082950795708 ] ] ] ] } },
{ "type": "Feature", "properties": { "OBJECTID_1": 11, "OBJECTID": 20, "Zone_ID": "9", "CONDITION": "Moderate", "EasternPCT": "3654", "E_PCT_Name": "Shoalhaven Lowland Bloodwood Shrub Forest", "VEG_CLASS": "South East Dry Sclerophyll Forests", "BC_Act": "-", "EPBC_Act": "-", "Area_ha": 1.40001470247, "Area_m2": 14000.1470247, "Comments": null, "ECMLink": null, "FSource": "Derived from field observations and aerial imagery.", "SourceDate": "2026-02-04T00:00:00Z", "PlanAccur": null, "Supplier": "Stantec Australia Pty Ltd (3045)", "Shape_Length": 957.89555015968722, "Shape_Area": 14000.147024727296 }, "geometry": { "type": "MultiPolygon", "coordinates": [ [ [ [ 150.584037510082851, -34.994806612448492 ], [ 150.5841088935328, -34.99483635524841 ], [ 150.58419812360566, -34.994836355116426 ], [ 150.584299250472242, -34.994854201068499 ], [ 150.584406326732875, -34.994836355446807 ], [ 150.584465812726535, -34.994836355205663 ], [ 150.584501504644976, -34.99487799605005 ], [ 150.584543144790473, -34.994949379360975 ], [ 150.584566939924883, -34.994973174060291 ], [ 150.584566939490429, -34.995032661060755 ], [ 150.584513402475494, -34.99510999326688 ], [ 150.584436069278922, -34.995115942182196 ], [ 150.58433494227836, -34.995187325489546 ], [ 150.584293302032506, -34.995217068842976 ], [ 150.584334942467649, -34.995276555548251 ], [ 150.584352788850168, -34.995294401153473 ], [ 150.584382531465735, -34.9953717344208 ], [ 150.584382531563307, -34.99540742626408 ], [ 150.584370634113611, -34.995449066210064 ], [ 150.584388479989087, -34.995544245173996 ], [ 150.584430120983001, -34.995591834279182 ], [ 150.584430120491248, -34.995669166740953 ], [ 150.58443012108998, -34.995746499223642 ], [ 150.584430120589502, -34.995823831683623 ], [ 150.58438253130646, -34.995883317760935 ], [ 150.584346839642706, -34.995972547559944 ], [ 150.584340891272916, -34.996026085429556 ], [ 150.58429925023475, -34.996085572706022 ], [ 150.584227867146609, -34.996097469731332 ], [ 150.58415648294536, -34.996109366691954 ], [ 150.584162431389188, -34.996145058876614 ], [ 150.584174328309985, -34.996198596877058 ], [ 150.584198123319538, -34.996269980160683 ], [ 150.584245712649192, -34.996329467253972 ], [ 150.584233815316821, -34.996448440540405 ], [ 150.584215969090451, -34.996525772843896 ], [ 150.584239763469213, -34.996620951263409 ], [ 150.584245712350054, -34.996680437707184 ], [ 150.584245712729796, -34.99673992380378 ], [ 150.58421596975316, -34.996787513271393 ], [ 150.584120790455671, -34.996811308160915 ], [ 150.584031561524597, -34.99681130821395 ], [ 150.583954229092626, -34.996763718604605 ], [ 150.583918537092842, -34.996710180920758 ], [ 150.583847152723592, -34.996710181006989 ], [ 150.583787666485478, -34.996710180911116 ], [ 150.583722230874343, -34.996674488567351 ], [ 150.583668693558252, -34.996722078199404 ], [ 150.583597310003341, -34.996757769982061 ], [ 150.583555669432428, -34.996781565160276 ], [ 150.583490233833032, -34.996829153921645 ], [ 150.583424798981582, -34.996829154160864 ], [ 150.583406953185232, -34.996781564492231 ], [ 150.583430747481628, -34.996722078168368 ], [ 150.583502130602341, -34.996656643436836 ], [ 150.583508079921614, -34.99660905353096 ], [ 150.583424798497589, -34.996585259253642 ], [ 150.583371260259099, -34.996573361755864 ], [ 150.583293928717467, -34.996531721443084 ], [ 150.583225657656129, -34.996512550357423 ], [ 150.583195708142426, -34.996609784706067 ], [ 150.583208612015341, -34.996445586021402 ], [ 150.583012885990257, -34.996418319297661 ], [ 150.583041809684829, -34.996346873590241 ], [ 150.583065604415225, -34.996317130383389 ], [ 150.583113193400891, -34.996317130020145 ], [ 150.583148885131209, -34.99631118094738 ], [ 150.58321432094391, -34.996317129655743 ], [ 150.583283847636835, -34.996323625872556 ], [ 150.58336531201158, -34.9963413640453 ], [ 150.583442644973076, -34.996371107663826 ], [ 150.583514028893518, -34.996388953264564 ], [ 150.583591360671704, -34.996394902514062 ], [ 150.583680590121872, -34.99641274825057 ], [ 150.583763872199512, -34.99643059447623 ], [ 150.583835255227882, -34.996430594407336 ], [ 150.583882844882595, -34.996460337700647 ], [ 150.583954228623156, -34.996472235154258 ], [ 150.58402561249909, -34.996448439834502 ], [ 150.584031561548613, -34.996365158957673 ], [ 150.584055355610133, -34.996311621280348 ], [ 150.583995869092206, -34.99624618640928 ], [ 150.583960176952957, -34.996186699044621 ], [ 150.583900690519357, -34.99613911049827 ], [ 150.583823358084942, -34.996079624139064 ], [ 150.58378171798924, -34.996026086059416 ], [ 150.583823357836735, -34.995978496522206 ], [ 150.583864999176711, -34.995996342779073 ], [ 150.583924485830892, -34.99604988013494 ], [ 150.583978023456382, -34.996055829483517 ], [ 150.584007766677757, -34.995996342493015 ], [ 150.584007766891091, -34.995907112458454 ], [ 150.583978023694613, -34.995835728787412 ], [ 150.583912588372897, -34.99577624230453 ], [ 150.583870947522371, -34.995746499397988 ], [ 150.583829306455669, -34.995692961315825 ], [ 150.583769819935185, -34.995675115754459 ], [ 150.583722231312237, -34.995615628498037 ], [ 150.583698436435697, -34.995556142708395 ], [ 150.583656796447656, -34.995538296425508 ], [ 150.583656796468716, -34.995478809434623 ], [ 150.583627053135217, -34.995437169626619 ], [ 150.583575575969405, -34.995376485249686 ], [ 150.583609276401717, -34.995267073618216 ], [ 150.583559342245167, -34.995264218507373 ], [ 150.583470112830497, -34.995264218172153 ], [ 150.583416574792722, -34.995240424037277 ], [ 150.583351139206599, -34.995222577881307 ], [ 150.583303550849706, -34.995222578363808 ], [ 150.583273806838179, -34.995204731812649 ], [ 150.583261909520047, -34.995151193723856 ], [ 150.583220268928216, -34.995115501818795 ], [ 150.583226218006445, -34.995085759181478 ], [ 150.583267858195143, -34.995091707131252 ], [ 150.583291652856019, -34.995091707809642 ], [ 150.583303550878384, -34.995115501964953 ], [ 150.583345190413297, -34.99515119382108 ], [ 150.5833808829926, -34.995151194375623 ], [ 150.583392780280633, -34.995139296674559 ], [ 150.583392780606289, -34.995103604847365 ], [ 150.583380882585544, -34.995079809798845 ], [ 150.583327345346902, -34.995026272598565 ], [ 150.583255961248767, -34.995002478117414 ], [ 150.583232166501773, -34.994978683176065 ], [ 150.583196474699605, -34.99494893955108 ], [ 150.583196474812638, -34.99490729893143 ], [ 150.583261910192107, -34.99488350453894 ], [ 150.583303549955133, -34.994883504578276 ], [ 150.583380883145708, -34.994859710014801 ], [ 150.583398728277416, -34.994859710263754 ], [ 150.583476060825433, -34.994865658671827 ], [ 150.583523651024819, -34.99488350452269 ], [ 150.583583137026636, -34.994883504715972 ], [ 150.583606931208124, -34.99489540199955 ], [ 150.58360693143058, -34.994919196261279 ], [ 150.583630726369876, -34.994925145667267 ], [ 150.583690902605696, -34.994896089002303 ], [ 150.583763871983052, -34.994889893195918 ], [ 150.583870947994171, -34.994883944724819 ], [ 150.583894742041565, -34.99483635494996 ], [ 150.583948280448482, -34.994794714890972 ], [ 150.584037510082851, -34.994806612448492 ] ] ] ] } },
{ "type": "Feature", "properties": { "OBJECTID_1": 12, "OBJECTID": 21, "Zone_ID": "9", "CONDITION": "Moderate", "EasternPCT": "3654", "E_PCT_Name": "Shoalhaven Lowland Bloodwood Shrub Forest", "VEG_CLASS": "South East Dry Sclerophyll Forests", "BC_Act": "-", "EPBC_Act": "-", "Area_ha": 0.99692398403299998, "Area_m2": 9969.2398403299994, "Comments": null, "ECMLink": null, "FSource": "Derived from field observations and aerial imagery.", "SourceDate": "2026-02-04T00:00:00Z", "PlanAccur": null, "Supplier": "Stantec Australia Pty Ltd (3045)", "Shape_Length": 664.60996397752876, "Shape_Area": 9969.2398403320676 }, "geometry": { "type": "MultiPolygon", "coordinates": [ [ [ [ 150.585849574009643, -34.991849691620359 ], [ 150.58589716295478, -34.991879434987958 ], [ 150.585961487131982, -34.991941681124338 ], [ 150.585940022894704, -34.992041588511917 ], [ 150.585844203737423, -34.992487629349206 ], [ 150.585844152652641, -34.992487615712221 ], [ 150.585790086680191, -34.99251594139357 ], [ 150.585766292904395, -34.992557581901735 ], [ 150.585535982922408, -34.992544984209673 ], [ 150.585464599820426, -34.992556881135691 ], [ 150.585422958689719, -34.992622316771048 ], [ 150.585422959624339, -34.992717494793013 ], [ 150.585363472384955, -34.992836467786724 ], [ 150.585327781036938, -34.992967338623387 ], [ 150.585292089036471, -34.993062516669603 ], [ 150.585292089119861, -34.993163644360891 ], [ 150.585309934854081, -34.99324692473899 ], [ 150.58541106126259, -34.993294514591838 ], [ 150.585535983817721, -34.993240976023948 ], [ 150.585569986594464, -34.993200036330954 ], [ 150.585605678431051, -34.993241676854403 ], [ 150.585676111180476, -34.993269935817068 ], [ 150.585528612545488, -34.99395640728568 ], [ 150.585445065331015, -34.993925771502163 ], [ 150.585415321554507, -34.993925771858216 ], [ 150.585367732563213, -34.993907925873913 ], [ 150.585308245696837, -34.99390197686013 ], [ 150.585254708686222, -34.993901976930289 ], [ 150.58522496492111, -34.99390197724 ], [ 150.585167246265371, -34.993952418672272 ], [ 150.585114215674196, -34.993944057719176 ], [ 150.585048780932425, -34.993944057082928 ], [ 150.585007139636673, -34.993961903099276 ], [ 150.584929807543176, -34.993967852375981 ], [ 150.584888167106527, -34.993890519492155 ], [ 150.584900064165055, -34.993789392444874 ], [ 150.584935756130989, -34.993682316953574 ], [ 150.584995243358975, -34.993575240893293 ], [ 150.585013088714049, -34.993491959605066 ], [ 150.585013088308443, -34.993396781613548 ], [ 150.585024985767035, -34.993319448821495 ], [ 150.585042832322898, -34.993254013927718 ], [ 150.585042831892707, -34.993158835030435 ], [ 150.585102318130595, -34.993075554053171 ], [ 150.585149907298472, -34.992986324557044 ], [ 150.585108267306566, -34.992897094166331 ], [ 150.585138010766087, -34.992795967083744 ], [ 150.585167753354995, -34.992742429422648 ], [ 150.585167753812641, -34.992647251434882 ], [ 150.58520939459035, -34.992617507747298 ], [ 150.58528672688638, -34.992546124237379 ], [ 150.585292675988001, -34.992486637498324 ], [ 150.5852450863878, -34.992421202016395 ], [ 150.585233188614922, -34.992331972209826 ], [ 150.585286726626208, -34.992230845348345 ], [ 150.585328367794943, -34.992153513067677 ], [ 150.585364059635396, -34.992034539808131 ], [ 150.585364059353282, -34.991933412997021 ], [ 150.585423545595717, -34.991921515558445 ], [ 150.585494930210643, -34.991921515362769 ], [ 150.585542519318807, -34.991927464592287 ], [ 150.585593950958327, -34.991938007525647 ], [ 150.585609068002896, -34.991866644234314 ], [ 150.585688960410465, -34.991849691608728 ], [ 150.585736549495977, -34.991855640761052 ], [ 150.585778189444596, -34.991849692027344 ], [ 150.585849574009643, -34.991849691620359 ] ] ] ] } },
{ "type": "Feature", "properties": { "OBJECTID_1": 17, "OBJECTID": 28, "Zone_ID": "9", "CONDITION": "Moderate", "EasternPCT": "3654", "E_PCT_Name": "Shoalhaven Lowland Bloodwood Shrub Forest", "VEG_CLASS": "South East Dry Sclerophyll Forests", "BC_Act": "-", "EPBC_Act": "-", "Area_ha": 0.070125582119200003, "Area_m2": 701.25582119199998, "Comments": null, "ECMLink": null, "FSource": "Derived from field observations and aerial imagery.", "SourceDate": "2026-02-04T00:00:00Z", "PlanAccur": null, "Supplier": "Stantec Australia Pty Ltd (3045)", "Shape_Length": 112.30880616347523, "Shape_Area": 701.25582119206331 }, "geometry": { "type": "MultiPolygon", "coordinates": [ [ [ [ 150.583020289768029, -35.00141556475478 ], [ 150.58300244437558, -35.001391770182543 ], [ 150.582966751927614, -35.001356078564491 ], [ 150.582984598314738, -35.001326335011107 ], [ 150.583073828379668, -35.001290643151897 ], [ 150.583163057783622, -35.001290643013796 ], [ 150.583204698870105, -35.001296591965065 ], [ 150.58322254400673, -35.001385821323517 ], [ 150.583240390246402, -35.001498845836331 ], [ 150.583186852271268, -35.001611870858646 ], [ 150.583145211750264, -35.001671356725645 ], [ 150.583067878892564, -35.001653511307282 ], [ 150.583026239389483, -35.00161187053839 ], [ 150.583044085367618, -35.001546435170518 ], [ 150.583044084973125, -35.001486949130566 ], [ 150.583020289768029, -35.00141556475478 ] ] ] ] } },
{ "type": "Feature", "properties": { "OBJECTID_1": 19, "OBJECTID": 30, "Zone_ID": "9", "CONDITION": "Moderate", "EasternPCT": "3654", "E_PCT_Name": "Shoalhaven Lowland Bloodwood Shrub Forest", "VEG_CLASS": "South East Dry Sclerophyll Forests", "BC_Act": "-", "EPBC_Act": "-", "Area_ha": 0.34681445446999998, "Area_m2": 3468.1445447000001, "Comments": null, "ECMLink": null, "FSource": "Derived from field observations and aerial imagery.", "SourceDate": "2026-02-04T00:00:00Z", "PlanAccur": null, "Supplier": "Stantec Australia Pty Ltd (3045)", "Shape_Length": 468.97771600923551, "Shape_Area": 3468.1445446963398 }, "geometry": { "type": "MultiPolygon", "coordinates": [ [ [ [ 150.584935386967317, -35.003433252388263 ], [ 150.584876270120247, -35.003402414562046 ], [ 150.584804885626625, -35.003336979359432 ], [ 150.58480488619972, -35.003259646972424 ], [ 150.584852474783219, -35.003241801449917 ], [ 150.584906013494077, -35.003241801718119 ], [ 150.584941705431277, -35.003194212494648 ], [ 150.584941704471305, -35.003128776741598 ], [ 150.584941704576636, -35.003063341910654 ], [ 150.584971448772563, -35.002986009343587 ], [ 150.584941705429685, -35.002908677118889 ], [ 150.584917910404158, -35.002837293090408 ], [ 150.584929808133552, -35.002783754682412 ], [ 150.584935756464233, -35.002724268950502 ], [ 150.584953602492476, -35.00261124390309 ], [ 150.585013088868976, -35.002581500491459 ], [ 150.585060677899719, -35.002527963072467 ], [ 150.5850487807337, -35.002456578811824 ], [ 150.584983345477156, -35.002403041621989 ], [ 150.584882218778603, -35.002397092735862 ], [ 150.58482868077968, -35.002331657645087 ], [ 150.584757296617624, -35.002325708483298 ], [ 150.58465022143551, -35.002290016952358 ], [ 150.584555042731409, -35.002284068121305 ], [ 150.584453915148913, -35.002260273409931 ], [ 150.584346839509493, -35.002212684036046 ], [ 150.584317095945977, -35.002117506210162 ], [ 150.584275456268529, -35.002087762520212 ], [ 150.584215969280876, -35.002028276493292 ], [ 150.584215969851726, -35.001980687127116 ], [ 150.584257610366137, -35.001968789358386 ], [ 150.584358737527879, -35.001992584217611 ], [ 150.584471761850807, -35.002004481212488 ], [ 150.584578836925118, -35.002028276221751 ], [ 150.584650220837062, -35.002034224576882 ], [ 150.584721604411726, -35.002052070454631 ], [ 150.584792988397169, -35.002075865084791 ], [ 150.584870320859949, -35.002075865755749 ], [ 150.584923858837328, -35.002075865084194 ], [ 150.585072575303826, -35.002081813781032 ], [ 150.58518900412156, -35.002140021375467 ], [ 150.584951533186114, -35.003350920041932 ], [ 150.584935386967317, -35.003433252388263 ] ] ] ] } },
{ "type": "Feature", "properties": { "OBJECTID_1": 20, "OBJECTID": 31, "Zone_ID": "9", "CONDITION": "Moderate", "EasternPCT": "3654", "E_PCT_Name": "Shoalhaven Lowland Bloodwood Shrub Forest", "VEG_CLASS": "South East Dry Sclerophyll Forests", "BC_Act": "-", "EPBC_Act": "-", "Area_ha": 0.072688561425599998, "Area_m2": 726.88561425600005, "Comments": null, "ECMLink": null, "FSource": "Derived from field observations and aerial imagery.", "SourceDate": "2026-02-04T00:00:00Z", "PlanAccur": null, "Supplier": "Stantec Australia Pty Ltd (3045)", "Shape_Length": 152.73122519318051, "Shape_Area": 726.88561425594628 }, "geometry": { "type": "MultiPolygon", "coordinates": [ [ [ [ 150.583287980034953, -35.001903354662822 ], [ 150.583282031438387, -35.001861713675709 ], [ 150.583317722554312, -35.00186171428048 ], [ 150.583359363968896, -35.001867662289449 ], [ 150.583412901232094, -35.001879559836347 ], [ 150.583490233509991, -35.001879559578136 ], [ 150.583585412450077, -35.001879559554212 ], [ 150.583650846925991, -35.001879560206007 ], [ 150.583728179649881, -35.001909302824401 ], [ 150.583859049781893, -35.001909303061367 ], [ 150.583924485385296, -35.001909303588256 ], [ 150.584007766165882, -35.001921200038126 ], [ 150.58403750950751, -35.001980687024428 ], [ 150.583983972143045, -35.002010430338842 ], [ 150.583906639281423, -35.002022327565498 ], [ 150.583793614868512, -35.002028276395308 ], [ 150.583751974944562, -35.002010430093335 ], [ 150.583698437040937, -35.002010430249165 ], [ 150.583650846957596, -35.002010429850365 ], [ 150.583567566442696, -35.002004481943565 ], [ 150.583531873801661, -35.001974738362946 ], [ 150.583478336986389, -35.001950943308458 ], [ 150.583401003546783, -35.001950943534538 ], [ 150.583371260421245, -35.001933097891538 ], [ 150.583335568974377, -35.00192714941317 ], [ 150.583287980034953, -35.001903354662822 ] ] ] ] } },
{ "type": "Feature", "properties": { "OBJECTID_1": 21, "OBJECTID": 32, "Zone_ID": "9", "CONDITION": "Moderate", "EasternPCT": "3654", "E_PCT_Name": "Shoalhaven Lowland Bloodwood Shrub Forest", "VEG_CLASS": "South East Dry Sclerophyll Forests", "BC_Act": "-", "EPBC_Act": "-", "Area_ha": 0.0589934131153, "Area_m2": 589.93413115299995, "Comments": null, "ECMLink": null, "FSource": "Derived from field observations and aerial imagery.", "SourceDate": "2026-02-04T00:00:00Z", "PlanAccur": null, "Supplier": "Stantec Australia Pty Ltd (3045)", "Shape_Length": 106.38920507296626, "Shape_Area": 589.93413115319197 }, "geometry": { "type": "MultiPolygon", "coordinates": [ [ [ [ 150.582829933162373, -35.001879559952421 ], [ 150.58278234454562, -35.001831970783378 ], [ 150.582788292619256, -35.001784381839407 ], [ 150.582794241412898, -35.001754638356424 ], [ 150.582853727895156, -35.001724895106037 ], [ 150.582913214821076, -35.001707049400551 ], [ 150.58296675193094, -35.001718946236913 ], [ 150.58306193085906, -35.001748689635612 ], [ 150.583055982047313, -35.001826021596855 ], [ 150.583085725444874, -35.001903354252036 ], [ 150.583085725773032, -35.001986635420728 ], [ 150.583038135782914, -35.002040173831119 ], [ 150.582978649923888, -35.002010430251516 ], [ 150.582966752412233, -35.001939046715137 ], [ 150.582919163438106, -35.001885508807739 ], [ 150.582889419619249, -35.001873610916611 ], [ 150.582829933162373, -35.001879559952421 ] ] ] ] } },
{ "type": "Feature", "properties": { "OBJECTID_1": 22, "OBJECTID": 33, "Zone_ID": "9", "CONDITION": "Moderate", "EasternPCT": "3654", "E_PCT_Name": "Shoalhaven Lowland Bloodwood Shrub Forest", "VEG_CLASS": "South East Dry Sclerophyll Forests", "BC_Act": "-", "EPBC_Act": "-", "Area_ha": 0.095308881448899999, "Area_m2": 953.08881448900001, "Comments": null, "ECMLink": null, "FSource": "Derived from field observations and aerial imagery.", "SourceDate": "2026-02-04T00:00:00Z", "PlanAccur": null, "Supplier": "Stantec Australia Pty Ltd (3045)", "Shape_Length": 154.33001908775003, "Shape_Area": 953.08881448885472 }, "geometry": { "type": "MultiPolygon", "coordinates": [ [ [ [ 150.582649954844328, -35.002180013649962 ], [ 150.582716908402205, -35.0021829414938 ], [ 150.582806138623567, -35.00220673588408 ], [ 150.58287752300123, -35.002224581957719 ], [ 150.582907265873871, -35.002236478933483 ], [ 150.582960803567232, -35.002254324573201 ], [ 150.58299649517474, -35.002313811311168 ], [ 150.582996495964011, -35.002385195818533 ], [ 150.582978650149357, -35.002486322063511 ], [ 150.582942957897529, -35.002545809155976 ], [ 150.582901316785325, -35.002635038818234 ], [ 150.582883471062843, -35.002635038449021 ], [ 150.582853727818531, -35.002617192675395 ], [ 150.58284777977903, -35.002557706239983 ], [ 150.582853727892797, -35.002510117298606 ], [ 150.5828656251783, -35.002468476674153 ], [ 150.58286562568864, -35.002426836108405 ], [ 150.582835881818625, -35.002391143971629 ], [ 150.582794241542189, -35.00239114368199 ], [ 150.582734754930812, -35.00240304144193 ], [ 150.58271690884186, -35.002420887388787 ], [ 150.582663370919647, -35.00242683586329 ], [ 150.582599913279694, -35.002409421653674 ], [ 150.582634437471143, -35.002251147542758 ], [ 150.582649954844328, -35.002180013649962 ] ] ] ] } },
{ "type": "Feature", "properties": { "OBJECTID_1": 25, "OBJECTID": 36, "Zone_ID": "9", "CONDITION": "Moderate", "EasternPCT": "3654", "E_PCT_Name": "Shoalhaven Lowland Bloodwood Shrub Forest", "VEG_CLASS": "South East Dry Sclerophyll Forests", "BC_Act": "-", "EPBC_Act": "-", "Area_ha": 0.339909334078, "Area_m2": 3399.0933407799998, "Comments": null, "ECMLink": null, "FSource": "Derived from field observations and aerial imagery.", "SourceDate": "2026-02-04T00:00:00Z", "PlanAccur": null, "Supplier": "Stantec Australia Pty Ltd (3045)", "Shape_Length": 331.0580565644031, "Shape_Area": 3399.0933407793495 }, "geometry": { "type": "MultiPolygon", "coordinates": [ [ [ [ 150.58250250499961, -35.002855976820022 ], [ 150.58255926965515, -35.002863169402005 ], [ 150.582612807664134, -35.002881015207272 ], [ 150.582642550285726, -35.002910758591483 ], [ 150.582696088748463, -35.002910758925793 ], [ 150.582785318680777, -35.002851272194569 ], [ 150.582809113196191, -35.002762042181558 ], [ 150.582874548267824, -35.002732299368034 ], [ 150.582904291914048, -35.002785836937477 ], [ 150.582898343030479, -35.002869118557648 ], [ 150.582934034492553, -35.002892912617504 ], [ 150.582939983938729, -35.002958347857991 ], [ 150.582886445628048, -35.003017834553191 ], [ 150.582838856690159, -35.003089218327929 ], [ 150.582832907553723, -35.003196294160468 ], [ 150.58274962648926, -35.003261729234595 ], [ 150.582690139480576, -35.00327957483011 ], [ 150.58267824240221, -35.003333112995541 ], [ 150.582737729609107, -35.003434240337249 ], [ 150.582767472295899, -35.003487777919496 ], [ 150.58277937000156, -35.003565110246825 ], [ 150.5827317801959, -35.0036543402923 ], [ 150.58271393407091, -35.003737621921452 ], [ 150.582713934155606, -35.00382685093637 ], [ 150.582684191433856, -35.003892286258314 ], [ 150.582600910181071, -35.003916081539835 ], [ 150.58257116681574, -35.003874440565596 ], [ 150.582547372114362, -35.003791159463859 ], [ 150.582487886265199, -35.003666237837912 ], [ 150.582487885958699, -35.003594854263241 ], [ 150.582434347486128, -35.003511572697164 ], [ 150.582428399457655, -35.00347588047611 ], [ 150.582324206860307, -35.003368037719241 ], [ 150.582389832193286, -35.003372499733608 ], [ 150.582481222402805, -35.002953540400156 ], [ 150.58250250499961, -35.002855976820022 ] ] ] ] } },
{ "type": "Feature", "properties": { "OBJECTID_1": 27, "OBJECTID": 38, "Zone_ID": "9", "CONDITION": "Moderate", "EasternPCT": "3654", "E_PCT_Name": "Shoalhaven Lowland Bloodwood Shrub Forest", "VEG_CLASS": "South East Dry Sclerophyll Forests", "BC_Act": "-", "EPBC_Act": "-", "Area_ha": 0.66760658496799996, "Area_m2": 6676.0658496799997, "Comments": null, "ECMLink": null, "FSource": "Derived from field observations and aerial imagery.", "SourceDate": "2026-02-04T00:00:00Z", "PlanAccur": null, "Supplier": "Stantec Australia Pty Ltd (3045)", "Shape_Length": 798.34347738167935, "Shape_Area": 6676.0658496821552 }, "geometry": { "type": "MultiPolygon", "coordinates": [ [ [ [ 150.582791267354054, -35.004463357225987 ], [ 150.582785318120955, -35.004516894906388 ], [ 150.582785318822118, -35.004564484264257 ], [ 150.582749626120545, -35.00464181669242 ], [ 150.582731780427906, -35.004772686758017 ], [ 150.582713934420781, -35.004867865932432 ], [ 150.582702037303903, -35.004957094961831 ], [ 150.582672293616838, -35.00509986258097 ], [ 150.582654448100328, -35.005212887187604 ], [ 150.582654447970555, -35.005331860078279 ], [ 150.582666345547011, -35.00537350062077 ], [ 150.582696088771883, -35.005456782129912 ], [ 150.582702036995556, -35.005522217334878 ], [ 150.582702036924076, -35.005611447226279 ], [ 150.582684191345692, -35.005694727928876 ], [ 150.582666345252619, -35.005795854955323 ], [ 150.582654447862581, -35.005885084860985 ], [ 150.582654448605126, -35.005968365983819 ], [ 150.582642551165918, -35.006057595884421 ], [ 150.582636601732503, -35.00617656920673 ], [ 150.582594961698987, -35.006271747474912 ], [ 150.58255926978012, -35.006402617933645 ], [ 150.582547372055132, -35.006521590802656 ], [ 150.582547372240299, -35.006658410011084 ], [ 150.58251762932133, -35.006723845238909 ], [ 150.582517628861439, -35.006842818094498 ], [ 150.582499782799886, -35.006961791406709 ], [ 150.582458142629179, -35.007140250694022 ], [ 150.582410553327122, -35.007294915283637 ], [ 150.582386758597011, -35.007443631998854 ], [ 150.582386758800482, -35.007556656074449 ], [ 150.582339169812712, -35.007663732208989 ], [ 150.582297528655346, -35.007687526784956 ], [ 150.582243990936007, -35.007669680793896 ], [ 150.582190452827803, -35.007598296677777 ], [ 150.582154761427347, -35.007520964282904 ], [ 150.582142864126695, -35.007449580721456 ], [ 150.582142863506618, -35.007348453296316 ], [ 150.582166658366333, -35.007229480526227 ], [ 150.582184504919184, -35.007146199053061 ], [ 150.582226144999595, -35.007056969735196 ], [ 150.582232094151777, -35.007015328764773 ], [ 150.582226145342759, -35.006955842321737 ], [ 150.582202350290373, -35.006872561168734 ], [ 150.582232093688305, -35.006813074813543 ], [ 150.582261836867332, -35.006747639667232 ], [ 150.582261836918661, -35.006676256133645 ], [ 150.58226183736403, -35.006581077494317 ], [ 150.582261837406662, -35.006509693958925 ], [ 150.582291580260801, -35.006438310014964 ], [ 150.582339169941832, -35.006307439668852 ], [ 150.582374861457339, -35.006188465927686 ], [ 150.582362964087395, -35.006117082373621 ], [ 150.582362963869144, -35.006075441819277 ], [ 150.582410553251464, -35.005980263198254 ], [ 150.58245219403932, -35.005873187447946 ], [ 150.582458142980443, -35.005766111683506 ], [ 150.582470039334424, -35.005706625675465 ], [ 150.582475988517217, -35.005641190465653 ], [ 150.582499783369173, -35.005587652352744 ], [ 150.58252357756794, -35.00551626878412 ], [ 150.582523577750237, -35.005456781894082 ], [ 150.582523578005635, -35.005367552008508 ], [ 150.58254142345416, -35.005278322545514 ], [ 150.582559269894347, -35.005218836095267 ], [ 150.582583064757756, -35.00517124673933 ], [ 150.582583064651345, -35.005105811961414 ], [ 150.582583064772678, -35.005046325065969 ], [ 150.58259496158513, -35.004974941484868 ], [ 150.582606859019705, -35.004921403352718 ], [ 150.582636602015185, -35.004850019293222 ], [ 150.582654447616932, -35.004772687366042 ], [ 150.582654448344954, -35.004701302918221 ], [ 150.582654448620048, -35.004618021801342 ], [ 150.582678242781043, -35.004558535744536 ], [ 150.582690139656137, -35.004493100026529 ], [ 150.582719882826069, -35.004463357405726 ], [ 150.582761523896039, -35.004397922072123 ], [ 150.582761523389877, -35.004326538495611 ], [ 150.58277937003308, -35.004225411436842 ], [ 150.582791267257818, -35.004201616275537 ], [ 150.582826958824825, -35.004243256719107 ], [ 150.582826958522503, -35.004320589062409 ], [ 150.582809113402675, -35.004403870717091 ], [ 150.582791267354054, -35.004463357225987 ] ] ] ] } },
{ "type": "Feature", "properties": { "OBJECTID_1": 28, "OBJECTID": 39, "Zone_ID": "10", "CONDITION": "Low", "EasternPCT": "3654", "E_PCT_Name": "Shoalhaven Lowland Bloodwood Shrub Forest", "VEG_CLASS": "South East Dry Sclerophyll Forests", "BC_Act": "-", "EPBC_Act": "-", "Area_ha": 1.0576392670899999, "Area_m2": 10576.392670900001, "Comments": null, "ECMLink": null, "FSource": "Derived from field observations and aerial imagery.", "SourceDate": "2026-02-04T00:00:00Z", "PlanAccur": null, "Supplier": "Stantec Australia Pty Ltd (3045)", "Shape_Length": 849.11674602015228, "Shape_Area": 10576.392670881807 }, "geometry": { "type": "MultiPolygon", "coordinates": [ [ [ [ 150.582297528655346, -35.007687526784956 ], [ 150.582339169812712, -35.007663732208989 ], [ 150.582386758800482, -35.007556656074449 ], [ 150.582386758597011, -35.007443631998854 ], [ 150.582410553327122, -35.007294915283637 ], [ 150.582458142629179, -35.007140250694022 ], [ 150.582499782799886, -35.006961791406709 ], [ 150.582517628861439, -35.006842818094498 ], [ 150.58251762932133, -35.006723845238909 ], [ 150.582547372240299, -35.006658410011084 ], [ 150.582547372055132, -35.006521590802656 ], [ 150.58255926978012, -35.006402617933645 ], [ 150.582594961698987, -35.006271747474912 ], [ 150.582636601732503, -35.00617656920673 ], [ 150.582642551165918, -35.006057595884421 ], [ 150.582654448605126, -35.005968365983819 ], [ 150.582654447862581, -35.005885084860985 ], [ 150.582666345252619, -35.005795854955323 ], [ 150.582684191345692, -35.005694727928876 ], [ 150.582702036924076, -35.005611447226279 ], [ 150.582702036995556, -35.005522217334878 ], [ 150.582696088771883, -35.005456782129912 ], [ 150.582666345547011, -35.00537350062077 ], [ 150.582654447970555, -35.005331860078279 ], [ 150.582654448100328, -35.005212887187604 ], [ 150.582672293616838, -35.00509986258097 ], [ 150.582702037303903, -35.004957094961831 ], [ 150.582713934420781, -35.004867865932432 ], [ 150.582731780427906, -35.004772686758017 ], [ 150.582749626120545, -35.00464181669242 ], [ 150.582785318822118, -35.004564484264257 ], [ 150.582785318120955, -35.004516894906388 ], [ 150.582791267354054, -35.004463357225987 ], [ 150.582809113402675, -35.004403870717091 ], [ 150.582826958522503, -35.004320589062409 ], [ 150.582826958824825, -35.004243256719107 ], [ 150.582791267257818, -35.004201616275537 ], [ 150.582818035677121, -35.00416979146366 ], [ 150.582847779682623, -35.004193586050071 ], [ 150.582931060863274, -35.004217379950497 ], [ 150.583008392387114, -35.00430660994634 ], [ 150.583091673985649, -35.004389891560436 ], [ 150.583127366359093, -35.004496966726137 ], [ 150.583103571508389, -35.004663529121878 ], [ 150.583073827560042, -35.004859834983236 ], [ 150.583050032954787, -35.005038294020586 ], [ 150.583050033005748, -35.005228651394674 ], [ 150.583050032974199, -35.005335726738139 ], [ 150.583014342094174, -35.005407110490424 ], [ 150.582978649883302, -35.00550228932449 ], [ 150.582954855258976, -35.005692645879002 ], [ 150.582972700740243, -35.005865157259535 ], [ 150.58297270120741, -35.006073360054529 ], [ 150.582931060351285, -35.006192332649228 ], [ 150.582907265294295, -35.006382690062942 ], [ 150.582877523074927, -35.006573047062844 ], [ 150.582829933426268, -35.006626584405268 ], [ 150.582775876086714, -35.006939582816294 ], [ 150.582714961349154, -35.006930949076278 ], [ 150.58254988334491, -35.007774104308801 ], [ 150.582297528655346, -35.007687526784956 ] ] ] ] } },
{ "type": "Feature", "properties": { "OBJECTID_1": 29, "OBJECTID": 40, "Zone_ID": "9", "CONDITION": "Moderate", "EasternPCT": "3654", "E_PCT_Name": "Shoalhaven Lowland Bloodwood Shrub Forest", "VEG_CLASS": "South East Dry Sclerophyll Forests", "BC_Act": "-", "EPBC_Act": "-", "Area_ha": 5.1142683817099996, "Area_m2": 51142.683817099998, "Comments": null, "ECMLink": null, "FSource": "Derived from field observations and aerial imagery.", "SourceDate": "2026-02-04T00:00:00Z", "PlanAccur": null, "Supplier": "Stantec Australia Pty Ltd (3045)", "Shape_Length": 1758.4749677236293, "Shape_Area": 51142.683817081917 }, "geometry": { "type": "MultiPolygon", "coordinates": [ [ [ [ 150.582404604225616, -35.005141503790057 ], [ 150.582410552920976, -35.005195041457085 ], [ 150.582410553763111, -35.005254528367949 ], [ 150.582392707151797, -35.005379449560948 ], [ 150.582333220607836, -35.005498422396151 ], [ 150.582333220872243, -35.005611447402728 ], [ 150.582315374922928, -35.005694728035778 ], [ 150.582315374601535, -35.005789906690339 ], [ 150.582315374824503, -35.005867239017846 ], [ 150.582285631851732, -35.005998109861743 ], [ 150.582285631322947, -35.006087338827378 ], [ 150.58224993922363, -35.006152774425068 ], [ 150.58222019642082, -35.006259850133205 ], [ 150.58218450506277, -35.006355028712306 ], [ 150.582166658669877, -35.00647400196884 ], [ 150.582136914956607, -35.006557282516802 ], [ 150.582113120648046, -35.006610820551423 ], [ 150.582113120191195, -35.006711947964462 ], [ 150.582125018492491, -35.006783331553144 ], [ 150.582101223069117, -35.006878510102986 ], [ 150.582077428519881, -35.006967739885525 ], [ 150.582059583188197, -35.007056969243877 ], [ 150.582059582757154, -35.007122404886523 ], [ 150.582059582349473, -35.007187839627598 ], [ 150.582035787815869, -35.007324658712761 ], [ 150.581988199185105, -35.007372247842994 ], [ 150.582006044676405, -35.007449580661358 ], [ 150.582006045457092, -35.007520964199408 ], [ 150.581982250577227, -35.007610193942874 ], [ 150.58194655845432, -35.007669680641442 ], [ 150.581910866277724, -35.007729167326886 ], [ 150.58189302045426, -35.007770808223803 ], [ 150.581875174555762, -35.007854088749525 ], [ 150.581863277251273, -35.007955216083189 ], [ 150.581869226291303, -35.00808013817619 ], [ 150.581863277731543, -35.008157469984468 ], [ 150.581821637024404, -35.008312135670103 ], [ 150.581791893272566, -35.008443005397503 ], [ 150.581756201133715, -35.00852628712618 ], [ 150.581756201345371, -35.008633362391443 ], [ 150.581756201650364, -35.008746387334213 ], [ 150.581726458162166, -35.008853462836775 ], [ 150.581708612459551, -35.00902002527625 ], [ 150.581655074909378, -35.009150895694219 ], [ 150.581613433367721, -35.009257971051532 ], [ 150.581530152602426, -35.009382892839824 ], [ 150.58154799921283, -35.00946617360038 ], [ 150.581547998368023, -35.009537557979669 ], [ 150.581524203589169, -35.009638685137496 ], [ 150.581512306691025, -35.009745760278975 ], [ 150.58148256361963, -35.009858785377112 ], [ 150.581506357652984, -35.009948014493233 ], [ 150.581482563331065, -35.010025347447204 ], [ 150.581423077303072, -35.01021570406035 ], [ 150.581393334212464, -35.0103465745431 ], [ 150.581375487467056, -35.010453650022122 ], [ 150.581333847496126, -35.010525034435418 ], [ 150.581304104405575, -35.010602366825253 ], [ 150.581256514992532, -35.01076298047424 ], [ 150.581220822691989, -35.01087600494796 ], [ 150.581214874415707, -35.01096523423 ], [ 150.581179182564142, -35.011042566957819 ], [ 150.581179182106297, -35.01109015623107 ], [ 150.581179182129006, -35.011173437249582 ], [ 150.581161335781559, -35.011268616039288 ], [ 150.581137541802377, -35.011345948002237 ], [ 150.581155388072148, -35.011411383375773 ], [ 150.580969862309985, -35.01141226781678 ], [ 150.580900295010935, -35.011456450516818 ], [ 150.580817013875645, -35.011438604777005 ], [ 150.58076814260113, -35.011434117128879 ], [ 150.579407054677176, -35.011222106135541 ], [ 150.579515073219056, -35.010642745986203 ], [ 150.579516124807043, -35.010637104864038 ], [ 150.579526045627603, -35.010583893689713 ], [ 150.57960804305867, -35.010144092005852 ], [ 150.580193283950734, -35.010225253420479 ], [ 150.58079909882909, -35.010309264401037 ], [ 150.581873352417091, -35.005093146163873 ], [ 150.581971052223452, -35.005067597880846 ], [ 150.582006744155507, -35.005085443451527 ], [ 150.582072179500159, -35.00510328956134 ], [ 150.582149511677926, -35.005109238098271 ], [ 150.582220895830289, -35.005115187038328 ], [ 150.582289438038515, -35.005139632387795 ], [ 150.582302429440062, -35.005077597231654 ], [ 150.582362964632125, -35.005070119784683 ], [ 150.582404604225616, -35.005141503790057 ] ] ] ] } },
{ "type": "Feature", "properties": { "OBJECTID_1": 30, "OBJECTID": 41, "Zone_ID": "9", "CONDITION": "Moderate", "EasternPCT": "3654", "E_PCT_Name": "Shoalhaven Lowland Bloodwood Shrub Forest", "VEG_CLASS": "South East Dry Sclerophyll Forests", "BC_Act": "-", "EPBC_Act": "-", "Area_ha": 2.1310876122, "Area_m2": 21310.876122000001, "Comments": null, "ECMLink": null, "FSource": "Derived from field observations and aerial imagery.", "SourceDate": "2026-02-04T00:00:00Z", "PlanAccur": null, "Supplier": "Stantec Australia Pty Ltd (3045)", "Shape_Length": 1664.5556541775841, "Shape_Area": 21310.876122031073 }, "geometry": { "type": "MultiPolygon", "coordinates": [ [ [ [ 150.582125018522959, -35.00777080787946 ], [ 150.58219045304574, -35.007800551501866 ], [ 150.582220196280844, -35.007836242891791 ], [ 150.582279682482692, -35.007860038132193 ], [ 150.582291579770526, -35.007925472902492 ], [ 150.582261837562811, -35.008002805610801 ], [ 150.582238042806381, -35.008169367701413 ], [ 150.582238042744905, -35.008282391756339 ], [ 150.58220235022435, -35.008371621496828 ], [ 150.582190453046678, -35.008466800088257 ], [ 150.582119069161564, -35.008579824803824 ], [ 150.582113120436276, -35.008645259968773 ], [ 150.58208932652019, -35.008698797978447 ], [ 150.582089326517519, -35.008782079042717 ], [ 150.582059583122685, -35.008918897616006 ], [ 150.582029839041411, -35.008990281431586 ], [ 150.582006045049837, -35.009091408722945 ], [ 150.582011993416813, -35.009180638128036 ], [ 150.582029839367294, -35.009263919717441 ], [ 150.582029839269723, -35.009347200772154 ], [ 150.581988199189283, -35.009454276292708 ], [ 150.581976301755702, -35.009513763084513 ], [ 150.581970353224875, -35.009597044560344 ], [ 150.581970352767115, -35.009668428052272 ], [ 150.581976301239052, -35.009763606229519 ], [ 150.581946558243089, -35.009852836355606 ], [ 150.581916814638021, -35.009918271359766 ], [ 150.58191681560757, -35.009959911902655 ], [ 150.581887071632906, -35.010061039539131 ], [ 150.581851380486512, -35.010120525284272 ], [ 150.581827585278461, -35.010245447587955 ], [ 150.581833533638161, -35.01029303646483 ], [ 150.581833533966631, -35.010358472090125 ], [ 150.581785945010722, -35.01048339334001 ], [ 150.581762149815631, -35.010566674200945 ], [ 150.581762149727979, -35.010667801558057 ], [ 150.581714561271099, -35.01083436419654 ], [ 150.581672920139738, -35.010953337089497 ], [ 150.581649125499581, -35.011137745278269 ], [ 150.581649126105987, -35.011226975091361 ], [ 150.581577741601279, -35.011369742332931 ], [ 150.581559896193369, -35.011494664170954 ], [ 150.581494460854373, -35.011637431864415 ], [ 150.581446871576134, -35.011827788526077 ], [ 150.581434973902816, -35.011994351330394 ], [ 150.581375487784356, -35.012226348340555 ], [ 150.581351693198997, -35.012422653962822 ], [ 150.581327898735623, -35.012559472756962 ], [ 150.581321949885591, -35.01269629218752 ], [ 150.581292206669929, -35.012833111348563 ], [ 150.581262463120879, -35.012868803176588 ], [ 150.581220822323615, -35.012987775852778 ], [ 150.581161335839766, -35.013130543827224 ], [ 150.58116728467337, -35.013243568306045 ], [ 150.5811256448618, -35.01338633604044 ], [ 150.581084004057288, -35.013552897916817 ], [ 150.581084004181776, -35.013671871532011 ], [ 150.581084004149687, -35.013772997928768 ], [ 150.581036414687304, -35.013862227931142 ], [ 150.581018568289608, -35.013933611566806 ], [ 150.580959082602135, -35.014046636468152 ], [ 150.580923390634524, -35.014189403721204 ], [ 150.580911492852124, -35.014278634182865 ], [ 150.580905543813117, -35.014373812151085 ], [ 150.580899596054508, -35.014498733992035 ], [ 150.580834160810724, -35.014576066535959 ], [ 150.580846057515544, -35.014629603834095 ], [ 150.580846058016135, -35.014706936947036 ], [ 150.58086390362655, -35.014784268968448 ], [ 150.580905543875161, -35.014819960866561 ], [ 150.58089364684119, -35.014879447484141 ], [ 150.580816314539135, -35.014903242709117 ], [ 150.580703289620544, -35.014885395888022 ], [ 150.580655700735718, -35.014861601808597 ], [ 150.580614060542956, -35.01481401228952 ], [ 150.580584316744677, -35.014766422951368 ], [ 150.580554573957102, -35.014683141913324 ], [ 150.580554573656372, -35.01458796340372 ], [ 150.580566470656663, -35.01446899093073 ], [ 150.580625958085193, -35.014302428256926 ], [ 150.580691392545049, -35.014082328036864 ], [ 150.580744930278968, -35.013844382177318 ], [ 150.580774673878409, -35.013725409514436 ], [ 150.580822262846596, -35.013541001084135 ], [ 150.580810365736369, -35.013410130656212 ], [ 150.580852006302933, -35.013291157238761 ], [ 150.580893646878394, -35.013190030115268 ], [ 150.58087580135961, -35.013094851777325 ], [ 150.580899595167722, -35.013023467765947 ], [ 150.580965031321085, -35.012958032703757 ], [ 150.580988825555409, -35.012833111541283 ], [ 150.581000722949938, -35.012743881040684 ], [ 150.581000723008316, -35.012642754632481 ], [ 150.581000722971766, -35.012529729776467 ], [ 150.581072106860006, -35.01243455129805 ], [ 150.581089952742843, -35.012357218850148 ], [ 150.58108995246846, -35.012238246112027 ], [ 150.58113754127595, -35.012095477987963 ], [ 150.58113159340212, -35.01197055686891 ], [ 150.581173234110537, -35.011881327157333 ], [ 150.581220822530753, -35.011738558978571 ], [ 150.58122677120204, -35.011589842889911 ], [ 150.581256514778232, -35.011512510548101 ], [ 150.581256515122618, -35.011381640257959 ], [ 150.581321950255159, -35.011286461971217 ], [ 150.581321950379191, -35.011221026371665 ], [ 150.581316000844396, -35.011149642364558 ], [ 150.581369538619668, -35.011042566366569 ], [ 150.58135764164436, -35.01089979929484 ], [ 150.581387384673889, -35.010745133740627 ], [ 150.581417128738309, -35.010596417869351 ], [ 150.581452820824552, -35.010495290868796 ], [ 150.581458768903985, -35.010412009431803 ], [ 150.581476615326665, -35.01029303638294 ], [ 150.581530153127773, -35.010174063639056 ], [ 150.581553947107096, -35.01007888524888 ], [ 150.581607485229853, -35.009876630526236 ], [ 150.581607485144843, -35.009817144581348 ], [ 150.581607484717836, -35.009739812305114 ], [ 150.581631279576925, -35.009591095835169 ], [ 150.581684817880245, -35.009478070880945 ], [ 150.581690766880456, -35.009353149810103 ], [ 150.581714561435319, -35.009204433304454 ], [ 150.581768099361881, -35.009043819891403 ], [ 150.581809739659576, -35.008895103016876 ], [ 150.581833534219015, -35.00876423279896 ], [ 150.581833534205686, -35.00862146488187 ], [ 150.581887072216574, -35.008538183679072 ], [ 150.581922764345933, -35.00846085158679 ], [ 150.581940610143675, -35.008324032975217 ], [ 150.581934661222306, -35.008252648975827 ], [ 150.581940610303775, -35.008109881534267 ], [ 150.582000096812635, -35.008097984260083 ], [ 150.582035788344172, -35.008008753656824 ], [ 150.582047685907895, -35.007925472638341 ], [ 150.582047685418729, -35.007865986663042 ], [ 150.582047685413841, -35.007824346126164 ], [ 150.582053634581058, -35.007776756395238 ], [ 150.582077428996286, -35.007752962275845 ], [ 150.582125018522959, -35.00777080787946 ] ] ] ] } },
{ "type": "Feature", "properties": { "OBJECTID_1": 31, "OBJECTID": 42, "Zone_ID": "10", "CONDITION": "Low", "EasternPCT": "3654", "E_PCT_Name": "Shoalhaven Lowland Bloodwood Shrub Forest", "VEG_CLASS": "South East Dry Sclerophyll Forests", "BC_Act": "-", "EPBC_Act": "-", "Area_ha": 1.87944584549, "Area_m2": 18794.458454899999, "Comments": null, "ECMLink": null, "FSource": "Derived from field observations and aerial imagery.", "SourceDate": "2026-02-04T00:00:00Z", "PlanAccur": null, "Supplier": "Stantec Australia Pty Ltd (3045)", "Shape_Length": 1510.901541520172, "Shape_Area": 18794.458454940577 }, "geometry": { "type": "MultiPolygon", "coordinates": [ [ [ [ 150.581694410591354, -35.013282587055137 ], [ 150.58147873799993, -35.014262510933207 ], [ 150.581344560180213, -35.014215673732934 ], [ 150.581296970962711, -35.014149048571966 ], [ 150.58126086420242, -35.01407921416159 ], [ 150.580959082602135, -35.014046636468152 ], [ 150.581018568289608, -35.013933611566806 ], [ 150.581036414687304, -35.013862227931142 ], [ 150.581084004149687, -35.013772997928768 ], [ 150.581084004181776, -35.013671871532011 ], [ 150.581084004057288, -35.013552897916817 ], [ 150.5811256448618, -35.01338633604044 ], [ 150.58116728467337, -35.013243568306045 ], [ 150.581161335839766, -35.013130543827224 ], [ 150.581220822323615, -35.012987775852778 ], [ 150.581262463120879, -35.012868803176588 ], [ 150.581292206669929, -35.012833111348563 ], [ 150.581321949885591, -35.01269629218752 ], [ 150.581327898735623, -35.012559472756962 ], [ 150.581351693198997, -35.012422653962822 ], [ 150.581375487784356, -35.012226348340555 ], [ 150.581434973902816, -35.011994351330394 ], [ 150.581446871576134, -35.011827788526077 ], [ 150.581494460854373, -35.011637431864415 ], [ 150.581559896193369, -35.011494664170954 ], [ 150.581577741601279, -35.011369742332931 ], [ 150.581649126105987, -35.011226975091361 ], [ 150.581649125499581, -35.011137745278269 ], [ 150.581672920139738, -35.010953337089497 ], [ 150.581714561271099, -35.01083436419654 ], [ 150.581762149727979, -35.010667801558057 ], [ 150.581762149815631, -35.010566674200945 ], [ 150.581785945010722, -35.01048339334001 ], [ 150.581833533966631, -35.010358472090125 ], [ 150.581833533638161, -35.01029303646483 ], [ 150.581827585278461, -35.010245447587955 ], [ 150.581851380486512, -35.010120525284272 ], [ 150.581887071632906, -35.010061039539131 ], [ 150.58191681560757, -35.009959911902655 ], [ 150.581916814638021, -35.009918271359766 ], [ 150.581946558243089, -35.009852836355606 ], [ 150.581976301239052, -35.009763606229519 ], [ 150.581970352767115, -35.009668428052272 ], [ 150.581970353224875, -35.009597044560344 ], [ 150.581976301755702, -35.009513763084513 ], [ 150.581988199189283, -35.009454276292708 ], [ 150.582029839269723, -35.009347200772154 ], [ 150.582029839367294, -35.009263919717441 ], [ 150.582011993416813, -35.009180638128036 ], [ 150.582006045049837, -35.009091408722945 ], [ 150.582029839041411, -35.008990281431586 ], [ 150.582059583122685, -35.008918897616006 ], [ 150.582089326517519, -35.008782079042717 ], [ 150.58208932652019, -35.008698797978447 ], [ 150.582113120436276, -35.008645259968773 ], [ 150.582119069161564, -35.008579824803824 ], [ 150.582190453046678, -35.008466800088257 ], [ 150.58220235022435, -35.008371621496828 ], [ 150.582238042744905, -35.008282391756339 ], [ 150.582238042806381, -35.008169367701413 ], [ 150.582261837562811, -35.008002805610801 ], [ 150.582291579770526, -35.007925472902492 ], [ 150.582279682482692, -35.007860038132193 ], [ 150.582508208840324, -35.007990712064299 ], [ 150.582138755968998, -35.009801283903194 ], [ 150.582054635820356, -35.010213480268909 ], [ 150.582050877814623, -35.01023189443378 ], [ 150.582007878723658, -35.010442594324637 ], [ 150.581858377173461, -35.01124261855535 ], [ 150.581594093268137, -35.012657225372813 ], [ 150.58158589559855, -35.012701109356776 ], [ 150.581537188319345, -35.012961804927933 ], [ 150.581758248595946, -35.012992526727615 ], [ 150.581694410591354, -35.013282587055137 ] ] ] ] } },
{ "type": "Feature", "properties": { "OBJECTID_1": 32, "OBJECTID": 43, "Zone_ID": "9", "CONDITION": "Moderate", "EasternPCT": "3654", "E_PCT_Name": "Shoalhaven Lowland Bloodwood Shrub Forest", "VEG_CLASS": "South East Dry Sclerophyll Forests", "BC_Act": "-", "EPBC_Act": "-", "Area_ha": 0.45930834393600001, "Area_m2": 4593.0834393599998, "Comments": null, "ECMLink": null, "FSource": "Derived from field observations and aerial imagery.", "SourceDate": "2026-02-04T00:00:00Z", "PlanAccur": null, "Supplier": "Stantec Australia Pty Ltd (3045)", "Shape_Length": 496.6883634407186, "Shape_Area": 4593.0834393648338 }, "geometry": { "type": "MultiPolygon", "coordinates": [ [ [ [ 150.58058431656346, -35.013850330479144 ], [ 150.580560522398457, -35.013975252428772 ], [ 150.580560522730508, -35.014064482177432 ], [ 150.580542675935391, -35.014159660801681 ], [ 150.580489138134425, -35.014278633862197 ], [ 150.580465343632, -35.014385709465891 ], [ 150.580453446452168, -35.014486836518032 ], [ 150.580393960659052, -35.014611758644499 ], [ 150.580393959676741, -35.014706937124316 ], [ 150.580370165987091, -35.014808063945381 ], [ 150.580340422375116, -35.014861601818836 ], [ 150.580272946051508, -35.014879039644164 ], [ 150.58017131816473, -35.014865425788948 ], [ 150.58017455911434, -35.014793644572521 ], [ 150.580174559237378, -35.014710363619031 ], [ 150.580186456801414, -35.014627082017256 ], [ 150.580204301952421, -35.014514058024751 ], [ 150.580228096851812, -35.014418879126239 ], [ 150.580251891668183, -35.014317752351523 ], [ 150.580287583768353, -35.014169036557888 ], [ 150.58028758374823, -35.014044114207586 ], [ 150.580311378388188, -35.013990576661925 ], [ 150.580353018993122, -35.013942987779217 ], [ 150.580406556948475, -35.01391919238452 ], [ 150.580462458822979, -35.013936318357047 ], [ 150.580483379162786, -35.01383225220156 ], [ 150.580406556697739, -35.013794270923078 ], [ 150.580388710671912, -35.013764528084607 ], [ 150.580388710563994, -35.013699092517911 ], [ 150.580388710460738, -35.013639605720442 ], [ 150.580388710295892, -35.013556324743647 ], [ 150.580448197451119, -35.013443300153206 ], [ 150.580460094604604, -35.013413557422631 ], [ 150.580495786096719, -35.013336224960042 ], [ 150.58049578582191, -35.013258892745554 ], [ 150.580483889535714, -35.013211303289026 ], [ 150.580477940784505, -35.013163713467293 ], [ 150.580495786416492, -35.013116124976094 ], [ 150.5805433750551, -35.013068535655471 ], [ 150.580549324558433, -35.013020946065076 ], [ 150.58056717008995, -35.012967408788398 ], [ 150.580585015673137, -35.012925768148968 ], [ 150.580608811118509, -35.012919818904237 ], [ 150.580632605353003, -35.012896024220034 ], [ 150.580674629023093, -35.012880887488777 ], [ 150.580786571022202, -35.012916392228455 ], [ 150.580792520210252, -35.012999673772327 ], [ 150.580792519723872, -35.013082954750949 ], [ 150.5807925193497, -35.013184082042962 ], [ 150.580762777005134, -35.013285208436926 ], [ 150.580691392945454, -35.013362541286035 ], [ 150.580655700498141, -35.013433925020273 ], [ 150.580655701024398, -35.01353505232192 ], [ 150.580637854620932, -35.013654025158417 ], [ 150.580620009274554, -35.013778946780306 ], [ 150.58058431656346, -35.013850330479144 ] ] ] ] } },
{ "type": "Feature", "properties": { "OBJECTID_1": 66, "OBJECTID": 44, "Zone_ID": "9", "CONDITION": "Moderate", "EasternPCT": "3654", "E_PCT_Name": "Shoalhaven Lowland Bloodwood Shrub Forest", "VEG_CLASS": "South East Dry Sclerophyll Forests", "BC_Act": "-", "EPBC_Act": "-", "Area_ha": 0.065795119005900002, "Area_m2": 657.95119005900006, "Comments": null, "ECMLink": null, "FSource": "Derived from field observations and aerial imagery.", "SourceDate": "2026-02-04T00:00:00Z", "PlanAccur": null, "Supplier": "Stantec Australia Pty Ltd (3045)", "Shape_Length": 98.636144974268376, "Shape_Area": 657.9511900591009 }, "geometry": { "type": "MultiPolygon", "coordinates": [ [ [ [ 150.58066402907545, -35.015307155737133 ], [ 150.580567729112175, -35.015346305752836 ], [ 150.580461774430773, -35.015330950737948 ], [ 150.580479620530554, -35.015211977059842 ], [ 150.580497466477681, -35.015069210101153 ], [ 150.580568850250046, -35.01503946666277 ], [ 150.580640234099036, -35.015039466126019 ], [ 150.580711618175428, -35.015093004473158 ], [ 150.580759207515314, -35.015176285331137 ], [ 150.580699721403505, -35.015253618339656 ], [ 150.58066402907545, -35.015307155737133 ] ] ] ] } },
{ "type": "Feature", "properties": { "OBJECTID_1": 67, "OBJECTID": 45, "Zone_ID": "10", "CONDITION": "Low", "EasternPCT": "3654", "E_PCT_Name": "Shoalhaven Lowland Bloodwood Shrub Forest", "VEG_CLASS": "South East Dry Sclerophyll Forests", "BC_Act": "-", "EPBC_Act": "-", "Area_ha": 0.071985567647700005, "Area_m2": 719.85567647699997, "Comments": null, "ECMLink": null, "FSource": "Derived from field observations and aerial imagery.", "SourceDate": "2026-02-04T00:00:00Z", "PlanAccur": null, "Supplier": "Stantec Australia Pty Ltd (3045)", "Shape_Length": 107.19714572865473, "Shape_Area": 719.85567647705307 }, "geometry": { "type": "MultiPolygon", "coordinates": [ [ [ [ 150.580965747612026, -35.015358425780185 ], [ 150.580828499781546, -35.015351506742846 ], [ 150.58066402907545, -35.015307155737133 ], [ 150.580699721403505, -35.015253618339656 ], [ 150.580759207515314, -35.015176285331137 ], [ 150.580818693387897, -35.015081106879364 ], [ 150.580872231956505, -35.015057312208768 ], [ 150.580949564603998, -35.015063260805263 ], [ 150.581021596850945, -35.015090642362743 ], [ 150.580965747612026, -35.015358425780185 ] ] ] ] } },
{ "type": "Feature", "properties": { "OBJECTID_1": 68, "OBJECTID": 40, "Zone_ID": "9", "CONDITION": "Moderate", "EasternPCT": "3654", "E_PCT_Name": "Shoalhaven Lowland Bloodwood Shrub Forest", "VEG_CLASS": "South East Dry Sclerophyll Forests", "BC_Act": "-", "EPBC_Act": "-", "Area_ha": 0.45030790836500001, "Area_m2": 4503.07908365, "Comments": null, "ECMLink": null, "FSource": "Derived from field observations and aerial imagery.", "SourceDate": "2026-02-04T00:00:00Z", "PlanAccur": null, "Supplier": "Stantec Australia Pty Ltd (3045)", "Shape_Length": 384.30734228084748, "Shape_Area": 4503.0790836492224 }, "geometry": { "type": "MultiPolygon", "coordinates": [ [ [ [ 150.581155388072148, -35.011411383375773 ], [ 150.581155388196493, -35.011506561937374 ], [ 150.581101849397811, -35.011577945166771 ], [ 150.581084003739761, -35.011655277632833 ], [ 150.58108400414045, -35.011690970274913 ], [ 150.581030466184131, -35.011756404711782 ], [ 150.58100072232952, -35.01183968665724 ], [ 150.581012620131617, -35.011911070290957 ], [ 150.581018568469773, -35.011994350919927 ], [ 150.580988825019716, -35.012125221237731 ], [ 150.581000723071469, -35.012220399962622 ], [ 150.580941236687437, -35.012345321534639 ], [ 150.580941236498205, -35.012440500072756 ], [ 150.580929338947584, -35.012511884253357 ], [ 150.580911493300334, -35.012636805945981 ], [ 150.580911492956886, -35.012720086934067 ], [ 150.580905543819483, -35.012779573197236 ], [ 150.580840108822542, -35.012839059482886 ], [ 150.580792520220911, -35.012850957204506 ], [ 150.58078062283019, -35.012821214063024 ], [ 150.580688190727244, -35.012813425454773 ], [ 150.580755843481143, -35.012476889202567 ], [ 150.580727784147854, -35.012449875190143 ], [ 150.580674245836462, -35.012420132707909 ], [ 150.580638554529372, -35.012420132126117 ], [ 150.580608810405636, -35.012372542789798 ], [ 150.58056528011042, -35.012347008684443 ], [ 150.58076814260113, -35.011434117128879 ], [ 150.580817013875645, -35.011438604777005 ], [ 150.580900295010935, -35.011456450516818 ], [ 150.580969862309985, -35.01141226781678 ], [ 150.581155388072148, -35.011411383375773 ] ] ] ] } },
{ "type": "Feature", "properties": { "OBJECTID_1": 70, "OBJECTID": 0, "Zone_ID": "9", "CONDITION": "Moderate", "EasternPCT": "3654", "E_PCT_Name": "Shoalhaven Lowland Bloodwood Shrub Forest", "VEG_CLASS": "South East Dry Sclerophyll Forests", "BC_Act": "-", "EPBC_Act": "-", "Area_ha": 0.16783582683500001, "Area_m2": 1678.3582683499999, "Comments": null, "ECMLink": null, "FSource": "Derived from field observations and aerial imagery.", "SourceDate": "2026-02-04T00:00:00Z", "PlanAccur": null, "Supplier": "Stantec Australia Pty Ltd (3045)", "Shape_Length": 314.78957506652301, "Shape_Area": 1678.358268354066 }, "geometry": { "type": "MultiPolygon", "coordinates": [ [ [ [ 150.58332556090059, -34.991589162175202 ], [ 150.583337491183215, -34.991539733372306 ], [ 150.58339849215352, -34.99128699374841 ], [ 150.583580098475664, -34.990461819026002 ], [ 150.583629502182703, -34.990237340088321 ], [ 150.58367831524933, -34.990308990922323 ], [ 150.583672366250227, -34.990404169439799 ], [ 150.583660469265254, -34.990463655741237 ], [ 150.583648572165913, -34.990558833896557 ], [ 150.583630726189597, -34.990659961368443 ], [ 150.583642623238148, -34.990731344917634 ], [ 150.583660469225123, -34.990761088190538 ], [ 150.583666418549797, -34.990838421080554 ], [ 150.583666418667775, -34.990933599066892 ], [ 150.583636675255349, -34.991052572169444 ], [ 150.583583137517053, -34.991159647990983 ], [ 150.583577188009286, -34.991231032210152 ], [ 150.583511753579899, -34.991314312988003 ], [ 150.583499855543607, -34.991379748032557 ], [ 150.583476060777798, -34.991457080813944 ], [ 150.583452266731683, -34.99152846481104 ], [ 150.583392780420638, -34.991558207656901 ], [ 150.58332556090059, -34.991589162175202 ] ] ] ] } },
{ "type": "Feature", "properties": { "OBJECTID_1": 72, "OBJECTID": 0, "Zone_ID": "9", "CONDITION": "Moderate", "EasternPCT": "3654", "E_PCT_Name": "Shoalhaven Lowland Bloodwood Shrub Forest", "VEG_CLASS": "South East Dry Sclerophyll Forests", "BC_Act": "-", "EPBC_Act": "-", "Area_ha": 0.091056882824500002, "Area_m2": 910.56882824499996, "Comments": null, "ECMLink": null, "FSource": "Derived from field observations and aerial imagery.", "SourceDate": "2026-02-04T00:00:00Z", "PlanAccur": null, "Supplier": "Stantec Australia Pty Ltd (3045)", "Shape_Length": 176.69750904405061, "Shape_Area": 910.56882824512911 }, "geometry": { "type": "MultiPolygon", "coordinates": [ [ [ [ 150.582873775617315, -34.994459145840125 ], [ 150.58288085653561, -34.994408395413856 ], [ 150.58296729349567, -34.993788927237063 ], [ 150.58317528115677, -34.993817798467333 ], [ 150.583113193597853, -34.993896027979062 ], [ 150.583107244820695, -34.993997155197484 ], [ 150.583089398329122, -34.994032847620176 ], [ 150.583071552422865, -34.994080436729035 ], [ 150.583035860714659, -34.994133974314146 ], [ 150.583018014790099, -34.994205358570504 ], [ 150.583006117464407, -34.994282691116702 ], [ 150.58300611823455, -34.994389766634008 ], [ 150.582982323548123, -34.994431407427271 ], [ 150.582934733504572, -34.994455201995542 ], [ 150.582873775617315, -34.994459145840125 ] ] ] ] } },
{ "type": "Feature", "properties": { "OBJECTID_1": 73, "OBJECTID": 0, "Zone_ID": "9", "CONDITION": "Moderate", "EasternPCT": "3654", "E_PCT_Name": "Shoalhaven Lowland Bloodwood Shrub Forest", "VEG_CLASS": "South East Dry Sclerophyll Forests", "BC_Act": "-", "EPBC_Act": "-", "Area_ha": 0.30840703172599998, "Area_m2": 3084.0703172600001, "Comments": null, "ECMLink": null, "FSource": "Derived from field observations and aerial imagery.", "SourceDate": "2026-02-04T00:00:00Z", "PlanAccur": null, "Supplier": "Stantec Australia Pty Ltd (3045)", "Shape_Length": 465.97114337654483, "Shape_Area": 3084.0703172583603 }, "geometry": { "type": "MultiPolygon", "coordinates": [ [ [ [ 150.582797121454689, -34.996388260546418 ], [ 150.58276994427996, -34.996384474719854 ], [ 150.582761150689095, -34.996383250217562 ], [ 150.582608259281557, -34.99636195025569 ], [ 150.582846679562664, -34.994653332194808 ], [ 150.582946631048145, -34.994705044745515 ], [ 150.583012066206834, -34.994770480512251 ], [ 150.58310129644309, -34.994865659109671 ], [ 150.583142936720549, -34.994942991668225 ], [ 150.583178628111085, -34.99500842623128 ], [ 150.583178628498615, -34.995038169282275 ], [ 150.583178628150364, -34.995097656262999 ], [ 150.583160782453092, -34.995109553546989 ], [ 150.583113193307923, -34.995091707573977 ], [ 150.583077501787983, -34.995067912708649 ], [ 150.583023963947596, -34.995020324155192 ], [ 150.582982322695585, -34.994966785792016 ], [ 150.582952579366008, -34.99493704250245 ], [ 150.582934734221425, -34.994937042187146 ], [ 150.582928785048551, -34.99501437511568 ], [ 150.582940682732499, -34.995127399322904 ], [ 150.582922836465286, -34.995174988388847 ], [ 150.582887144951371, -34.995246372279119 ], [ 150.58285145280982, -34.99532965372083 ], [ 150.582821709909098, -34.995359396486066 ], [ 150.58282765794695, -34.995448626910026 ], [ 150.582851452652704, -34.99554380558272 ], [ 150.582875247167237, -34.995633034557372 ], [ 150.582881195828605, -34.995686573163205 ], [ 150.582875247062134, -34.995799597011477 ], [ 150.582845503643568, -34.995870981281435 ], [ 150.582839555405457, -34.995924519060438 ], [ 150.582821709065854, -34.99602564628718 ], [ 150.582851452393641, -34.996097030223453 ], [ 150.582827657815187, -34.996204105826386 ], [ 150.582821709414105, -34.996329027243775 ], [ 150.582797121454689, -34.996388260546418 ] ] ] ] } },
{ "type": "Feature", "properties": { "OBJECTID_1": 79, "OBJECTID": 0, "Zone_ID": "9", "CONDITION": "Moderate", "EasternPCT": "3654", "E_PCT_Name": "Shoalhaven Lowland Bloodwood Shrub Forest", "VEG_CLASS": "South East Dry Sclerophyll Forests", "BC_Act": "-", "EPBC_Act": "-", "Area_ha": 0.49985386300599999, "Area_m2": 4998.5386300600003, "Comments": null, "ECMLink": null, "FSource": "Derived from field observations and aerial imagery.", "SourceDate": "2026-02-04T00:00:00Z", "PlanAccur": null, "Supplier": "Stantec Australia Pty Ltd (3045)", "Shape_Length": 352.8155687757536, "Shape_Area": 4998.538630062626 }, "geometry": { "type": "MultiPolygon", "coordinates": [ [ [ [ 150.5800810506679, -35.014525973138809 ], [ 150.580091277520381, -35.014567595877566 ], [ 150.580091277484684, -35.014579493413876 ], [ 150.580091278361976, -35.014668723155474 ], [ 150.580055585861714, -35.014740106676442 ], [ 150.580049637005686, -35.014781747467545 ], [ 150.580026688276718, -35.014846050893581 ], [ 150.579924715753492, -35.014829337030797 ], [ 150.579859280849433, -35.014829336846546 ], [ 150.579811691035616, -35.014829336592555 ], [ 150.579752204845107, -35.014829336946342 ], [ 150.579639180317088, -35.01480554218179 ], [ 150.57957374549764, -35.014799593077761 ], [ 150.57947856717729, -35.014781746952657 ], [ 150.579347696763449, -35.014746055255578 ], [ 150.579276312171572, -35.014740107155092 ], [ 150.579115699177123, -35.014722261120561 ], [ 150.578996726290342, -35.014698466041196 ], [ 150.578842061278976, -35.014668722734626 ], [ 150.578752831650689, -35.014668722987331 ], [ 150.578651703759903, -35.014656825221486 ], [ 150.578580320415483, -35.01465087673818 ], [ 150.57849754801444, -35.014631704439829 ], [ 150.578558850448871, -35.01433523746114 ], [ 150.5800810506679, -35.014525973138809 ] ] ] ] } },
{ "type": "Feature", "properties": { "OBJECTID_1": 80, "OBJECTID": 0, "Zone_ID": "9", "CONDITION": "Moderate", "EasternPCT": "3654", "E_PCT_Name": "Shoalhaven Lowland Bloodwood Shrub Forest", "VEG_CLASS": "South East Dry Sclerophyll Forests", "BC_Act": "-", "EPBC_Act": "-", "Area_ha": 0.95341776908099996, "Area_m2": 9534.1776908100001, "Comments": null, "ECMLink": null, "FSource": "Derived from field observations and aerial imagery.", "SourceDate": "2026-02-04T00:00:00Z", "PlanAccur": null, "Supplier": "Stantec Australia Pty Ltd (3045)", "Shape_Length": 527.49048636652913, "Shape_Area": 9534.1776908050742 }, "geometry": { "type": "MultiPolygon", "coordinates": [ [ [ [ 150.579910977334777, -35.01688841273603 ], [ 150.579760299570495, -35.016913870134708 ], [ 150.579609352804624, -35.016899537632327 ], [ 150.579529721698378, -35.01685352986842 ], [ 150.579627195605354, -35.016349559328795 ], [ 150.57948616612029, -35.015852163712225 ], [ 150.579420382826328, -35.015620152623008 ], [ 150.579529481614657, -35.015641333454724 ], [ 150.579527108609113, -35.015488455349917 ], [ 150.579457141040479, -35.015294605427506 ], [ 150.579432637733049, -35.01519222929295 ], [ 150.579516486084628, -35.015148619177296 ], [ 150.579750111572054, -35.015158941105504 ], [ 150.579846377831217, -35.015160861816604 ], [ 150.579944646192445, -35.015094897905151 ], [ 150.579988585240216, -35.015064301668595 ], [ 150.580194989986836, -35.015093000516096 ], [ 150.580235546791613, -35.01509863961811 ], [ 150.580239009382524, -35.015099120660913 ], [ 150.580111362614076, -35.015694455613485 ], [ 150.580085328815585, -35.015697839589819 ], [ 150.580049637032602, -35.015727583534378 ], [ 150.580049636981357, -35.015745428934416 ], [ 150.580092364176295, -35.015783058408154 ], [ 150.579983707170555, -35.016289790171804 ], [ 150.580010351830538, -35.016293494908261 ], [ 150.580037724353929, -35.016297301602151 ], [ 150.579910977334777, -35.01688841273603 ] ] ] ] } },
{ "type": "Feature", "properties": { "OBJECTID_1": 91, "OBJECTID": 0, "Zone_ID": "9", "CONDITION": "Moderate", "EasternPCT": "3654", "E_PCT_Name": "Shoalhaven Lowland Bloodwood Shrub Forest", "VEG_CLASS": "South East Dry Sclerophyll Forests", "BC_Act": "-", "EPBC_Act": "-", "Area_ha": 0.47590962099799999, "Area_m2": 4759.0962099799999, "Comments": null, "ECMLink": null, "FSource": "Derived from field observations and aerial imagery.", "SourceDate": "2026-02-04T00:00:00Z", "PlanAccur": null, "Supplier": "Stantec Australia Pty Ltd (3045)", "Shape_Length": 433.50402463042809, "Shape_Area": 4759.0962099799426 }, "geometry": { "type": "MultiPolygon", "coordinates": [ [ [ [ 150.579988585240216, -35.015064301668595 ], [ 150.579944646192445, -35.015094897905151 ], [ 150.579846377831217, -35.015160861816604 ], [ 150.579750111572054, -35.015158941105504 ], [ 150.579516486084628, -35.015148619177296 ], [ 150.579432637733049, -35.01519222929295 ], [ 150.579457141040479, -35.015294605427506 ], [ 150.579527108609113, -35.015488455349917 ], [ 150.579529481614657, -35.015641333454724 ], [ 150.579420382826328, -35.015620152623008 ], [ 150.579307388321155, -35.015221630903874 ], [ 150.578399037476402, -35.015108117250108 ], [ 150.578449756267901, -35.014862833381052 ], [ 150.578457844807247, -35.014823718935993 ], [ 150.578464887982108, -35.014789657966524 ], [ 150.578627909873404, -35.014823388079947 ], [ 150.578966983177082, -35.014870977099697 ], [ 150.579097852775277, -35.014888822891841 ], [ 150.579246569702207, -35.014906669539116 ], [ 150.57943692671256, -35.014930463654821 ], [ 150.579621333984107, -35.014954258650477 ], [ 150.579722461425661, -35.014954258072301 ], [ 150.579823588767823, -35.014966155844753 ], [ 150.579998988742091, -35.014985806814892 ], [ 150.579983568713629, -35.015063603915067 ], [ 150.579988585240216, -35.015064301668595 ] ] ] ] } },
{ "type": "Feature", "properties": { "OBJECTID_1": 92, "OBJECTID": 0, "Zone_ID": "9", "CONDITION": "Moderate", "EasternPCT": "3654", "E_PCT_Name": "Shoalhaven Lowland Bloodwood Shrub Forest", "VEG_CLASS": "South East Dry Sclerophyll Forests", "BC_Act": "-", "EPBC_Act": "-", "Area_ha": 0.23259726509699999, "Area_m2": 2325.9726509699999, "Comments": null, "ECMLink": null, "FSource": "Derived from field observations and aerial imagery.", "SourceDate": "2026-02-04T00:00:00Z", "PlanAccur": null, "Supplier": "Stantec Australia Pty Ltd (3045)", "Shape_Length": 209.51677359925532, "Shape_Area": 2325.9726509728744 }, "geometry": { "type": "MultiPolygon", "coordinates": [ [ [ [ 150.579910977334777, -35.01688841273603 ], [ 150.579910069077528, -35.016892645922965 ], [ 150.579812648674448, -35.017348258667369 ], [ 150.57978273572428, -35.01748818665488 ], [ 150.579704615651821, -35.017518127798027 ], [ 150.579615385233581, -35.017506230173851 ], [ 150.579532104771488, -35.017500281888488 ], [ 150.579496412490812, -35.017488384275588 ], [ 150.57940955152867, -35.017474839931708 ], [ 150.579529721698378, -35.01685352986842 ], [ 150.579609352804624, -35.016899537632327 ], [ 150.579760299570495, -35.016913870134708 ], [ 150.579910977334777, -35.01688841273603 ] ] ] ] } },
{ "type": "Feature", "properties": { "OBJECTID_1": 93, "OBJECTID": 19, "Zone_ID": "10", "CONDITION": "Low", "EasternPCT": "3654", "E_PCT_Name": "Shoalhaven Lowland Bloodwood Shrub Forest", "VEG_CLASS": "South East Dry Sclerophyll Forests", "BC_Act": "-", "EPBC_Act": "-", "Area_ha": 0.36541056342, "Area_m2": 3654.1056342000002, "Comments": null, "ECMLink": null, "FSource": "Derived from field observations and aerial imagery.", "SourceDate": "2026-02-04T00:00:00Z", "PlanAccur": null, "Supplier": "Stantec Australia Pty Ltd (3045)", "Shape_Length": 745.15712183277401, "Shape_Area": 3654.1056342004017 }, "geometry": { "type": "MultiPolygon", "coordinates": [ [ [ [ 150.58470308537801, -34.994332067137194 ], [ 150.584643578095722, -34.994284620078311 ], [ 150.58459074402262, -34.994209983223072 ], [ 150.584606323124319, -34.994148028917991 ], [ 150.584649731097812, -34.99407530704994 ], [ 150.584666141610569, -34.99398506677359 ], [ 150.584697297379734, -34.993861158084592 ], [ 150.584701288382774, -34.993725387092418 ], [ 150.58472407310137, -34.993652254654535 ], [ 150.584734273162724, -34.993539249445007 ], [ 150.584743642865362, -34.993454529316217 ], [ 150.584782836536732, -34.993291157429539 ], [ 150.584800742127101, -34.993150003071982 ], [ 150.584810444245591, -34.993053968902089 ], [ 150.584840934294135, -34.992952687288245 ], [ 150.584873088061158, -34.992794835547073 ], [ 150.584916105284151, -34.992501349551958 ], [ 150.585018274334345, -34.992067530046825 ], [ 150.585087956966959, -34.991802876286634 ], [ 150.585142560826682, -34.991583206769789 ], [ 150.58519666457417, -34.991380507335634 ], [ 150.585244227459214, -34.991166357947336 ], [ 150.585280756812949, -34.991082950795708 ], [ 150.585268881249846, -34.991189831539643 ], [ 150.585256983786252, -34.991314752946948 ], [ 150.585227240775453, -34.99143967438053 ], [ 150.58517965084954, -34.991576493387832 ], [ 150.5851737019224, -34.99169546717706 ], [ 150.585173702351625, -34.991772799712663 ], [ 150.585114215586742, -34.991921515685839 ], [ 150.585126112815118, -34.992034539770096 ], [ 150.585126113420188, -34.992129718687401 ], [ 150.58515585699962, -34.992236793976538 ], [ 150.585132061493027, -34.992302229498641 ], [ 150.585114215702873, -34.992373613229056 ], [ 150.585078523982958, -34.992486637607442 ], [ 150.585072575631557, -34.992558021033823 ], [ 150.585078524345306, -34.992623456266372 ], [ 150.585036883765895, -34.992730532426158 ], [ 150.585048780483476, -34.992807864635843 ], [ 150.585024986029225, -34.992891145626473 ], [ 150.584989294126302, -34.992992273274574 ], [ 150.584953602155082, -34.993093400006096 ], [ 150.584941705073419, -34.993206424657366 ], [ 150.584923859300886, -34.99328375713678 ], [ 150.58484652613302, -34.993372986747886 ], [ 150.584852475361458, -34.993432473199263 ], [ 150.584858423598519, -34.993539549070441 ], [ 150.584834629714322, -34.993652573079686 ], [ 150.584870321347893, -34.993694213809569 ], [ 150.584840577509709, -34.993753700147124 ], [ 150.584781091237943, -34.993801290020642 ], [ 150.584792988586457, -34.993842930402515 ], [ 150.584804886265886, -34.993920262642199 ], [ 150.58479298821058, -34.994009492972715 ], [ 150.584751347574496, -34.994116568089204 ], [ 150.584697809851349, -34.99418795249796 ], [ 150.584703759400156, -34.994253387747293 ], [ 150.584703759241961, -34.994330720235148 ], [ 150.58470308537801, -34.994332067137194 ] ] ] ] } },
{ "type": "Feature", "properties": { "OBJECTID_1": 97, "OBJECTID": 0, "Zone_ID": "9", "CONDITION": "Moderate", "EasternPCT": "3654", "E_PCT_Name": "Shoalhaven Lowland Bloodwood Shrub Forest", "VEG_CLASS": "South East Dry Sclerophyll Forests", "BC_Act": "-", "EPBC_Act": "-", "Area_ha": 0.29746273677399998, "Area_m2": 2974.62736774, "Comments": null, "ECMLink": null, "FSource": "Derived from field observations and aerial imagery.", "SourceDate": "2026-02-04T00:00:00Z", "PlanAccur": null, "Supplier": "Stantec Australia Pty Ltd (3045)", "Shape_Length": 929.15104463898251, "Shape_Area": 2974.6283262568659 }, "geometry": { "type": "MultiPolygon", "coordinates": [ [ [ [ 150.582775876086714, -35.006939582816294 ], [ 150.582766339004394, -35.00693823079488 ], [ 150.582766351757442, -35.006938169749255 ], [ 150.582775876086714, -35.006939582816294 ] ] ], [ [ [ 150.582766339004394, -35.00693823079488 ], [ 150.582713676859896, -35.007184194147399 ], [ 150.582708720336683, -35.007207343306987 ], [ 150.582613168379879, -35.007653623247357 ], [ 150.582582106849202, -35.007798271109628 ], [ 150.582713481578395, -35.007896799609242 ], [ 150.582735463903703, -35.007913867886423 ], [ 150.582921270186205, -35.008051865207172 ], [ 150.582970802856579, -35.008088652054411 ], [ 150.584173579810624, -35.008739647240674 ], [ 150.584205169560079, -35.008756745222783 ], [ 150.584437048612557, -35.008882245759608 ], [ 150.584571111816246, -35.008928655253762 ], [ 150.585899150277413, -35.009394122328175 ], [ 150.585860368364905, -35.009443427048602 ], [ 150.585829161805378, -35.009434480065238 ], [ 150.585782590323419, -35.009423909349039 ], [ 150.585751015598248, -35.009401584459269 ], [ 150.585701445208855, -35.009393365454059 ], [ 150.585637445835971, -35.009377626787661 ], [ 150.585567943415384, -35.009349725045148 ], [ 150.585516082550043, -35.00931976386925 ], [ 150.585449438562023, -35.009294329475686 ], [ 150.585374291567064, -35.009259082805286 ], [ 150.585333861950517, -35.009238992079567 ], [ 150.585296005112554, -35.00923100606753 ], [ 150.585205791669267, -35.009209924332289 ], [ 150.585156504862368, -35.009192067760203 ], [ 150.585066363470816, -35.009168575932819 ], [ 150.585014432064611, -35.009141023665848 ], [ 150.584947716419691, -35.009117998999308 ], [ 150.584877718460149, -35.009106962464436 ], [ 150.584828716351808, -35.009079467536495 ], [ 150.584756640711049, -35.00903946059406 ], [ 150.584695711602166, -35.009018961521512 ], [ 150.584646566772932, -35.008996285626601 ], [ 150.584568350605849, -35.008965799304868 ], [ 150.584480995966828, -35.008947184483205 ], [ 150.584419925273778, -35.008931503499873 ], [ 150.584343929674333, -35.008925169179605 ], [ 150.584304137282714, -35.00888339340235 ], [ 150.584238414369025, -35.008826636302942 ], [ 150.584186341703543, -35.00880390282267 ], [ 150.584142558207276, -35.008798208953081 ], [ 150.58406984524467, -35.008779885422534 ], [ 150.584052558231292, -35.008769898156793 ], [ 150.583980057973179, -35.008744346341558 ], [ 150.583916626564303, -35.008709332113803 ], [ 150.583879762523765, -35.008667615426347 ], [ 150.583822259325217, -35.008630307797944 ], [ 150.583770612254597, -35.008593117684967 ], [ 150.583718256313091, -35.008580021355662 ], [ 150.583674471882972, -35.008574327301226 ], [ 150.583628611222338, -35.008539662907452 ], [ 150.583577035186806, -35.008500063607471 ], [ 150.583527890996038, -35.008477387282532 ], [ 150.583458106518094, -35.008459121726851 ], [ 150.583403318976309, -35.00842910137024 ], [ 150.58336067015864, -35.008384857871455 ], [ 150.583320169503196, -35.00836717559686 ], [ 150.583285524947854, -35.008349609971937 ], [ 150.583236169308719, -35.008334161786088 ], [ 150.583184097251035, -35.008311427897688 ], [ 150.583167732244846, -35.008270118489357 ], [ 150.583150800004006, -35.008248083755028 ], [ 150.583095587258981, -35.008232519725638 ], [ 150.583031660263487, -35.008214370629055 ], [ 150.582976730143116, -35.008189168287714 ], [ 150.582924729186175, -35.008164024284248 ], [ 150.58286772316788, -35.008109851569685 ], [ 150.582821862019102, -35.008075186870926 ], [ 150.582767145912101, -35.008042756235419 ], [ 150.582703857407324, -35.008002923195463 ], [ 150.582658209155085, -35.007961030213082 ], [ 150.582611569133292, -35.007952868358302 ], [ 150.582585497307889, -35.007942705833678 ], [ 150.582571849015039, -35.007908682953108 ], [ 150.582546415536257, -35.007876835743133 ], [ 150.58254155240175, -35.00784298882725 ], [ 150.58254988334491, -35.007774104308801 ], [ 150.582563741789386, -35.007703320568623 ], [ 150.582583127008888, -35.007604309357362 ], [ 150.582583607267907, -35.007604371212636 ], [ 150.582713737162067, -35.006949424582437 ], [ 150.582714764155838, -35.006933926297336 ], [ 150.582714961349154, -35.006930949076278 ], [ 150.582766339004394, -35.00693823079488 ] ] ] ] } },
{ "type": "Feature", "properties": { "OBJECTID_1": 98, "OBJECTID": 0, "Zone_ID": "9", "CONDITION": "Moderate", "EasternPCT": "3654", "E_PCT_Name": "Shoalhaven Lowland Bloodwood Shrub Forest", "VEG_CLASS": "South East Dry Sclerophyll Forests", "BC_Act": "-", "EPBC_Act": "-", "Area_ha": 0.16266344345299999, "Area_m2": 1626.6344345299999, "Comments": null, "ECMLink": null, "FSource": "Derived from field observations and aerial imagery.", "SourceDate": "2026-02-04T00:00:00Z", "PlanAccur": null, "Supplier": "Stantec Australia Pty Ltd (3045)", "Shape_Length": 878.24870935280455, "Shape_Area": 1626.6357192304461 }, "geometry": { "type": "MultiPolygon", "coordinates": [ [ [ [ 150.585777567548689, -35.009548693228396 ], [ 150.58433250755786, -35.009042791386875 ], [ 150.583971996569943, -35.008845852308419 ], [ 150.583939772611359, -35.00882848832272 ], [ 150.583908831072591, -35.008811815152534 ], [ 150.582834787417312, -35.00823305141769 ], [ 150.582808861214573, -35.008211683907135 ], [ 150.58250918710641, -35.007993731639601 ], [ 150.582503810597359, -35.008019717444888 ], [ 150.582347862092064, -35.008776528674176 ], [ 150.582508208840324, -35.007990712064299 ], [ 150.582557937183793, -35.007983140005337 ], [ 150.582572436579113, -35.00798824998401 ], [ 150.582612865935062, -35.008008342504539 ], [ 150.582644439244234, -35.008030668159698 ], [ 150.582687938520564, -35.008045999884963 ], [ 150.582716441985042, -35.008073086295369 ], [ 150.582741946525999, -35.008102523464409 ], [ 150.582773519880476, -35.008124849989471 ], [ 150.582802305970205, -35.008142299024357 ], [ 150.58283631209801, -35.008181548560351 ], [ 150.582859242151613, -35.00819888089913 ], [ 150.582887674791266, -35.008228377282833 ], [ 150.582931103314763, -35.008246118035323 ], [ 150.58297439004798, -35.008268676990802 ], [ 150.58301196253646, -35.008286301038481 ], [ 150.583061177389794, -35.008306567552751 ], [ 150.583098394260332, -35.008336238900505 ], [ 150.583144964752307, -35.008346809709373 ], [ 150.583179324555942, -35.008374012689259 ], [ 150.583207970093724, -35.008396280775507 ], [ 150.58326582849628, -35.008421540450719 ], [ 150.583314972575721, -35.008444216877756 ], [ 150.58335533038354, -35.008466717352597 ], [ 150.583377836308898, -35.008498506081111 ], [ 150.583438622859859, -35.00852382490865 ], [ 150.583481768077348, -35.008551202813976 ], [ 150.583533840346803, -35.008573937484201 ], [ 150.583577269228755, -35.008591677116513 ], [ 150.583623485449692, -35.008614295100976 ], [ 150.583666630778566, -35.008641672944592 ], [ 150.583738705484819, -35.008681681402514 ], [ 150.583755496204617, -35.008708534283642 ], [ 150.583815998387877, -35.008743490252144 ], [ 150.583888427708843, -35.008771451273702 ], [ 150.583935140346966, -35.008777202670849 ], [ 150.58397878205966, -35.008787714835293 ], [ 150.584016496764946, -35.008800520367672 ], [ 150.58405706869371, -35.008815792411745 ], [ 150.584082501951826, -35.008847639314212 ], [ 150.5841285767182, -35.00887507533821 ], [ 150.584183435703977, -35.008902686277153 ], [ 150.58422107962673, -35.008917900859977 ], [ 150.584270649547165, -35.008926120453339 ], [ 150.58429894011951, -35.008960434733901 ], [ 150.584339441290581, -35.008978116700447 ], [ 150.584388656908743, -35.008998382703957 ], [ 150.58441758651071, -35.009011012277995 ], [ 150.58445215961342, -35.009030987589277 ], [ 150.584489591060873, -35.009053429426679 ], [ 150.584538594153912, -35.009080923607407 ], [ 150.584567878137534, -35.00908150668959 ], [ 150.584623375198362, -35.009087433635031 ], [ 150.58465487859911, -35.009112168814639 ], [ 150.584689310117511, -35.009136961384314 ], [ 150.58472130960223, -35.009144830964651 ], [ 150.58475645085278, -35.009145530619357 ], [ 150.584812089708578, -35.009146638356114 ], [ 150.584864517060851, -35.009157325121812 ], [ 150.584908017384294, -35.009172656089106 ], [ 150.584956878971525, -35.009204969233899 ], [ 150.585020878086112, -35.009220707348241 ], [ 150.585084736578011, -35.009241265478011 ], [ 150.585136809785723, -35.009263998592324 ], [ 150.585177452985931, -35.009276862066741 ], [ 150.585244238575399, -35.009297477479862 ], [ 150.585293171240693, -35.009327380483384 ], [ 150.585354171579155, -35.009345470157385 ], [ 150.585388815925342, -35.009363035201858 ], [ 150.585429034176684, -35.009390354173163 ], [ 150.585452177661864, -35.009400457814891 ], [ 150.585513532287251, -35.009406500946504 ], [ 150.585589033661336, -35.009429701071319 ], [ 150.585646609134329, -35.009464596997645 ], [ 150.585695683708593, -35.009489681621503 ], [ 150.585733115694381, -35.009512123996714 ], [ 150.585777567548689, -35.009548693228396 ] ] ] ] } },
{ "type": "Feature", "properties": { "OBJECTID_1": 99, "OBJECTID": 0, "Zone_ID": "9", "CONDITION": "Moderate", "EasternPCT": "3654", "E_PCT_Name": "Shoalhaven Lowland Bloodwood Shrub Forest", "VEG_CLASS": "South East Dry Sclerophyll Forests", "BC_Act": "-", "EPBC_Act": "-", "Area_ha": 0.101613486756, "Area_m2": 1016.13486756, "Comments": null, "ECMLink": null, "FSource": "Derived from field observations and aerial imagery.", "SourceDate": "2026-02-04T00:00:00Z", "PlanAccur": null, "Supplier": "Stantec Australia Pty Ltd (3045)", "Shape_Length": 215.35680897198341, "Shape_Area": 1016.1348675432628 }, "geometry": { "type": "MultiPolygon", "coordinates": [ [ [ [ 150.579434626643348, -35.015670390635975 ], [ 150.57948616612029, -35.015852163712225 ], [ 150.579562669152409, -35.016121983360577 ], [ 150.57959095870595, -35.016221755862574 ], [ 150.579627195605354, -35.016349559328795 ], [ 150.579584316581958, -35.016571259155647 ], [ 150.579481389948853, -35.016260529329294 ], [ 150.57946664820642, -35.016216026422178 ], [ 150.579326245104852, -35.016196450130458 ], [ 150.579434626643348, -35.015670390635975 ] ] ] ] } }
]
}
