{
"type": "FeatureCollection",
"name": "JBR2HR_EasternPCT_3267",
"crs": { "type": "name", "properties": { "name": "urn:ogc:def:crs:OGC:1.3:CRS84" } },
"xy_coordinate_resolution": 1e-15,
"features": [
{ "type": "Feature", "properties": { "OBJECTID_1": 35, "OBJECTID": 46, "Zone_ID": "1", "CONDITION": "Good", "EasternPCT": "3267", "E_PCT_Name": "Shoalhaven Foothills Turpentine Forest", "VEG_CLASS": "Southern Lowland Wet Sclerophyll Forests", "BC_Act": "-", "EPBC_Act": "-", "Area_ha": 0.59180507136799998, "Area_m2": 5918.0507136799997, "Comments": null, "ECMLink": null, "FSource": "Derived from field observations and aerial imagery.", "SourceDate": "2026-02-04T00:00:00Z", "PlanAccur": null, "Supplier": "Stantec Australia Pty Ltd (3045)", "Shape_Length": 732.78321376093959, "Shape_Area": 5918.0507136763899 }, "geometry": { "type": "MultiPolygon", "coordinates": [ [ [ [ 150.580164341704887, -35.017270211288 ], [ 150.580241674205013, -35.01727021070618 ], [ 150.580295212035026, -35.017323749380942 ], [ 150.580277366321525, -35.017371337792333 ], [ 150.580247623646414, -35.017484362385204 ], [ 150.580188136217117, -35.017603335509186 ], [ 150.580200033864827, -35.017668770400348 ], [ 150.580200034538535, -35.017787743933397 ], [ 150.58017623935902, -35.017918614450544 ], [ 150.580170291250141, -35.017984049403104 ], [ 150.580152445041023, -35.018085176669544 ], [ 150.580164341639858, -35.018144662774127 ], [ 150.580134598466174, -35.018257687308356 ], [ 150.580098907403993, -35.018352865866255 ], [ 150.580069164157578, -35.018448044080309 ], [ 150.580027523625375, -35.018590812128636 ], [ 150.580027523035142, -35.018685990556051 ], [ 150.57998588265454, -35.018775220601498 ], [ 150.579979933870987, -35.01890014226646 ], [ 150.579979934434618, -35.018977474417419 ], [ 150.579944241570956, -35.019096447031338 ], [ 150.579926395555475, -35.019233266829296 ], [ 150.579920446912553, -35.019322495897384 ], [ 150.579920447369545, -35.019399828942078 ], [ 150.579896652327221, -35.019518801830969 ], [ 150.57986096052602, -35.019596133978226 ], [ 150.579860960824334, -35.019685363642317 ], [ 150.579789576831672, -35.01984597755262 ], [ 150.579765782267742, -35.019988745466122 ], [ 150.57974793594019, -35.020101770150681 ], [ 150.579736039256147, -35.020262383760773 ], [ 150.579712244788908, -35.020375407836944 ], [ 150.57962301515343, -35.020405150614287 ], [ 150.579539733161766, -35.020375408094317 ], [ 150.579521888107109, -35.020286177520617 ], [ 150.579569476516099, -35.020131512788176 ], [ 150.57958137414181, -35.020006590895548 ], [ 150.579611117237988, -35.019845977344893 ], [ 150.579658706815707, -35.019643723374166 ], [ 150.579658706179714, -35.019506904497995 ], [ 150.579730090039675, -35.01924516346633 ], [ 150.579747936295519, -35.019114293374976 ], [ 150.579771731123742, -35.019025063427328 ], [ 150.579771730819175, -35.018941782521622 ], [ 150.579837166598764, -35.018840655642919 ], [ 150.579855012372121, -35.018733579671341 ], [ 150.579849063164005, -35.018626503998966 ], [ 150.579872857659041, -35.018543222778646 ], [ 150.57988475522248, -35.018459941267729 ], [ 150.579884755038108, -35.018340968666251 ], [ 150.579932344553612, -35.018210097894666 ], [ 150.579956139410115, -35.018037586977037 ], [ 150.579991830727323, -35.017900768004722 ], [ 150.58000967700346, -35.017811538295618 ], [ 150.580009677590795, -35.017710411091421 ], [ 150.580081060822721, -35.017633078765385 ], [ 150.580081061182625, -35.017555746616779 ], [ 150.580092958210656, -35.017496260120836 ], [ 150.580110804145505, -35.017436773310735 ], [ 150.58011080449478, -35.017353492392964 ], [ 150.580116752573616, -35.017294005302062 ], [ 150.580164341704887, -35.017270211288 ] ] ] ] } },
{ "type": "Feature", "properties": { "OBJECTID_1": 36, "OBJECTID": 47, "Zone_ID": "2", "CONDITION": "Low", "EasternPCT": "3267", "E_PCT_Name": "Shoalhaven Foothills Turpentine Forest", "VEG_CLASS": "Southern Lowland Wet Sclerophyll Forests", "BC_Act": "-", "EPBC_Act": "-", "Area_ha": 0.64641015116099998, "Area_m2": 6464.1015116099998, "Comments": null, "ECMLink": null, "FSource": "Derived from field observations and aerial imagery.", "SourceDate": "2026-02-04T00:00:00Z", "PlanAccur": null, "Supplier": "Stantec Australia Pty Ltd (3045)", "Shape_Length": 562.33757830055833, "Shape_Area": 6464.1015116134067 }, "geometry": { "type": "MultiPolygon", "coordinates": [ [ [ [ 150.579712244788908, -35.020375407836944 ], [ 150.579736039256147, -35.020262383760773 ], [ 150.57974793594019, -35.020101770150681 ], [ 150.579765782267742, -35.019988745466122 ], [ 150.579789576831672, -35.01984597755262 ], [ 150.579860960824334, -35.019685363642317 ], [ 150.57986096052602, -35.019596133978226 ], [ 150.579896652327221, -35.019518801830969 ], [ 150.579920447369545, -35.019399828942078 ], [ 150.579920446912553, -35.019322495897384 ], [ 150.579926395555475, -35.019233266829296 ], [ 150.579944241570956, -35.019096447031338 ], [ 150.579979934434618, -35.018977474417419 ], [ 150.579979933870987, -35.01890014226646 ], [ 150.57998588265454, -35.018775220601498 ], [ 150.580027523035142, -35.018685990556051 ], [ 150.580027523625375, -35.018590812128636 ], [ 150.580069164157578, -35.018448044080309 ], [ 150.580098907403993, -35.018352865866255 ], [ 150.580134598466174, -35.018257687308356 ], [ 150.580164341639858, -35.018144662774127 ], [ 150.58024762279868, -35.018150611554013 ], [ 150.580319007152866, -35.018150611273022 ], [ 150.580342801808996, -35.01820414976077 ], [ 150.580366596392338, -35.018323122864906 ], [ 150.580360647242259, -35.018418300732648 ], [ 150.58033090434634, -35.018477787330205 ], [ 150.580295212261063, -35.01858486345661 ], [ 150.580354698895974, -35.018632452125274 ], [ 150.580360647709568, -35.01871573361781 ], [ 150.580360647497088, -35.018810912059173 ], [ 150.580307109360376, -35.018900141963634 ], [ 150.580277366163074, -35.018983422693204 ], [ 150.580241674683634, -35.019132139256584 ], [ 150.580211931116423, -35.019257061311436 ], [ 150.580146496518751, -35.019358188413236 ], [ 150.580128650745479, -35.019500956109951 ], [ 150.580110803992625, -35.01961397995813 ], [ 150.580098907089962, -35.019768644862047 ], [ 150.580092958329459, -35.019887618655517 ], [ 150.580033471856808, -35.020030385797547 ], [ 150.580021574052068, -35.020125563925319 ], [ 150.580015626265833, -35.020238588961959 ], [ 150.579979934169614, -35.020321869890367 ], [ 150.579973985691964, -35.020375408171887 ], [ 150.579973985123104, -35.020446791521053 ], [ 150.579956139613216, -35.0204824832254 ], [ 150.579849064048517, -35.020464637877502 ], [ 150.579795525366166, -35.02044084279138 ], [ 150.579730090623059, -35.02041704829594 ], [ 150.579730090831589, -35.020399202010324 ], [ 150.579712244788908, -35.020375407836944 ] ] ] ] } },
{ "type": "Feature", "properties": { "OBJECTID_1": 37, "OBJECTID": 48, "Zone_ID": "1", "CONDITION": "Good", "EasternPCT": "3267", "E_PCT_Name": "Shoalhaven Foothills Turpentine Forest", "VEG_CLASS": "Southern Lowland Wet Sclerophyll Forests", "BC_Act": "-", "EPBC_Act": "-", "Area_ha": 1.3142051987600001, "Area_m2": 13142.0519876, "Comments": null, "ECMLink": null, "FSource": "Derived from field observations and aerial imagery.", "SourceDate": "2026-02-04T00:00:00Z", "PlanAccur": null, "Supplier": "Stantec Australia Pty Ltd (3045)", "Shape_Length": 641.59628677116905, "Shape_Area": 13142.051987641049 }, "geometry": { "type": "MultiPolygon", "coordinates": [ [ [ [ 150.580586696526609, -35.018132765309311 ], [ 150.580633081602571, -35.018169619293829 ], [ 150.58072590000674, -35.018137025635909 ], [ 150.580783007494006, -35.018137025188786 ], [ 150.580859149820839, -35.018165578731725 ], [ 150.58094221356032, -35.018226246125757 ], [ 150.580487641715251, -35.020603255522758 ], [ 150.58003188802374, -35.020562224524326 ], [ 150.580048024547494, -35.020498007028117 ], [ 150.579956139613216, -35.0204824832254 ], [ 150.579973985123104, -35.020446791521053 ], [ 150.579973985691964, -35.020375408171887 ], [ 150.579979934169614, -35.020321869890367 ], [ 150.580015626265833, -35.020238588961959 ], [ 150.580021574052068, -35.020125563925319 ], [ 150.580033471856808, -35.020030385797547 ], [ 150.580092958329459, -35.019887618655517 ], [ 150.580098907089962, -35.019768644862047 ], [ 150.580110803992625, -35.01961397995813 ], [ 150.580128650745479, -35.019500956109951 ], [ 150.580146496518751, -35.019358188413236 ], [ 150.580211931116423, -35.019257061311436 ], [ 150.580241674683634, -35.019132139256584 ], [ 150.580277366163074, -35.018983422693204 ], [ 150.580307109360376, -35.018900141963634 ], [ 150.580360647497088, -35.018810912059173 ], [ 150.580360647709568, -35.01871573361781 ], [ 150.580354698895974, -35.018632452125274 ], [ 150.580295212261063, -35.01858486345661 ], [ 150.58033090434634, -35.018477787330205 ], [ 150.580360647242259, -35.018418300732648 ], [ 150.580366596392338, -35.018323122864906 ], [ 150.580414185030008, -35.018269584927012 ], [ 150.580461774698506, -35.018239841152308 ], [ 150.580515312198088, -35.018204149140999 ], [ 150.580533159081028, -35.018156560724137 ], [ 150.580586696526609, -35.018132765309311 ] ] ] ] } },
{ "type": "Feature", "properties": { "OBJECTID_1": 39, "OBJECTID": 50, "Zone_ID": "1", "CONDITION": "Good", "EasternPCT": "3267", "E_PCT_Name": "Shoalhaven Foothills Turpentine Forest", "VEG_CLASS": "Southern Lowland Wet Sclerophyll Forests", "BC_Act": "-", "EPBC_Act": "-", "Area_ha": 1.2427321053, "Area_m2": 12427.321053, "Comments": null, "ECMLink": null, "FSource": "Derived from field observations and aerial imagery.", "SourceDate": "2026-02-04T00:00:00Z", "PlanAccur": null, "Supplier": "Stantec Australia Pty Ltd (3045)", "Shape_Length": 1361.2870479429816, "Shape_Area": 12427.321052982563 }, "geometry": { "type": "MultiPolygon", "coordinates": [ [ [ [ 150.579499953856839, -35.020464425356451 ], [ 150.579559440758203, -35.020470373988722 ], [ 150.579589183625245, -35.020517963553871 ], [ 150.579577286822229, -35.020654782979371 ], [ 150.579535646309722, -35.020797549873635 ], [ 150.579517800693395, -35.020898676990761 ], [ 150.57949400533343, -35.021035496035985 ], [ 150.579482108517567, -35.021154469150609 ], [ 150.579440467697538, -35.021285339364859 ], [ 150.579428570650549, -35.021410261225206 ], [ 150.57937503218696, -35.021612515294315 ], [ 150.579375032626416, -35.021785026687375 ], [ 150.57932744348733, -35.021957537550747 ], [ 150.579309597599206, -35.022040818321365 ], [ 150.579309597694959, -35.022159791745466 ], [ 150.579273905578191, -35.022272816216734 ], [ 150.579262008268984, -35.022385840508576 ], [ 150.579232264774305, -35.022582146441401 ], [ 150.579202522109512, -35.022671375586121 ], [ 150.57916683003819, -35.022760605870658 ], [ 150.579160881424087, -35.02289147615965 ], [ 150.57915493205104, -35.023004500149639 ], [ 150.579148983253333, -35.023141319189484 ], [ 150.579131137442317, -35.023301932892011 ], [ 150.57913113754725, -35.023403060010772 ], [ 150.579113291869646, -35.023551776186146 ], [ 150.579113291677174, -35.023664800814494 ], [ 150.579131137407188, -35.023831362597718 ], [ 150.579154931948011, -35.023974130883772 ], [ 150.57915493239031, -35.024110949655679 ], [ 150.579178726798574, -35.02426561454871 ], [ 150.579196572818489, -35.024426228462239 ], [ 150.57922036808057, -35.024491663776637 ], [ 150.579232265150324, -35.024580892830052 ], [ 150.579220367851946, -35.024717712110572 ], [ 150.57925605969433, -35.024848582324729 ], [ 150.579291751854583, -35.024967555918387 ], [ 150.579267957225454, -35.025134117718196 ], [ 150.579297699891583, -35.025205501485992 ], [ 150.579321494401626, -35.025378012618113 ], [ 150.579375032264238, -35.025544574547006 ], [ 150.579452364527071, -35.025681394272475 ], [ 150.579511851150357, -35.02585390463183 ], [ 150.579541594410983, -35.025978826279427 ], [ 150.579589183776193, -35.026127543022902 ], [ 150.579535646403571, -35.026139440341154 ], [ 150.579458313442558, -35.026187029453141 ], [ 150.579363135139715, -35.026228669669834 ], [ 150.579315545765581, -35.026258412881695 ], [ 150.579238213579998, -35.026359540682421 ], [ 150.57917277837177, -35.026353592073669 ], [ 150.57915493240003, -35.026282207754157 ], [ 150.57912518884703, -35.026192977665502 ], [ 150.579125188663454, -35.026056158938445 ], [ 150.5791251891755, -35.02593718559492 ], [ 150.579131138193134, -35.025764674970944 ], [ 150.579137086797459, -35.025657599772082 ], [ 150.579131137881546, -35.025532677905233 ], [ 150.579119240837031, -35.025395858787007 ], [ 150.579089497014195, -35.025282834549024 ], [ 150.579035959057933, -35.025199553316021 ], [ 150.579000267859186, -35.025098425950638 ], [ 150.579000267231123, -35.024985401331115 ], [ 150.578988370287419, -35.02485453095661 ], [ 150.579000267827865, -35.024771250542642 ], [ 150.579012164691136, -35.024670122934879 ], [ 150.578994318440266, -35.024580893205489 ], [ 150.579018113554753, -35.024503561045641 ], [ 150.578994319015209, -35.024414330673686 ], [ 150.57895267789408, -35.024301306901897 ], [ 150.578911037445749, -35.024212076362787 ], [ 150.578869396707262, -35.023956285058929 ], [ 150.578887242983654, -35.023807568049186 ], [ 150.578940780687759, -35.023623160574076 ], [ 150.57895862711635, -35.023456598168515 ], [ 150.578970524104619, -35.023290035991991 ], [ 150.578946729598727, -35.02316511394752 ], [ 150.578970523955036, -35.023004500021152 ], [ 150.579006215841133, -35.022837937721093 ], [ 150.579059754349885, -35.022671375546267 ], [ 150.579047856200674, -35.022546453877979 ], [ 150.579083548149043, -35.022356097397271 ], [ 150.579125188987604, -35.022231175207708 ], [ 150.579125189622033, -35.022088407662444 ], [ 150.579166829534245, -35.021999177998232 ], [ 150.579184675670064, -35.021909948494731 ], [ 150.579214419157438, -35.021761231742637 ], [ 150.579214418715566, -35.021666053353961 ], [ 150.579250110598878, -35.021553028882501 ], [ 150.57927985377367, -35.021404312997191 ], [ 150.579297700142945, -35.02128533965984 ], [ 150.579321495234922, -35.021190161093493 ], [ 150.579339340659232, -35.021053342340508 ], [ 150.579398827551898, -35.020874883034068 ], [ 150.579422622286529, -35.020785653193002 ], [ 150.579446416051326, -35.020684525800547 ], [ 150.579446416269349, -35.02059529616821 ], [ 150.579446416055248, -35.020535809438385 ], [ 150.579446415928885, -35.020470373947077 ], [ 150.579499953856839, -35.020464425356451 ] ] ] ] } },
{ "type": "Feature", "properties": { "OBJECTID_1": 40, "OBJECTID": 51, "Zone_ID": "2", "CONDITION": "Low", "EasternPCT": "3267", "E_PCT_Name": "Shoalhaven Foothills Turpentine Forest", "VEG_CLASS": "Southern Lowland Wet Sclerophyll Forests", "BC_Act": "-", "EPBC_Act": "-", "Area_ha": 3.0887911624400002, "Area_m2": 30887.9116244, "Comments": null, "ECMLink": null, "FSource": "Derived from field observations and aerial imagery.", "SourceDate": "2026-02-04T00:00:00Z", "PlanAccur": null, "Supplier": "Stantec Australia Pty Ltd (3045)", "Shape_Length": 1179.2487711849406, "Shape_Area": 30887.911624413242 }, "geometry": { "type": "MultiPolygon", "coordinates": [ [ [ [ 150.579601081732477, -35.024729609351859 ], [ 150.579547543373792, -35.024723661299923 ], [ 150.579488056945763, -35.024640379639301 ], [ 150.579440467816283, -35.024527355409553 ], [ 150.579375032866182, -35.023926541797358 ], [ 150.579375032993198, -35.023492289527525 ], [ 150.579392879005809, -35.023420906291975 ], [ 150.579428570149702, -35.023391162633878 ], [ 150.57945236544009, -35.023319779124499 ], [ 150.57944046766562, -35.02326624082243 ], [ 150.579422621651076, -35.023147268239192 ], [ 150.579458313238916, -35.023081832914805 ], [ 150.57947615936672, -35.022992603379599 ], [ 150.579422622080727, -35.022927167708829 ], [ 150.579380981402579, -35.022855783596277 ], [ 150.579375032734134, -35.022754656738741 ], [ 150.579404775763948, -35.022635683751879 ], [ 150.57938692998718, -35.022510762400827 ], [ 150.579357186877388, -35.022445327399765 ], [ 150.579262008268984, -35.022385840508576 ], [ 150.579273905578191, -35.022272816216734 ], [ 150.579309597694959, -35.022159791745466 ], [ 150.579309597599206, -35.022040818321365 ], [ 150.57932744348733, -35.021957537550747 ], [ 150.579375032626416, -35.021785026687375 ], [ 150.57937503218696, -35.021612515294315 ], [ 150.579428570650549, -35.021410261225206 ], [ 150.579440467697538, -35.021285339364859 ], [ 150.579482108517567, -35.021154469150609 ], [ 150.57949400533343, -35.021035496035985 ], [ 150.579517800693395, -35.020898676990761 ], [ 150.579535646309722, -35.020797549873635 ], [ 150.579577286822229, -35.020654782979371 ], [ 150.579589183625245, -35.020517963553871 ], [ 150.579708156581745, -35.020517963160302 ], [ 150.579856873838622, -35.020547706792584 ], [ 150.579958000494116, -35.02054770704688 ], [ 150.58003188802374, -35.020562224524326 ], [ 150.580487641715251, -35.020603255522758 ], [ 150.580896325407338, -35.020640047583058 ], [ 150.580671842973516, -35.022458011264526 ], [ 150.579671325214775, -35.022322613134499 ], [ 150.579575912557942, -35.023459782845769 ], [ 150.579760592625206, -35.024639262884399 ], [ 150.579672464650827, -35.024693917885735 ], [ 150.579601081732477, -35.024729609351859 ] ] ] ] } },
{ "type": "Feature", "properties": { "OBJECTID_1": 41, "OBJECTID": 52, "Zone_ID": "1", "CONDITION": "Good", "EasternPCT": "3267", "E_PCT_Name": "Shoalhaven Foothills Turpentine Forest", "VEG_CLASS": "Southern Lowland Wet Sclerophyll Forests", "BC_Act": "-", "EPBC_Act": "-", "Area_ha": 0.21558617958199999, "Area_m2": 2155.8617958200002, "Comments": null, "ECMLink": null, "FSource": "Derived from field observations and aerial imagery.", "SourceDate": "2026-02-04T00:00:00Z", "PlanAccur": null, "Supplier": "Stantec Australia Pty Ltd (3045)", "Shape_Length": 445.07331094961239, "Shape_Area": 2155.861795817138 }, "geometry": { "type": "MultiPolygon", "coordinates": [ [ [ [ 150.579672464650827, -35.024693917885735 ], [ 150.579760592625206, -35.024639262884399 ], [ 150.580013839731919, -35.026256604843638 ], [ 150.580031779773009, -35.026258969459434 ], [ 150.580194592887779, -35.026280535691093 ], [ 150.580172151807346, -35.026347642744348 ], [ 150.580154306012219, -35.026383335320197 ], [ 150.580148357725051, -35.026472564314375 ], [ 150.580071024958045, -35.026502308445281 ], [ 150.57998774394332, -35.026424975173938 ], [ 150.579987744101743, -35.02632384807994 ], [ 150.579958000921835, -35.026216772809448 ], [ 150.579940154414345, -35.026133491963677 ], [ 150.579898514333451, -35.026038312993101 ], [ 150.579862821921154, -35.025925288321609 ], [ 150.57982713049492, -35.025824162079104 ], [ 150.579803335179434, -35.025705188946482 ], [ 150.579797386604412, -35.025562420821259 ], [ 150.579773592215588, -35.02546129397728 ], [ 150.579755745952383, -35.025383960965783 ], [ 150.579743849431253, -35.02528878321089 ], [ 150.579737900255253, -35.025193604239412 ], [ 150.579702207996689, -35.025104374560641 ], [ 150.57967841373187, -35.02500919645879 ], [ 150.579642721989245, -35.024896171735598 ], [ 150.579666516516085, -35.024824788188688 ], [ 150.579672464939961, -35.024747455827239 ], [ 150.579672464650827, -35.024693917885735 ] ] ] ] } },
{ "type": "Feature", "properties": { "OBJECTID_1": 43, "OBJECTID": 54, "Zone_ID": "1", "CONDITION": "Good", "EasternPCT": "3267", "E_PCT_Name": "Shoalhaven Foothills Turpentine Forest", "VEG_CLASS": "Southern Lowland Wet Sclerophyll Forests", "BC_Act": "-", "EPBC_Act": "-", "Area_ha": 0.51343888143299998, "Area_m2": 5134.3888143300001, "Comments": null, "ECMLink": null, "FSource": "Derived from field observations and aerial imagery.", "SourceDate": "2026-02-04T00:00:00Z", "PlanAccur": null, "Supplier": "Stantec Australia Pty Ltd (3045)", "Shape_Length": 690.92025994611629, "Shape_Area": 5134.3888143259383 }, "geometry": { "type": "MultiPolygon", "coordinates": [ [ [ [ 150.578752506629371, -35.025286998178963 ], [ 150.578782249681439, -35.025286997878567 ], [ 150.578829838524655, -35.025304844016368 ], [ 150.578871478683396, -35.025334587895948 ], [ 150.57894286316025, -35.025405970951141 ], [ 150.578948811791292, -35.025530892817542 ], [ 150.57896665784142, -35.025632020057174 ], [ 150.578972606443017, -35.025804531079828 ], [ 150.578948811179345, -35.025911606993617 ], [ 150.578948811941984, -35.026101963644905 ], [ 150.578960708883471, -35.026232834003544 ], [ 150.578960709050932, -35.026357756108204 ], [ 150.578942862992704, -35.02647078052992 ], [ 150.578936914055816, -35.026619496092309 ], [ 150.578942862963004, -35.026732520431658 ], [ 150.578960708717773, -35.026851493925776 ], [ 150.578960708547072, -35.026988312625306 ], [ 150.578972606338652, -35.027131080500467 ], [ 150.578948811241617, -35.027297643054276 ], [ 150.578984503829162, -35.02741661581895 ], [ 150.579008297835202, -35.027553435313607 ], [ 150.579026144152465, -35.027702151681886 ], [ 150.579055886891808, -35.027838970016674 ], [ 150.579079682492534, -35.027963892013965 ], [ 150.579139167954168, -35.028070967983204 ], [ 150.579174859878833, -35.02814830028715 ], [ 150.579198654929201, -35.028213735590626 ], [ 150.579192706183164, -35.028267272847103 ], [ 150.579151065500525, -35.028285119094399 ], [ 150.57910942508596, -35.028201838283401 ], [ 150.579067784261127, -35.028094762426527 ], [ 150.579032092919533, -35.027999583836454 ], [ 150.579008298365295, -35.027922251000099 ], [ 150.578942862684613, -35.027761638181339 ], [ 150.57888932551532, -35.027517743184056 ], [ 150.578853633081707, -35.027357129103812 ], [ 150.578847684325325, -35.027202464380771 ], [ 150.578817940900763, -35.027029953442224 ], [ 150.578776300251491, -35.026869339584081 ], [ 150.578740608436675, -35.026780109657551 ], [ 150.578716813763151, -35.026726571788345 ], [ 150.578710865336916, -35.02668493163258 ], [ 150.578740609290605, -35.02663139346194 ], [ 150.578740608475528, -35.026542163896949 ], [ 150.578740608414478, -35.02646483185967 ], [ 150.578722763141684, -35.02638154998499 ], [ 150.578716814197577, -35.026280423149529 ], [ 150.578728711286942, -35.026155501479728 ], [ 150.578728711427686, -35.026030580286609 ], [ 150.578722762335474, -35.025935401299847 ], [ 150.57871681436373, -35.025798582835634 ], [ 150.578710865881447, -35.025721250130424 ], [ 150.578710865039113, -35.025632020554532 ], [ 150.578704917230226, -35.025530892830837 ], [ 150.578698968736859, -35.025453561024115 ], [ 150.578681122185117, -35.02542381702915 ], [ 150.578681122736896, -35.025364330365122 ], [ 150.578693019390329, -35.025328639137861 ], [ 150.578704916823938, -35.025304844538695 ], [ 150.578752506629371, -35.025286998178963 ] ] ] ] } },
{ "type": "Feature", "properties": { "OBJECTID_1": 44, "OBJECTID": 55, "Zone_ID": "1", "CONDITION": "Good", "EasternPCT": "3267", "E_PCT_Name": "Shoalhaven Foothills Turpentine Forest", "VEG_CLASS": "Southern Lowland Wet Sclerophyll Forests", "BC_Act": "-", "EPBC_Act": "-", "Area_ha": 2.0822040374399999, "Area_m2": 20822.0403744, "Comments": null, "ECMLink": null, "FSource": "Derived from field observations and aerial imagery.", "SourceDate": "2026-02-04T00:00:00Z", "PlanAccur": null, "Supplier": "Stantec Australia Pty Ltd (3045)", "Shape_Length": 770.1144216049197, "Shape_Area": 20822.040374429216 }, "geometry": { "type": "MultiPolygon", "coordinates": [ [ [ [ 150.58221636405753, -35.028848598502428 ], [ 150.582149186153742, -35.028818515179033 ], [ 150.582089700051, -35.028759028871832 ], [ 150.582048059906242, -35.028693593492662 ], [ 150.58180416462173, -35.028437801065863 ], [ 150.581744677860002, -35.02836641706412 ], [ 150.58166734624163, -35.028265290391246 ], [ 150.581566219106776, -35.028128471686578 ], [ 150.581476988479238, -35.028009498428681 ], [ 150.581387759217449, -35.02789647389541 ], [ 150.58132232345659, -35.02780129501523 ], [ 150.581262837595432, -35.027753705845392 ], [ 150.581137915317044, -35.027676374014554 ], [ 150.581126018161484, -35.027610938367062 ], [ 150.581126018103589, -35.027545503813556 ], [ 150.581191453248891, -35.027480068073345 ], [ 150.581244991191596, -35.027426530533518 ], [ 150.581250939662795, -35.027390838513796 ], [ 150.581179555969868, -35.027361095391306 ], [ 150.581143864684236, -35.027331351926328 ], [ 150.581012993491868, -35.027313506119278 ], [ 150.580888071977313, -35.027307557370648 ], [ 150.580804791431888, -35.027277813819516 ], [ 150.580727458372507, -35.027248070757693 ], [ 150.580703664650684, -35.027152891956774 ], [ 150.580632280255685, -35.027123149406485 ], [ 150.580566844674962, -35.027057713938419 ], [ 150.580525204544443, -35.026962535169496 ], [ 150.580459768993137, -35.026920894683563 ], [ 150.580394333730226, -35.026849511275408 ], [ 150.580305104428163, -35.026795973572646 ], [ 150.580257514737298, -35.026742435423252 ], [ 150.580221822732113, -35.026623462100893 ], [ 150.580209925416312, -35.026546129752617 ], [ 150.580203977453891, -35.026492592144891 ], [ 150.580221823194194, -35.026462848320293 ], [ 150.580275360672942, -35.026450951605035 ], [ 150.580322950695233, -35.026450950919639 ], [ 150.580364591160901, -35.026445002656011 ], [ 150.580418128840137, -35.026403362083698 ], [ 150.580513306877435, -35.026355773168198 ], [ 150.580541762582129, -35.026326521305556 ], [ 150.581764686417102, -35.026488501378331 ], [ 150.58221636405753, -35.028848598502428 ] ] ] ] } },
{ "type": "Feature", "properties": { "OBJECTID_1": 45, "OBJECTID": 56, "Zone_ID": "1", "CONDITION": "Good", "EasternPCT": "3267", "E_PCT_Name": "Shoalhaven Foothills Turpentine Forest", "VEG_CLASS": "Southern Lowland Wet Sclerophyll Forests", "BC_Act": "-", "EPBC_Act": "-", "Area_ha": 1.27739724289, "Area_m2": 12773.972428900001, "Comments": null, "ECMLink": null, "FSource": "Derived from field observations and aerial imagery.", "SourceDate": "2026-02-04T00:00:00Z", "PlanAccur": null, "Supplier": "Stantec Australia Pty Ltd (3045)", "Shape_Length": 706.95125271028758, "Shape_Area": 12773.972428875082 }, "geometry": { "type": "MultiPolygon", "coordinates": [ [ [ [ 150.579674547396991, -35.02786673097485 ], [ 150.579686444997321, -35.027777500864545 ], [ 150.579710239481017, -35.02770016859531 ], [ 150.579728085069803, -35.027640681968975 ], [ 150.579775674431488, -35.027587143583752 ], [ 150.57978757147805, -35.027521708476392 ], [ 150.579739982614086, -35.027480068560202 ], [ 150.579722136649963, -35.027432479350367 ], [ 150.579757827982093, -35.027361095246718 ], [ 150.579823263958076, -35.027372992329113 ], [ 150.579894647209244, -35.027396787474622 ], [ 150.580001723143909, -35.027402735445037 ], [ 150.580067158225489, -35.027402735764348 ], [ 150.580174234230867, -35.0274027357272 ], [ 150.580263463728187, -35.027378941481551 ], [ 150.58034674445841, -35.027378940712204 ], [ 150.580471666899086, -35.027414632931453 ], [ 150.580548998954839, -35.02743842737852 ], [ 150.580620383486064, -35.027480068403655 ], [ 150.580697715525957, -35.027533605650774 ], [ 150.58077504764114, -35.027587143753159 ], [ 150.580822637000011, -35.027652579221666 ], [ 150.580822636744074, -35.027735860039918 ], [ 150.580834534784827, -35.027795346970173 ], [ 150.580870226171186, -35.027825089626873 ], [ 150.580870226016771, -35.02787267969552 ], [ 150.580888072756011, -35.027914320005621 ], [ 150.580888072616887, -35.027967857931671 ], [ 150.580852380883954, -35.028039241468136 ], [ 150.580834534924264, -35.028092779505997 ], [ 150.580899969331398, -35.028152266059607 ], [ 150.58098919944311, -35.02814631758303 ], [ 150.581102223964905, -35.028134419781303 ], [ 150.581179555773957, -35.028164163496854 ], [ 150.581244991585379, -35.028217701138551 ], [ 150.581328272234487, -35.028277187303416 ], [ 150.581411554171666, -35.028360468476222 ], [ 150.581471040472138, -35.028396160971376 ], [ 150.581530526903833, -35.028443750058337 ], [ 150.581542424491943, -35.028509184775032 ], [ 150.581512680453983, -35.028550825222389 ], [ 150.581435348267291, -35.028556774259151 ], [ 150.581328272926868, -35.028568672010394 ], [ 150.581268785581045, -35.028604363630137 ], [ 150.581167658826388, -35.028657901288547 ], [ 150.581084377818371, -35.0287530800233 ], [ 150.580977302203195, -35.02875902869355 ], [ 150.580870226783247, -35.028705490591619 ], [ 150.580822637656865, -35.028705490581416 ], [ 150.580739355586445, -35.028705490721968 ], [ 150.580650126326731, -35.028646004483242 ], [ 150.58060253649694, -35.028592466453162 ], [ 150.580584690959739, -35.028538928612782 ], [ 150.58051330750871, -35.028527031364824 ], [ 150.580424077844185, -35.028556774520879 ], [ 150.580322950052448, -35.028556774428083 ], [ 150.580269412716518, -35.028527030734402 ], [ 150.580198028821911, -35.02846159627881 ], [ 150.580215874329298, -35.028396160823654 ], [ 150.580275360941783, -35.028354520052915 ], [ 150.580364590719142, -35.028295033215294 ], [ 150.580364591039626, -35.028259341575989 ], [ 150.580311053183351, -35.028187957489479 ], [ 150.580322949955587, -35.028116574465848 ], [ 150.580322950469423, -35.028063036556041 ], [ 150.580275360823549, -35.028045190054343 ], [ 150.580192079803737, -35.028110625287198 ], [ 150.580108799231624, -35.028128471309216 ], [ 150.580043363328059, -35.028146317256457 ], [ 150.579989825684493, -35.028164163498261 ], [ 150.579936288284216, -35.028164163448814 ], [ 150.579882749790073, -35.028164163353871 ], [ 150.579799469108366, -35.028182009158236 ], [ 150.579734034108697, -35.028140368285406 ], [ 150.579704290323093, -35.028122522512554 ], [ 150.579692392758517, -35.02808088177045 ], [ 150.579728085321705, -35.028021395227036 ], [ 150.579787571391819, -35.028009498468627 ], [ 150.579858954920354, -35.028051139020349 ], [ 150.579924390452391, -35.028057087292481 ], [ 150.580013619885818, -35.028015446975509 ], [ 150.580049311872926, -35.027979755350465 ], [ 150.58006715830922, -35.027926217447174 ], [ 150.580073106552589, -35.027866730463614 ], [ 150.580126645197282, -35.027836987585594 ], [ 150.580156387615489, -35.02778344903431 ], [ 150.580126645216495, -35.027741809262579 ], [ 150.580019569173317, -35.027712065458772 ], [ 150.579942236204403, -35.027747757329308 ], [ 150.579876801218717, -35.027795346998928 ], [ 150.579841109338531, -35.027825089818812 ], [ 150.57981136589575, -35.027860781995216 ], [ 150.579787571914665, -35.02790837140877 ], [ 150.579751879233271, -35.027914320056787 ], [ 150.579722136233045, -35.027920268432354 ], [ 150.57969834210698, -35.027908371153821 ], [ 150.579674547396991, -35.02786673097485 ] ] ] ] } },
{ "type": "Feature", "properties": { "OBJECTID_1": 46, "OBJECTID": 57, "Zone_ID": "1", "CONDITION": "Good", "EasternPCT": "3267", "E_PCT_Name": "Shoalhaven Foothills Turpentine Forest", "VEG_CLASS": "Southern Lowland Wet Sclerophyll Forests", "BC_Act": "-", "EPBC_Act": "-", "Area_ha": 0.178341424203, "Area_m2": 1783.41424203, "Comments": null, "ECMLink": null, "FSource": "Derived from field observations and aerial imagery.", "SourceDate": "2026-02-04T00:00:00Z", "PlanAccur": null, "Supplier": "Stantec Australia Pty Ltd (3045)", "Shape_Length": 220.9137158950935, "Shape_Area": 1783.414242030306 }, "geometry": { "type": "MultiPolygon", "coordinates": [ [ [ [ 150.579377114604569, -35.028259341815399 ], [ 150.579341423105603, -35.028253392849251 ], [ 150.579323576436281, -35.028241496110887 ], [ 150.579293833116452, -35.028205803978935 ], [ 150.579281936296496, -35.028140368190584 ], [ 150.579270038506962, -35.028068984526627 ], [ 150.579252193097687, -35.028003549897655 ], [ 150.579252192663773, -35.027926216956786 ], [ 150.579198655161434, -35.027890524945384 ], [ 150.579168911607354, -35.02782508989953 ], [ 150.579168911215305, -35.027747757860716 ], [ 150.579145117684476, -35.027670425067889 ], [ 150.579109425677359, -35.027604990266447 ], [ 150.579085630340728, -35.0275157599133 ], [ 150.579115374217793, -35.027468171314361 ], [ 150.57921650116046, -35.027396787289334 ], [ 150.579281936238345, -35.027396787131444 ], [ 150.579371166326411, -35.027462222211938 ], [ 150.579371166418468, -35.027563349279518 ], [ 150.579365216936594, -35.027712065745952 ], [ 150.579394960727655, -35.027825089904518 ], [ 150.579454447370949, -35.027944063264421 ], [ 150.579418754776412, -35.027997600967062 ], [ 150.579466344605493, -35.028051138542097 ], [ 150.579472292499901, -35.0281403687056 ], [ 150.579430652058818, -35.028205804207559 ], [ 150.579377114604569, -35.028259341815399 ] ] ] ] } },
{ "type": "Feature", "properties": { "OBJECTID_1": 47, "OBJECTID": 58, "Zone_ID": "1", "CONDITION": "Good", "EasternPCT": "3267", "E_PCT_Name": "Shoalhaven Foothills Turpentine Forest", "VEG_CLASS": "Southern Lowland Wet Sclerophyll Forests", "BC_Act": "-", "EPBC_Act": "-", "Area_ha": 0.050445690113900002, "Area_m2": 504.45690113900002, "Comments": null, "ECMLink": null, "FSource": "Derived from field observations and aerial imagery.", "SourceDate": "2026-02-04T00:00:00Z", "PlanAccur": null, "Supplier": "Stantec Australia Pty Ltd (3045)", "Shape_Length": 88.285547117457568, "Shape_Area": 504.45690113854874 }, "geometry": { "type": "MultiPolygon", "coordinates": [ [ [ [ 150.579240295892674, -35.027224275910164 ], [ 150.579186758004056, -35.027224276433721 ], [ 150.579151065872963, -35.027218327407645 ], [ 150.579121322401818, -35.027206430262041 ], [ 150.579103476156234, -35.027188583845103 ], [ 150.579085630226416, -35.027111251666376 ], [ 150.579061836188743, -35.02706366263029 ], [ 150.579103476657934, -35.027027971024573 ], [ 150.579133219686668, -35.026962535224641 ], [ 150.579174860502576, -35.026956586483351 ], [ 150.579234347401666, -35.026974432881879 ], [ 150.579270038607063, -35.02706961141844 ], [ 150.579335474241731, -35.027135046665663 ], [ 150.579335474214957, -35.027188584578546 ], [ 150.57930573083371, -35.027224275733808 ], [ 150.579240295892674, -35.027224275910164 ] ] ] ] } }
]
}
