{
"type": "FeatureCollection",
"name": "JBR2HR_EasternPCT_3273",
"crs": { "type": "name", "properties": { "name": "urn:ogc:def:crs:OGC:1.3:CRS84" } },
"xy_coordinate_resolution": 1e-15,
"features": [
{ "type": "Feature", "properties": { "OBJECTID_1": 18, "OBJECTID": 29, "Zone_ID": "5", "CONDITION": "Good", "EasternPCT": "3273", "E_PCT_Name": "South Coast Lowland Shrub-Grass Forest", "VEG_CLASS": "Southern Lowland Wet Sclerophyll Forests", "BC_Act": " ", "EPBC_Act": " ", "Area_ha": 3.6160322553899999, "Area_m2": 36160.322553899998, "Comments": null, "ECMLink": null, "FSource": "Derived from field observations and aerial imagery.", "SourceDate": "2026-02-04T00:00:00Z", "PlanAccur": null, "Supplier": "Stantec Australia Pty Ltd (3045)", "Shape_Length": 1961.1891115340948, "Shape_Area": 36160.322553860839 }, "geometry": { "type": "MultiPolygon", "coordinates": [ [ [ [ 150.584243437444741, -34.999743553966091 ], [ 150.584285078204601, -34.999755451312716 ], [ 150.584326718269864, -34.999755451057723 ], [ 150.584374308180088, -34.999737604799463 ], [ 150.584457589360341, -34.999755451496988 ], [ 150.58449922979537, -34.999761399977153 ], [ 150.584570613118899, -34.999719758931761 ], [ 150.584630099779332, -34.999743553846194 ], [ 150.584647945741153, -34.999791143346918 ], [ 150.584618202846173, -34.999820886515359 ], [ 150.584564664184143, -34.999820886167292 ], [ 150.584505177860791, -34.999820886375232 ], [ 150.584427845319908, -34.999820886415215 ], [ 150.584338615997012, -34.999850629651206 ], [ 150.58432671881431, -34.999892270460663 ], [ 150.584386205522378, -34.999933910955392 ], [ 150.584386205124275, -34.999999345799097 ], [ 150.584302923634198, -35.000017191761849 ], [ 150.584212752221816, -35.000010192142845 ], [ 150.584120791084217, -34.999940299268353 ], [ 150.584043458875584, -34.999928401494586 ], [ 150.583960177813708, -34.999934350559442 ], [ 150.583900691011678, -34.999886761071956 ], [ 150.58384715243875, -34.999868914950937 ], [ 150.583847152682523, -34.999934350700521 ], [ 150.583948280540199, -35.000017631926376 ], [ 150.584025612510402, -35.000023580069836 ], [ 150.584061304431515, -34.999993837425066 ], [ 150.584102944949535, -34.999999786044867 ], [ 150.584102945081185, -35.000059272107563 ], [ 150.584150533841807, -35.000112810454318 ], [ 150.584236603933221, -35.000149045094027 ], [ 150.584258984472825, -35.000279327338454 ], [ 150.584332667750061, -35.000278932931138 ], [ 150.584415948755975, -35.000320573007002 ], [ 150.584445691549689, -35.000320572925034 ], [ 150.584487332624263, -35.00035031657405 ], [ 150.584506481817868, -35.000400791495764 ], [ 150.584663803865908, -35.000423547653888 ], [ 150.584737176027602, -35.000386008133063 ], [ 150.584796662295304, -35.000362213571762 ], [ 150.58489778918576, -35.000326521873291 ], [ 150.584987018664435, -35.000326522173907 ], [ 150.58504055660606, -35.000278932929298 ], [ 150.585135735629251, -35.000243240726903 ], [ 150.585219016860549, -35.000267034801034 ], [ 150.585254708412378, -35.000267034829186 ], [ 150.585314195228818, -35.000284881534867 ], [ 150.585343937701225, -35.000356264877922 ], [ 150.585409373597031, -35.000391957310505 ], [ 150.585445065206528, -35.00039195728484 ], [ 150.585445065235973, -35.000362213345198 ], [ 150.585397475913283, -35.00028488122652 ], [ 150.585355835433177, -35.000237291531825 ], [ 150.58534393795091, -35.00017780575083 ], [ 150.585385578509403, -35.000136164530588 ], [ 150.585451013383903, -35.000130216301947 ], [ 150.585451013391747, -35.000189702381448 ], [ 150.585456963024711, -35.000231343312471 ], [ 150.585510500005626, -35.000249189602947 ], [ 150.585528345858506, -35.000213497748589 ], [ 150.58552834650979, -35.000177805031647 ], [ 150.585528346412218, -35.000088575908627 ], [ 150.585528346154689, -35.000040986497595 ], [ 150.585480756733716, -35.00003503806645 ], [ 150.585439116733681, -35.000052884180036 ], [ 150.585397475842598, -35.00008857572432 ], [ 150.585349887317108, -35.000064780894782 ], [ 150.585314194799849, -35.000035037838209 ], [ 150.585302297146967, -34.99998744872417 ], [ 150.585355835108743, -34.999945808118255 ], [ 150.585421270292471, -34.999916064755105 ], [ 150.585462911543658, -34.999886321093932 ], [ 150.585516449150845, -34.999886321926276 ], [ 150.585564038489707, -34.999892270340133 ], [ 150.58558188408378, -34.999898219088017 ], [ 150.585611627836585, -34.999898218735595 ], [ 150.585665165481913, -34.999898218601629 ], [ 150.585731727019493, -34.999901977110383 ], [ 150.585598178455029, -35.000558703812459 ], [ 150.585473487265574, -35.001168502133552 ], [ 150.585328366870385, -35.001088388744058 ], [ 150.58524508629344, -35.001070543529998 ], [ 150.585179651181079, -35.001052697379095 ], [ 150.585114216235866, -35.001005108163028 ], [ 150.585036883146643, -35.000981313410065 ], [ 150.584995242731793, -35.000903980561013 ], [ 150.585013089133383, -35.000838545770726 ], [ 150.58497739712314, -35.000802853836639 ], [ 150.584894115225978, -35.000808802607907 ], [ 150.584822731811414, -35.00084449413152 ], [ 150.584781091311299, -35.000880186355353 ], [ 150.584662117815469, -35.000856391759946 ], [ 150.584614529032166, -35.000796904816816 ], [ 150.58461452930257, -35.000749316333362 ], [ 150.584578837509127, -35.000713624290121 ], [ 150.584501504502782, -35.000683880418563 ], [ 150.5844360698309, -35.000683881143793 ], [ 150.584352788389623, -35.000695778339789 ], [ 150.584352787872064, -35.000796904988761 ], [ 150.584352788474348, -35.000862340745641 ], [ 150.584382531806682, -35.000886134936685 ], [ 150.584471761153736, -35.000927775327092 ], [ 150.584566940105077, -35.000927775410482 ], [ 150.584632374966418, -35.00094562188292 ], [ 150.584727552952984, -35.000981313638775 ], [ 150.58476919436356, -35.00097536448483 ], [ 150.584917910617207, -35.000975364539784 ], [ 150.585013088574982, -35.001040800008155 ], [ 150.585096370273533, -35.001076491763371 ], [ 150.585251034524589, -35.001124081110248 ], [ 150.585364059752777, -35.001147875745659 ], [ 150.585465526468852, -35.001207431352789 ], [ 150.585308701787568, -35.001974375613955 ], [ 150.585249995055904, -35.002055617532058 ], [ 150.585191548771235, -35.00204612194814 ], [ 150.585060678442915, -35.001998532853612 ], [ 150.584983345315806, -35.002004481980009 ], [ 150.584876270216483, -35.001998532782217 ], [ 150.584781091382524, -35.001968789891166 ], [ 150.584644272195277, -35.001933097589315 ], [ 150.584555042800361, -35.00190930276117 ], [ 150.584453915639017, -35.001903354422517 ], [ 150.584376583328236, -35.001903354393548 ], [ 150.58426355874758, -35.001903354877797 ], [ 150.58416243096417, -35.001885508714174 ], [ 150.58406130420542, -35.001885508841625 ], [ 150.583954228830635, -35.001849816707583 ], [ 150.583924485760122, -35.001814124845808 ], [ 150.583924485713425, -35.001772484254097 ], [ 150.583978023501402, -35.001712997948431 ], [ 150.584043458763034, -35.001748689307064 ], [ 150.584108893807979, -35.001760587290349 ], [ 150.584204072026807, -35.001730843739111 ], [ 150.584269507525676, -35.001730843173057 ], [ 150.584358737408024, -35.001730843976382 ], [ 150.584388480777022, -35.001695152119787 ], [ 150.584317096558124, -35.001659459684042 ], [ 150.584269507234353, -35.001594024712759 ], [ 150.584269506776195, -35.001510743512057 ], [ 150.584323045148921, -35.001486948866003 ], [ 150.584430120627587, -35.001510743100063 ], [ 150.584471761560991, -35.00152858918797 ], [ 150.584495555931852, -35.001510743305822 ], [ 150.584477710457008, -35.001457205913269 ], [ 150.584430120394671, -35.00139771887261 ], [ 150.584370634486817, -35.001350129615489 ], [ 150.584269507731989, -35.001320386904574 ], [ 150.584180277600524, -35.001308489370537 ], [ 150.584096996769745, -35.001284694577699 ], [ 150.584001817400292, -35.001284695009481 ], [ 150.583942331127759, -35.00128469491991 ], [ 150.583864998919324, -35.001254951555168 ], [ 150.583793615149034, -35.001237105184948 ], [ 150.58371628301748, -35.001207362630105 ], [ 150.583638949578159, -35.001171670314747 ], [ 150.583561617084854, -35.001153824323815 ], [ 150.583502131059248, -35.001201413399166 ], [ 150.583502131484124, -35.001254951566011 ], [ 150.583484285161887, -35.001326334888908 ], [ 150.583537822919482, -35.00142151356242 ], [ 150.583650847593447, -35.001415564959061 ], [ 150.583746026003183, -35.001415564787138 ], [ 150.583864998883627, -35.001397718786059 ], [ 150.584001817599415, -35.001427462249438 ], [ 150.584132688408374, -35.001433410973391 ], [ 150.584180277869962, -35.001504794783642 ], [ 150.584150534725154, -35.001564281734616 ], [ 150.584085099279463, -35.001582127693815 ], [ 150.584037509760094, -35.001588076248311 ], [ 150.58394828002065, -35.001588076115844 ], [ 150.583870947061428, -35.001570230304608 ], [ 150.583781718137288, -35.00156428128146 ], [ 150.583716282787037, -35.00156428158968 ], [ 150.583644898997562, -35.001594024500712 ], [ 150.583644898907892, -35.001635665087754 ], [ 150.583668693700645, -35.00166540875442 ], [ 150.583716282569299, -35.001730843942987 ], [ 150.583793615025229, -35.001736792276127 ], [ 150.583847153381811, -35.001790330242692 ], [ 150.583817409576909, -35.00184386830481 ], [ 150.583769819891558, -35.001849816747026 ], [ 150.583638949749258, -35.00182602218031 ], [ 150.583561617453654, -35.001802227398024 ], [ 150.583430747128261, -35.001748689587359 ], [ 150.583341517488378, -35.001730843556331 ], [ 150.583282030892548, -35.00168325466251 ], [ 150.583252287644882, -35.00163566507122 ], [ 150.58325823678959, -35.00159402490204 ], [ 150.583317722683688, -35.00146315388178 ], [ 150.583341517779019, -35.001385821306592 ], [ 150.583406952149687, -35.001231156394596 ], [ 150.583406952769622, -35.001130029777876 ], [ 150.58340100375284, -35.001034851527024 ], [ 150.583430747569821, -35.000892083595708 ], [ 150.583454541638304, -35.000755264922013 ], [ 150.58344859303952, -35.000624393967485 ], [ 150.58350213158522, -35.000523267276236 ], [ 150.583519976506324, -35.000428088770718 ], [ 150.58354972053678, -35.000321012603777 ], [ 150.583567566439967, -35.000225834106125 ], [ 150.583567566072702, -35.000089015640704 ], [ 150.583591360887453, -35.000041426009432 ], [ 150.583597309390655, -34.999886761573684 ], [ 150.583615155366488, -34.999839172446165 ], [ 150.583668693758597, -34.999791582922327 ], [ 150.583686539054838, -34.999732096197057 ], [ 150.583680590319517, -34.99969045611499 ], [ 150.58365679576923, -34.999613123073281 ], [ 150.583674641653488, -34.999523893330618 ], [ 150.583698437152151, -34.999494150041961 ], [ 150.583740077648969, -34.999422766362855 ], [ 150.583722231015543, -34.999351382481635 ], [ 150.583751974472818, -34.999268101369928 ], [ 150.583775768719903, -34.999196717434224 ], [ 150.58383525558304, -34.999155076981253 ], [ 150.583876895981973, -34.999166974454553 ], [ 150.583930434027621, -34.99920266600293 ], [ 150.583948280135928, -34.999262153175657 ], [ 150.583989920201418, -34.999285947276761 ], [ 150.584007766895212, -34.99931569051936 ], [ 150.584055355612946, -34.999357331324269 ], [ 150.584096996853134, -34.999381125413279 ], [ 150.58409699596541, -34.999422766001736 ], [ 150.584067252934233, -34.999470355392369 ], [ 150.584085099132551, -34.99954768800638 ], [ 150.584085099523406, -34.99963096922405 ], [ 150.584156791044876, -34.99968442500132 ], [ 150.584243437444741, -34.999743553966091 ] ] ] ] } },
{ "type": "Feature", "properties": { "OBJECTID_1": 38, "OBJECTID": 49, "Zone_ID": "5", "CONDITION": "Good", "EasternPCT": "3273", "E_PCT_Name": "South Coast Lowland Shrub-Grass Forest", "VEG_CLASS": "Southern Lowland Wet Sclerophyll Forests", "BC_Act": " ", "EPBC_Act": " ", "Area_ha": 8.3750506014, "Area_m2": 83750.506014, "Comments": null, "ECMLink": null, "FSource": "Derived from field observations and aerial imagery.", "SourceDate": "2026-02-04T00:00:00Z", "PlanAccur": null, "Supplier": "Stantec Australia Pty Ltd (3045)", "Shape_Length": 1329.4088873603191, "Shape_Area": 83750.50601402091 }, "geometry": { "type": "MultiPolygon", "coordinates": [ [ [ [ 150.578839653496004, -35.022528608318432 ], [ 150.578821807868735, -35.022665426942318 ], [ 150.578780166840545, -35.022814143140295 ], [ 150.578774218324298, -35.022915270500974 ], [ 150.578714732297499, -35.022980705681299 ], [ 150.5785779129736, -35.023034243651942 ], [ 150.578429196367807, -35.023034243986437 ], [ 150.578262634008809, -35.023034243896582 ], [ 150.57816745661404, -35.023010448729082 ], [ 150.578018739466671, -35.023028294825181 ], [ 150.57792951040085, -35.023034243953035 ], [ 150.577834331149631, -35.023034243521735 ], [ 150.577751050527382, -35.023034243558115 ], [ 150.577620179554941, -35.023010449083159 ], [ 150.577548796038627, -35.023022346118886 ], [ 150.57746811250064, -35.023014663274438 ], [ 150.577402486686481, -35.023008733395343 ], [ 150.577295411781137, -35.022990887554172 ], [ 150.57721807904727, -35.022949247539884 ], [ 150.57710505467, -35.022913555411293 ], [ 150.576997979161519, -35.022842171385847 ], [ 150.576873057519464, -35.022806479358117 ], [ 150.576777878022284, -35.022794582386034 ], [ 150.576706494554912, -35.022741044406096 ], [ 150.576581573209182, -35.022705352088877 ], [ 150.576522086169462, -35.022675609641368 ], [ 150.57645070265994, -35.02262802027105 ], [ 150.57640311382545, -35.022628020405655 ], [ 150.576331730041574, -35.022628020111092 ], [ 150.576284140772856, -35.02261612267769 ], [ 150.576171115508686, -35.02259232808963 ], [ 150.576111629489901, -35.022568533319792 ], [ 150.576016451431087, -35.022538790419183 ], [ 150.575909375647228, -35.02251499549822 ], [ 150.575909375180515, -35.022467406343857 ], [ 150.575939118095135, -35.022396022548556 ], [ 150.575962913440947, -35.022294895092003 ], [ 150.57596886212761, -35.022229460472282 ], [ 150.576004553267836, -35.022116436148082 ], [ 150.576022399530729, -35.022009360016234 ], [ 150.576069989030827, -35.021914181736371 ], [ 150.57608783454512, -35.021836849357378 ], [ 150.576099731809251, -35.021741670826117 ], [ 150.576117578399817, -35.0216048517944 ], [ 150.576117577632004, -35.021462084317896 ], [ 150.576129475450756, -35.021355008274021 ], [ 150.576177064301106, -35.021241983648501 ], [ 150.576200859347097, -35.021152754526419 ], [ 150.576248448873969, -35.02096239693244 ], [ 150.576266294042796, -35.020801783697863 ], [ 150.576276805089407, -35.020726149102728 ], [ 150.578563486249834, -35.019981913309081 ], [ 150.578869995607562, -35.019320569754377 ], [ 150.579083406453577, -35.0188600929812 ], [ 150.579417933094106, -35.018908522432405 ], [ 150.57947936035356, -35.01891741522374 ], [ 150.579482108683209, -35.019018902850675 ], [ 150.579464261967814, -35.019072440759196 ], [ 150.579434519093809, -35.019143824640935 ], [ 150.579428570161156, -35.019292541306406 ], [ 150.579428570095956, -35.019375822193524 ], [ 150.579398826976188, -35.019453154819246 ], [ 150.579380981402409, -35.019566179464874 ], [ 150.579333392293762, -35.019697049969139 ], [ 150.579315546486725, -35.019816022455416 ], [ 150.579315546080039, -35.019911200853485 ], [ 150.579315546031154, -35.019982585107087 ], [ 150.579291751193807, -35.020089660324324 ], [ 150.579291750914393, -35.020172942096721 ], [ 150.579262007838139, -35.020285966347153 ], [ 150.579244162036133, -35.020387093422556 ], [ 150.579244161892348, -35.020523912252436 ], [ 150.579214418999669, -35.020613142337702 ], [ 150.579190624322109, -35.020690474613005 ], [ 150.579190624473625, -35.020803499294296 ], [ 150.579196573138205, -35.020892728655824 ], [ 150.579172777897355, -35.020993855959198 ], [ 150.579137086891421, -35.021071187865914 ], [ 150.579107343117244, -35.021130674986964 ], [ 150.579089497043952, -35.021279391206157 ], [ 150.579053805083959, -35.0213924156308 ], [ 150.579035959799484, -35.021493542660316 ], [ 150.579030010472081, -35.021606566665049 ], [ 150.579012164714158, -35.021725539960435 ], [ 150.578988369910434, -35.021832615976116 ], [ 150.57895862677637, -35.021945640104207 ], [ 150.578952678043805, -35.022022972444056 ], [ 150.578905089201157, -35.022183586500752 ], [ 150.578857500188235, -35.022296610444798 ], [ 150.578857500030466, -35.022397737565086 ], [ 150.578839653496004, -35.022528608318432 ] ] ] ] } },
{ "type": "Feature", "properties": { "OBJECTID_1": 81, "OBJECTID": 0, "Zone_ID": "5", "CONDITION": "Good", "EasternPCT": "3273", "E_PCT_Name": "South Coast Lowland Shrub-Grass Forest", "VEG_CLASS": "Southern Lowland Wet Sclerophyll Forests", "BC_Act": " ", "EPBC_Act": " ", "Area_ha": 1.35146849792, "Area_m2": 13514.684979199999, "Comments": null, "ECMLink": null, "FSource": "Derived from field observations and aerial imagery.", "SourceDate": "2026-02-04T00:00:00Z", "PlanAccur": null, "Supplier": "Stantec Australia Pty Ltd (3045)", "Shape_Length": 651.40996082146341, "Shape_Area": 13514.684979199266 }, "geometry": { "type": "MultiPolygon", "coordinates": [ [ [ [ 150.573999857507999, -35.022479303935164 ], [ 150.573856411179463, -35.022320657396953 ], [ 150.57378978627014, -35.022263550283789 ], [ 150.573704124985113, -35.022215961293099 ], [ 150.573523286438785, -35.022196925019706 ], [ 150.573256787087075, -35.022225479219898 ], [ 150.573056912307806, -35.022225478880856 ], [ 150.572942698077355, -35.022206443382522 ], [ 150.572733305529653, -35.022111264947732 ], [ 150.572657162761942, -35.022092229333722 ], [ 150.572476323118451, -35.022111264753057 ], [ 150.572400181144559, -35.02206367517082 ], [ 150.572333584533368, -35.021978495403538 ], [ 150.575065506295573, -35.021821746612737 ], [ 150.575416005793414, -35.02180163305465 ], [ 150.575385893309942, -35.02193797598256 ], [ 150.575362099580047, -35.022039103350245 ], [ 150.575332355738681, -35.022152128267571 ], [ 150.575314509960151, -35.022271100894649 ], [ 150.575314509717316, -35.02239007418769 ], [ 150.575266920948735, -35.022473354645378 ], [ 150.575165793259828, -35.022503098683487 ], [ 150.575094410282304, -35.022509047333799 ], [ 150.574910001724106, -35.022503098590342 ], [ 150.574791028914632, -35.022509046571869 ], [ 150.574630414851669, -35.022509046860293 ], [ 150.574547133478347, -35.022526892752943 ], [ 150.574434109223176, -35.022526893393398 ], [ 150.574303239355743, -35.022526893108122 ], [ 150.574148573679992, -35.022497149862573 ], [ 150.573999857507999, -35.022479303935164 ] ] ] ] } },
{ "type": "Feature", "properties": { "OBJECTID_1": 86, "OBJECTID": 0, "Zone_ID": "5", "CONDITION": "Good", "EasternPCT": "3273", "E_PCT_Name": "South Coast Lowland Shrub-Grass Forest", "VEG_CLASS": "Southern Lowland Wet Sclerophyll Forests", "BC_Act": " ", "EPBC_Act": " ", "Area_ha": 0.55616673462300004, "Area_m2": 5561.6673462299996, "Comments": null, "ECMLink": null, "FSource": "Derived from field observations and aerial imagery.", "SourceDate": "2026-02-04T00:00:00Z", "PlanAccur": null, "Supplier": "Stantec Australia Pty Ltd (3045)", "Shape_Length": 423.24541572719312, "Shape_Area": 5561.6673462259441 }, "geometry": { "type": "MultiPolygon", "coordinates": [ [ [ [ 150.573999857507999, -35.022479303935164 ], [ 150.573815450077575, -35.022449560342316 ], [ 150.573702425002892, -35.022473355295524 ], [ 150.573541811597522, -35.022467406303576 ], [ 150.573404993074575, -35.022449560582913 ], [ 150.573268174101145, -35.022449560053943 ], [ 150.57309566277965, -35.022449560059201 ], [ 150.57295289453171, -35.022449560027937 ], [ 150.572792281679511, -35.022461458111117 ], [ 150.572655462525347, -35.022485252790787 ], [ 150.572619770094263, -35.022497149937571 ], [ 150.572512695124004, -35.022509047258758 ], [ 150.572369927166932, -35.022526892795014 ], [ 150.5723223377083, -35.022544738466813 ], [ 150.572207667763053, -35.022546287958079 ], [ 150.572202006765309, -35.022510126966885 ], [ 150.572120691266122, -35.021990708298922 ], [ 150.572317332171622, -35.021979427645107 ], [ 150.572333584533368, -35.021978495403538 ], [ 150.572400181144559, -35.02206367517082 ], [ 150.572476323118451, -35.022111264753057 ], [ 150.572657162761942, -35.022092229333722 ], [ 150.572733305529653, -35.022111264947732 ], [ 150.572942698077355, -35.022206443382522 ], [ 150.573056912307806, -35.022225478880856 ], [ 150.573256787087075, -35.022225479219898 ], [ 150.573523286438785, -35.022196925019706 ], [ 150.573704124985113, -35.022215961293099 ], [ 150.57378978627014, -35.022263550283789 ], [ 150.573856411179463, -35.022320657396953 ], [ 150.573999857507999, -35.022479303935164 ] ] ] ] } },
{ "type": "Feature", "properties": { "OBJECTID_1": 100, "OBJECTID": 0, "Zone_ID": "5", "CONDITION": "Good", "EasternPCT": "3273", "E_PCT_Name": "South Coast Lowland Shrub-Grass Forest", "VEG_CLASS": "Southern Lowland Wet Sclerophyll Forests", "BC_Act": "-", "EPBC_Act": "-", "Area_ha": 0.024838461822500001, "Area_m2": 248.384618225, "Comments": null, "ECMLink": null, "FSource": "Derived from field observations and aerial imagery.", "SourceDate": "2026-02-04T00:00:00Z", "PlanAccur": null, "Supplier": "Stantec Australia Pty Ltd (3045)", "Shape_Length": 109.01566364792207, "Shape_Area": 248.38461230250738 }, "geometry": { "type": "MultiPolygon", "coordinates": [ [ [ [ 150.578974093131905, -35.018843966406145 ], [ 150.579083406453577, -35.0188600929812 ], [ 150.578888787687987, -35.019280023787232 ], [ 150.578924231534472, -35.019098845512119 ], [ 150.578974093131905, -35.018843966406145 ] ] ] ] } }
]
}
