{
"type": "FeatureCollection",
"name": "JBR2HR_EasternPCT_3330",
"crs": { "type": "name", "properties": { "name": "urn:ogc:def:crs:OGC:1.3:CRS84" } },
"xy_coordinate_resolution": 1e-15,
"features": [
{ "type": "Feature", "properties": { "OBJECTID_1": 1, "OBJECTID": 6, "Zone_ID": "6", "CONDITION": "Moderate", "EasternPCT": "3330", "E_PCT_Name": "South Coast Lowland Woollybutt Grassy Forest", "VEG_CLASS": "Coastal Valley Grassy Woodland", "BC_Act": "E - Illawarra Lowlands Grassy Woodland in the Sydney Basin Bioregion", "EPBC_Act": "CE - Illawarra and south coast lowland forest and woodland ecological community", "Area_ha": 0.032881653290100003, "Area_m2": 328.81653290100002, "Comments": null, "ECMLink": null, "FSource": "Derived from field observations and aerial imagery.", "SourceDate": "2026-02-04T00:00:00Z", "PlanAccur": null, "Supplier": "Stantec Australia Pty Ltd (3045)", "Shape_Length": 67.829748143010633, "Shape_Area": 328.81653290103412 }, "geometry": { "type": "MultiPolygon", "coordinates": [ [ [ [ 150.585203445791024, -34.986841365989129 ], [ 150.585191548087124, -34.986787828020447 ], [ 150.585191548507368, -34.986752136138385 ], [ 150.585203445469062, -34.986728341512659 ], [ 150.585256983049305, -34.986698598286573 ], [ 150.585286726369105, -34.986698598807266 ], [ 150.585310521057465, -34.986728342131833 ], [ 150.585346213679742, -34.986746187527082 ], [ 150.585387853985452, -34.986775930769433 ], [ 150.585399751485397, -34.986865160609433 ], [ 150.585370007731484, -34.986900852899574 ], [ 150.58532836749032, -34.98691275034151 ], [ 150.585239137531119, -34.986888955391834 ], [ 150.585203445791024, -34.986841365989129 ] ] ] ] } },
{ "type": "Feature", "properties": { "OBJECTID_1": 2, "OBJECTID": 7, "Zone_ID": "6", "CONDITION": "Moderate", "EasternPCT": "3330", "E_PCT_Name": "South Coast Lowland Woollybutt Grassy Forest", "VEG_CLASS": "Coastal Valley Grassy Woodland", "BC_Act": "E - Illawarra Lowlands Grassy Woodland in the Sydney Basin Bioregion", "EPBC_Act": "CE - Illawarra and south coast lowland forest and woodland ecological community", "Area_ha": 0.10454297274, "Area_m2": 1045.4297274, "Comments": null, "ECMLink": null, "FSource": "Derived from field observations and aerial imagery.", "SourceDate": "2026-02-04T00:00:00Z", "PlanAccur": null, "Supplier": "Stantec Australia Pty Ltd (3045)", "Shape_Length": 168.58662587017406, "Shape_Area": 1045.4297274037547 }, "geometry": { "type": "MultiPolygon", "coordinates": [ [ [ [ 150.584703759059352, -34.987192336979597 ], [ 150.584727553832806, -34.98715069664852 ], [ 150.584787040137797, -34.987126901850353 ], [ 150.584804886152483, -34.987073363595954 ], [ 150.584816783421246, -34.987007928334997 ], [ 150.584834628913541, -34.98694844216751 ], [ 150.584888167153906, -34.986894903931926 ], [ 150.584947653951673, -34.986894904251777 ], [ 150.584995242612109, -34.986918699123237 ], [ 150.585036882867144, -34.986948442483744 ], [ 150.58508447286485, -34.987001979536402 ], [ 150.585084472688635, -34.987055517815939 ], [ 150.585114215536834, -34.987103106955658 ], [ 150.585167753459586, -34.987156645156873 ], [ 150.585203445258315, -34.987162593884761 ], [ 150.585227239860728, -34.987162593232391 ], [ 150.585280778513862, -34.987210182601672 ], [ 150.585280777643106, -34.987239925674956 ], [ 150.585262932653649, -34.987275617629358 ], [ 150.585233188951463, -34.987287515588925 ], [ 150.585167754035666, -34.987287515123946 ], [ 150.585138010467546, -34.98724587478042 ], [ 150.585066626498616, -34.987216131774261 ], [ 150.585019037648692, -34.987192336924004 ], [ 150.58501308906628, -34.987168542337166 ], [ 150.584911961996767, -34.987156645048813 ], [ 150.58485842436707, -34.987162593820919 ], [ 150.58485247467695, -34.987210182975865 ], [ 150.584834629272081, -34.987228028462084 ], [ 150.584787039853808, -34.987239926296709 ], [ 150.584751348498344, -34.987239926252528 ], [ 150.584721605184967, -34.987228028902749 ], [ 150.584703759059352, -34.987192336979597 ] ] ] ] } },
{ "type": "Feature", "properties": { "OBJECTID_1": 3, "OBJECTID": 8, "Zone_ID": "6", "CONDITION": "Moderate", "EasternPCT": "3330", "E_PCT_Name": "South Coast Lowland Woollybutt Grassy Forest", "VEG_CLASS": "Coastal Valley Grassy Woodland", "BC_Act": "E - Illawarra Lowlands Grassy Woodland in the Sydney Basin Bioregion", "EPBC_Act": "CE - Illawarra and south coast lowland forest and woodland ecological community", "Area_ha": 0.16332679168799999, "Area_m2": 1633.26791688, "Comments": null, "ECMLink": null, "FSource": "Derived from field observations and aerial imagery.", "SourceDate": "2026-02-04T00:00:00Z", "PlanAccur": null, "Supplier": "Stantec Australia Pty Ltd (3045)", "Shape_Length": 195.43979841207991, "Shape_Area": 1633.2680415508437 }, "geometry": { "type": "MultiPolygon", "coordinates": [ [ [ [ 150.585336520279299, -34.987405289016671 ], [ 150.585322280600366, -34.987475898130512 ], [ 150.585432073450846, -34.987490894594764 ], [ 150.5853941373054, -34.98764111694922 ], [ 150.585328367539375, -34.987638485723856 ], [ 150.585262931986136, -34.987620639799069 ], [ 150.585179651618233, -34.987573050806319 ], [ 150.585120164488671, -34.987561152987766 ], [ 150.585013088374012, -34.987596844953579 ], [ 150.584923858493994, -34.987596844952186 ], [ 150.584804886259889, -34.987584947572451 ], [ 150.584733501699759, -34.987549255558619 ], [ 150.584674015735516, -34.987507615362453 ], [ 150.584584786277304, -34.987436231358615 ], [ 150.584596682641575, -34.987400540095514 ], [ 150.584626426039222, -34.987382693491838 ], [ 150.584715655896531, -34.98737079611216 ], [ 150.58478704021411, -34.987347001956579 ], [ 150.584864372863194, -34.987358899040146 ], [ 150.584953602482045, -34.987358899074778 ], [ 150.585042832280379, -34.98734700145134 ], [ 150.585132062360316, -34.987352950161508 ], [ 150.585155856847109, -34.987406488704949 ], [ 150.585251034984907, -34.987400540011478 ], [ 150.585336520279299, -34.987405289016671 ] ] ] ] } },
{ "type": "Feature", "properties": { "OBJECTID_1": 4, "OBJECTID": 9, "Zone_ID": "6", "CONDITION": "Moderate", "EasternPCT": "3330", "E_PCT_Name": "South Coast Lowland Woollybutt Grassy Forest", "VEG_CLASS": "Coastal Valley Grassy Woodland", "BC_Act": "E - Illawarra Lowlands Grassy Woodland in the Sydney Basin Bioregion", "EPBC_Act": "CE - Illawarra and south coast lowland forest and woodland ecological community", "Area_ha": 0.25564258748000002, "Area_m2": 2556.4258748000002, "Comments": null, "ECMLink": null, "FSource": "Derived from field observations and aerial imagery.", "SourceDate": "2026-02-04T00:00:00Z", "PlanAccur": null, "Supplier": "Stantec Australia Pty Ltd (3045)", "Shape_Length": 501.3579874569233, "Shape_Area": 2556.4258747988333 }, "geometry": { "type": "MultiPolygon", "coordinates": [ [ [ [ 150.583924485314185, -34.989250570439701 ], [ 150.583891370238888, -34.989352258457579 ], [ 150.583826418759315, -34.989342577870033 ], [ 150.583975353419078, -34.988665841076802 ], [ 150.584124278731565, -34.987989103801048 ], [ 150.584268355326202, -34.987334391759731 ], [ 150.584297305419909, -34.987243364381087 ], [ 150.584382531379532, -34.987251822946511 ], [ 150.584430120478999, -34.987281566845581 ], [ 150.584459863873803, -34.987341052841892 ], [ 150.584459864214921, -34.987376744729644 ], [ 150.584436069975055, -34.987382694034203 ], [ 150.584352788343068, -34.987400539424215 ], [ 150.584323045315699, -34.987471923334873 ], [ 150.584317095964337, -34.987561153136809 ], [ 150.584340890524459, -34.987638486115735 ], [ 150.584305198704556, -34.987745561561049 ], [ 150.5843051992303, -34.987816945326529 ], [ 150.58428735269257, -34.987918072049432 ], [ 150.584245712629325, -34.988007302556888 ], [ 150.584245712818785, -34.988090583002929 ], [ 150.584221918394434, -34.988161967210587 ], [ 150.584174328940833, -34.988215505459429 ], [ 150.584150534126081, -34.988298786332265 ], [ 150.584150533752393, -34.988441553817836 ], [ 150.584150534005687, -34.988495092082786 ], [ 150.584120790607415, -34.988620013270967 ], [ 150.584091047732016, -34.988721140178107 ], [ 150.584061304879071, -34.988857959847124 ], [ 150.584007766745259, -34.988959086225158 ], [ 150.584007766545199, -34.989024522065471 ], [ 150.583954229046412, -34.989173237883996 ], [ 150.583924485314185, -34.989250570439701 ] ] ] ] } },
{ "type": "Feature", "properties": { "OBJECTID_1": 6, "OBJECTID": 11, "Zone_ID": "6", "CONDITION": "Moderate", "EasternPCT": "3330", "E_PCT_Name": "South Coast Lowland Woollybutt Grassy Forest", "VEG_CLASS": "Coastal Valley Grassy Woodland", "BC_Act": "E - Illawarra Lowlands Grassy Woodland in the Sydney Basin Bioregion", "EPBC_Act": "CE - Illawarra and south coast lowland forest and woodland ecological community", "Area_ha": 2.1308956489200002, "Area_m2": 21308.956489200002, "Comments": null, "ECMLink": null, "FSource": "Derived from field observations and aerial imagery.", "SourceDate": "2026-02-04T00:00:00Z", "PlanAccur": null, "Supplier": "Stantec Australia Pty Ltd (3045)", "Shape_Length": 974.68636568523266, "Shape_Area": 21308.956832560223 }, "geometry": { "type": "MultiPolygon", "coordinates": [ [ [ [ 150.586952349042633, -34.988376118541943 ], [ 150.587093227529152, -34.988392105814718 ], [ 150.587068311565901, -34.988336718046234 ], [ 150.587077274019634, -34.988334477623511 ], [ 150.587095117750238, -34.988280939870869 ], [ 150.587032353656525, -34.988256800757185 ], [ 150.587009772772973, -34.98820661041114 ], [ 150.586993184730346, -34.988169738557538 ], [ 150.586800634717434, -34.987741750635927 ], [ 150.586812516192737, -34.987686540213595 ], [ 150.586876037224044, -34.987393523082233 ], [ 150.587041353763766, -34.987121638630853 ], [ 150.587047527652203, -34.987120952781417 ], [ 150.587101065946342, -34.987091209648916 ], [ 150.587196244267062, -34.987049569315573 ], [ 150.587315217885021, -34.987067414970447 ], [ 150.587380652668656, -34.9870674151705 ], [ 150.587380652443414, -34.987013876851883 ], [ 150.587398499022271, -34.986930595983772 ], [ 150.587457985510895, -34.986906801660297 ], [ 150.58751152295639, -34.986942493342113 ], [ 150.587559111928556, -34.987001980040638 ], [ 150.587600752334737, -34.98701387703786 ], [ 150.587642392979262, -34.986978185411367 ], [ 150.587684034029621, -34.986936544975443 ], [ 150.587660239077536, -34.986883006884504 ], [ 150.587594804008631, -34.986859212525566 ], [ 150.587547214442907, -34.986793777027103 ], [ 150.58760075212237, -34.98675213694888 ], [ 150.587678085332101, -34.986769982850284 ], [ 150.587779212024031, -34.986817571537401 ], [ 150.587826801872865, -34.986805674323861 ], [ 150.587826801148481, -34.986769982395266 ], [ 150.587868441808581, -34.986746188291008 ], [ 150.587927592318039, -34.986688298852229 ], [ 150.588541164985486, -34.986777070112801 ], [ 150.588549068415233, -34.986778213384554 ], [ 150.588516710405656, -34.986925376336941 ], [ 150.588484295880221, -34.987072743687449 ], [ 150.588419488513949, -34.987367472466971 ], [ 150.588289844220412, -34.987957024825889 ], [ 150.588160200786774, -34.988546587794829 ], [ 150.588153325196856, -34.988579279972022 ], [ 150.588129434679331, -34.988687901029472 ], [ 150.588029055242885, -34.98867355113002 ], [ 150.587975517332183, -34.988625962045234 ], [ 150.587910082382336, -34.988625962137398 ], [ 150.587826801448955, -34.988655705715679 ], [ 150.587761366273241, -34.988643808120507 ], [ 150.587713777364741, -34.988584321493114 ], [ 150.587624546850094, -34.98854862973964 ], [ 150.587541266648344, -34.988554577932945 ], [ 150.587475830841043, -34.988566475375947 ], [ 150.587380653021995, -34.98856647519483 ], [ 150.587309268163779, -34.98853673255573 ], [ 150.587184347467911, -34.988536732191974 ], [ 150.587118911493576, -34.988536732739298 ], [ 150.587017785080377, -34.988518886580003 ], [ 150.586934503088912, -34.988506988822138 ], [ 150.586934503095421, -34.988441553826263 ], [ 150.586952349042633, -34.988376118541943 ] ], [ [ 150.587576957777657, -34.987929970179096 ], [ 150.587642392894878, -34.987876431947257 ], [ 150.587737571905791, -34.987864534326569 ], [ 150.587808955680629, -34.987888328785253 ], [ 150.587874390701899, -34.987894277538707 ], [ 150.587945774707265, -34.987900226418425 ], [ 150.588017158052821, -34.987900226441177 ], [ 150.588082592976008, -34.987876431971657 ], [ 150.588094491200451, -34.987840740373791 ], [ 150.588082593156713, -34.98776340743855 ], [ 150.588017158277637, -34.987709869286562 ], [ 150.587927928784438, -34.987686075393746 ], [ 150.587862493205449, -34.987644434751047 ], [ 150.587797057941287, -34.987614690782763 ], [ 150.587731622892875, -34.987537359073933 ], [ 150.587660239468562, -34.987513563680835 ], [ 150.58754126653659, -34.987448128853011 ], [ 150.587475831444408, -34.98744812872728 ], [ 150.587404446593666, -34.987430282860878 ], [ 150.587303319742603, -34.987448128862013 ], [ 150.587243833096579, -34.987495718300231 ], [ 150.587160552377981, -34.987507615045047 ], [ 150.587107015039862, -34.987549255817775 ], [ 150.587142706825063, -34.987573050382984 ], [ 150.587172450138382, -34.987590896850044 ], [ 150.587225987263764, -34.98762063985405 ], [ 150.587202192482238, -34.987662280696661 ], [ 150.58717244935832, -34.987709869247212 ], [ 150.587136758031988, -34.987733664204065 ], [ 150.587142706448731, -34.987781252996832 ], [ 150.587172449764921, -34.987840740169084 ], [ 150.587273576657708, -34.987870482894081 ], [ 150.587309268776124, -34.987906175021564 ], [ 150.587368754943924, -34.987924021459598 ], [ 150.587440139217676, -34.987912124239074 ], [ 150.587511522582162, -34.987912123658937 ], [ 150.587576957777657, -34.987929970179096 ] ] ] ] } },
{ "type": "Feature", "properties": { "OBJECTID_1": 7, "OBJECTID": 15, "Zone_ID": "6", "CONDITION": "Moderate", "EasternPCT": "3330", "E_PCT_Name": "South Coast Lowland Woollybutt Grassy Forest", "VEG_CLASS": "Coastal Valley Grassy Woodland", "BC_Act": "E - Illawarra Lowlands Grassy Woodland in the Sydney Basin Bioregion", "EPBC_Act": "CE - Illawarra and south coast lowland forest and woodland ecological community", "Area_ha": 0.39313859460900002, "Area_m2": 3931.3859460899998, "Comments": null, "ECMLink": null, "FSource": "Derived from field observations and aerial imagery.", "SourceDate": "2026-02-04T00:00:00Z", "PlanAccur": null, "Supplier": "Stantec Australia Pty Ltd (3045)", "Shape_Length": 401.74422618788299, "Shape_Area": 3931.3859456239397 }, "geometry": { "type": "MultiPolygon", "coordinates": [ [ [ [ 150.586461262416861, -34.988972196125559 ], [ 150.586486012129626, -34.988856179752815 ], [ 150.586500252468085, -34.988857959436125 ], [ 150.586619224598621, -34.988857959394707 ], [ 150.586690608283675, -34.988875805719516 ], [ 150.586767941586402, -34.98888770253545 ], [ 150.586886914010023, -34.988923395034746 ], [ 150.586988041408631, -34.988935291630604 ], [ 150.587041579580102, -34.988935291651444 ], [ 150.587071322454307, -34.988857959147857 ], [ 150.587071322579959, -34.988816319354576 ], [ 150.587065373850066, -34.988733037758799 ], [ 150.587112962849346, -34.988679500138701 ], [ 150.587184346869151, -34.988679499778307 ], [ 150.587255730677498, -34.988709243372682 ], [ 150.58731521709467, -34.988744935351214 ], [ 150.587362806737985, -34.988792524543868 ], [ 150.587428241206453, -34.988828216641338 ], [ 150.587511522419589, -34.988869857152856 ], [ 150.587594803995728, -34.988893651214177 ], [ 150.587678084694488, -34.988929343704541 ], [ 150.587725673833944, -34.9889293432458 ], [ 150.58776731500339, -34.988899600415991 ], [ 150.587767315248243, -34.988852010915657 ], [ 150.587725674365998, -34.988804422045902 ], [ 150.587731623261902, -34.988733037508531 ], [ 150.587832750323059, -34.988733037591246 ], [ 150.58791008298769, -34.988738986667933 ], [ 150.587927928694967, -34.988804421243138 ], [ 150.587921979731846, -34.988863908189437 ], [ 150.587927928393043, -34.988899600251742 ], [ 150.587969569610607, -34.988929343559661 ], [ 150.587987415563788, -34.988976932629399 ], [ 150.587987415442115, -34.989024522134038 ], [ 150.587987414915887, -34.989078059529852 ], [ 150.588035588058148, -34.989114595423167 ], [ 150.588023655192529, -34.989168851190726 ], [ 150.587975517691262, -34.989202981337222 ], [ 150.587886288177742, -34.989202981686219 ], [ 150.587808955523684, -34.989191083785229 ], [ 150.587684033653233, -34.989149443190939 ], [ 150.587559112002253, -34.9891494431753 ], [ 150.5874222929707, -34.989125649267848 ], [ 150.587309268396126, -34.989125649354669 ], [ 150.58723788462143, -34.989131597683865 ], [ 150.58714270688705, -34.989095905407069 ], [ 150.587047527917605, -34.989036418735509 ], [ 150.586934503376511, -34.98902452177839 ], [ 150.586803633308222, -34.989006676191146 ], [ 150.586738198010863, -34.988994778940111 ], [ 150.586637071182679, -34.98898883004388 ], [ 150.586518097742811, -34.988976932475097 ], [ 150.586461262416861, -34.988972196125559 ] ] ] ] } },
{ "type": "Feature", "properties": { "OBJECTID_1": 8, "OBJECTID": 17, "Zone_ID": "6", "CONDITION": "Moderate", "EasternPCT": "3330", "E_PCT_Name": "South Coast Lowland Woollybutt Grassy Forest", "VEG_CLASS": "Coastal Valley Grassy Woodland", "BC_Act": "E - Illawarra Lowlands Grassy Woodland in the Sydney Basin Bioregion", "EPBC_Act": "CE - Illawarra and south coast lowland forest and woodland ecological community", "Area_ha": 0.74233692666100004, "Area_m2": 7423.3692666099996, "Comments": null, "ECMLink": null, "FSource": "Derived from field observations and aerial imagery.", "SourceDate": "2026-02-04T00:00:00Z", "PlanAccur": null, "Supplier": "Stantec Australia Pty Ltd (3045)", "Shape_Length": 374.79398713380306, "Shape_Area": 7423.3692666068082 }, "geometry": { "type": "MultiPolygon", "coordinates": [ [ [ [ 150.587077455219088, -34.990248671294751 ], [ 150.587077271538277, -34.990178560341619 ], [ 150.587041579278804, -34.990095279548576 ], [ 150.586993990357968, -34.989994151953425 ], [ 150.58694640042674, -34.989893025222017 ], [ 150.58694640084056, -34.989797846252159 ], [ 150.586993989783394, -34.989714565606484 ], [ 150.5870415790545, -34.989678873535624 ], [ 150.58710701400932, -34.9896491299342 ], [ 150.587178398852927, -34.98959559222007 ], [ 150.587190295193523, -34.989524208800177 ], [ 150.587196244498301, -34.989440927617423 ], [ 150.587190295525915, -34.989399286721877 ], [ 150.587202193444654, -34.989375491923333 ], [ 150.587237884983892, -34.989357646672318 ], [ 150.587356857547576, -34.989375492329522 ], [ 150.587422293076656, -34.989375492560178 ], [ 150.587469881841969, -34.989369543399903 ], [ 150.587517471835184, -34.989375492746781 ], [ 150.587600752822482, -34.98939928680138 ], [ 150.587636445074935, -34.98942903004432 ], [ 150.587701879258134, -34.98947661959874 ], [ 150.587767315306507, -34.989500413954879 ], [ 150.587803007027475, -34.989464722138621 ], [ 150.587844647156089, -34.989452824768769 ], [ 150.587874391031306, -34.98939928728381 ], [ 150.587898185378378, -34.989351697513079 ], [ 150.587989314047576, -34.989324989195474 ], [ 150.587893984413398, -34.989758414056027 ], [ 150.587764304720025, -34.990347984632578 ], [ 150.587761773019793, -34.990347618787645 ], [ 150.587144920739377, -34.990258425394011 ], [ 150.587077455219088, -34.990248671294751 ] ] ] ] } },
{ "type": "Feature", "properties": { "OBJECTID_1": 101, "OBJECTID": 5, "Zone_ID": "6", "CONDITION": "Moderate", "EasternPCT": "3330", "E_PCT_Name": "South Coast Lowland Woollybutt Grassy Forest", "VEG_CLASS": "Coastal Valley Grassy Woodland", "BC_Act": "E - Illawarra Lowlands Grassy Woodland in the Sydney Basin Bioregion", "EPBC_Act": "CE - Illawarra and south coast lowland forest and woodland ecological community", "Area_ha": 0.4535488892, "Area_m2": 4535.488892, "Comments": null, "ECMLink": null, "FSource": "Derived from field observations and aerial imagery.", "SourceDate": "2026-02-04T00:00:00Z", "PlanAccur": null, "Supplier": "Stantec Australia Pty Ltd (3045)", "Shape_Length": 552.78620352915948, "Shape_Area": 4535.4892980699433 }, "geometry": { "type": "MultiPolygon", "coordinates": [ [ [ [ 150.585958209290766, -34.986473229246506 ], [ 150.585947590932875, -34.986519359868289 ], [ 150.585861391618181, -34.98689373640611 ], [ 150.585726434596012, -34.987040762066691 ], [ 150.58566762505265, -34.987339234214495 ], [ 150.585445208042728, -34.987308910333368 ], [ 150.585399751031588, -34.987257772301852 ], [ 150.585358110744949, -34.987204233866564 ], [ 150.585358110978149, -34.987126901292562 ], [ 150.585328367250924, -34.987043620302025 ], [ 150.585340264453492, -34.986996031375384 ], [ 150.585387854243265, -34.986978185428484 ], [ 150.585435442714356, -34.986984133730097 ], [ 150.585524673233977, -34.987025774946225 ], [ 150.585554416261374, -34.987085260683102 ], [ 150.585548467874531, -34.987156645102736 ], [ 150.585548467598784, -34.987192336988954 ], [ 150.585596057047013, -34.9872339771415 ], [ 150.58566744085158, -34.987233977644642 ], [ 150.585697184313403, -34.987156644584964 ], [ 150.585667440955575, -34.98704362058379 ], [ 150.585637697293919, -34.986990082757998 ], [ 150.585596057220783, -34.986900852513024 ], [ 150.585548467030037, -34.986835418052792 ], [ 150.585506827226993, -34.986734290185993 ], [ 150.585483032154798, -34.986674803796554 ], [ 150.585459237416273, -34.986645060503697 ], [ 150.58541164902195, -34.986651009814899 ], [ 150.585358110193283, -34.986651009091581 ], [ 150.585304572555657, -34.986585574284305 ], [ 150.585274829283776, -34.986532036382222 ], [ 150.585209394279588, -34.986496344058686 ], [ 150.58516775430104, -34.986454704068393 ], [ 150.585090421371547, -34.986442806286838 ], [ 150.585066626374754, -34.986490395495515 ], [ 150.585060677971455, -34.986537984694188 ], [ 150.585019037391163, -34.986543934129429 ], [ 150.584953602099944, -34.986573676644461 ], [ 150.58495360197341, -34.986656958016852 ], [ 150.584989293668229, -34.986692649891957 ], [ 150.585042831717004, -34.986752136945057 ], [ 150.585084472236389, -34.986799725787677 ], [ 150.585060678046517, -34.986859212603513 ], [ 150.585013088763986, -34.986841366543835 ], [ 150.584947653643695, -34.98680567407532 ], [ 150.584906012849558, -34.986781879473249 ], [ 150.58487032087487, -34.986728342075281 ], [ 150.584852474697982, -34.986662907081922 ], [ 150.584864372963978, -34.986526088053509 ], [ 150.584876270272048, -34.986448755183126 ], [ 150.584888167174427, -34.986395217496231 ], [ 150.584894116115009, -34.986353577116247 ], [ 150.584904243778823, -34.986312981771675 ], [ 150.585061131734449, -34.986334431944385 ], [ 150.585061190663595, -34.986334439427445 ], [ 150.585736781156243, -34.986426804630675 ], [ 150.585848846025414, -34.986440181781916 ], [ 150.585845280816642, -34.986457218046645 ], [ 150.585958209290766, -34.986473229246506 ] ] ] ] } },
{ "type": "Feature", "properties": { "OBJECTID_1": 103, "OBJECTID": 15, "Zone_ID": "6", "CONDITION": "Moderate", "EasternPCT": "3330", "E_PCT_Name": "South Coast Lowland Woollybutt Grassy Forest", "VEG_CLASS": "Coastal Valley Grassy Woodland", "BC_Act": "E - Illawarra Lowlands Grassy Woodland in the Sydney Basin Bioregion", "EPBC_Act": "CE - Illawarra and south coast lowland forest and woodland ecological community", "Area_ha": 0.041732005688599999, "Area_m2": 417.32005688599997, "Comments": null, "ECMLink": null, "FSource": "Derived from field observations and aerial imagery.", "SourceDate": "2026-02-04T00:00:00Z", "PlanAccur": null, "Supplier": "Stantec Australia Pty Ltd (3045)", "Shape_Length": 78.987649976234167, "Shape_Area": 417.31996871304648 }, "geometry": { "type": "MultiPolygon", "coordinates": [ [ [ [ 150.586522201502703, -34.988686542510642 ], [ 150.586552523475831, -34.988544407782321 ], [ 150.586607327492089, -34.988560527107701 ], [ 150.586696557812843, -34.988542681303976 ], [ 150.586750095230428, -34.988548629331405 ], [ 150.586803632795068, -34.988578372536786 ], [ 150.586815530723811, -34.988643807965033 ], [ 150.586785786965464, -34.988691397291085 ], [ 150.586684660681726, -34.988721140347458 ], [ 150.586607327549615, -34.988709243484983 ], [ 150.586522201502703, -34.988686542510642 ] ] ] ] } },
{ "type": "Feature", "properties": { "OBJECTID_1": 104, "OBJECTID": 16, "Zone_ID": "6", "CONDITION": "Moderate", "EasternPCT": "3330", "E_PCT_Name": "South Coast Lowland Woollybutt Grassy Forest", "VEG_CLASS": "Coastal Valley Grassy Woodland", "BC_Act": "E - Illawarra Lowlands Grassy Woodland in the Sydney Basin Bioregion", "EPBC_Act": "CE - Illawarra and south coast lowland forest and woodland ecological community", "Area_ha": 0.16951977556299999, "Area_m2": 1695.1977556300001, "Comments": null, "ECMLink": null, "FSource": "Derived from field observations and aerial imagery.", "SourceDate": "2026-02-04T00:00:00Z", "PlanAccur": null, "Supplier": "Stantec Australia Pty Ltd (3045)", "Shape_Length": 232.44190404521797, "Shape_Area": 1695.1978563559258 }, "geometry": { "type": "MultiPolygon", "coordinates": [ [ [ [ 150.586352404014207, -34.989482478478479 ], [ 150.586416971103347, -34.989500413846272 ], [ 150.586500252449611, -34.989542054154001 ], [ 150.586506200554084, -34.989601541453368 ], [ 150.586411022684786, -34.989637233273477 ], [ 150.586345586960164, -34.989625335793569 ], [ 150.586303946000072, -34.989595592841617 ], [ 150.586226613778791, -34.989589643636073 ], [ 150.586161178589151, -34.989607490057615 ], [ 150.586119538567544, -34.989672925121972 ], [ 150.586066000110264, -34.989785949127501 ], [ 150.586036257342499, -34.989916819625066 ], [ 150.586006513615899, -34.989988203922309 ], [ 150.585941079115457, -34.990017946922926 ], [ 150.585845900304719, -34.990000100892921 ], [ 150.585768567481068, -34.989952511600421 ], [ 150.585762618527468, -34.989928717043227 ], [ 150.585756670265738, -34.989887076108559 ], [ 150.585774515836619, -34.98982758982627 ], [ 150.585789694061873, -34.989721346237481 ], [ 150.58586314716436, -34.989734244599653 ], [ 150.585919515185424, -34.989472625556736 ], [ 150.586341498714688, -34.989533595743609 ], [ 150.586352404014207, -34.989482478478479 ] ] ] ] } }
]
}
