{
"type": "FeatureCollection",
"name": "JBR2HR_EasternPCT_3271",
"crs": { "type": "name", "properties": { "name": "urn:ogc:def:crs:OGC:1.3:CRS84" } },
"xy_coordinate_resolution": 1e-15,
"features": [
{ "type": "Feature", "properties": { "OBJECTID_1": 42, "OBJECTID": 53, "Zone_ID": "3", "CONDITION": "Good", "EasternPCT": "3271", "E_PCT_Name": "Shoalhaven Spotted Gum-Blackbutt Moist Forest", "VEG_CLASS": "Southern Lowland Wet Sclerophyll Forests", "BC_Act": "-", "EPBC_Act": "-", "Area_ha": 13.8633988738, "Area_m2": 138633.98873799999, "Comments": null, "ECMLink": null, "FSource": "Derived from field observations and aerial imagery.", "SourceDate": "2026-02-04T00:00:00Z", "PlanAccur": null, "Supplier": "Stantec Australia Pty Ltd (3045)", "Shape_Length": 1721.1161512948067, "Shape_Area": 138633.98873806719 }, "geometry": { "type": "MultiPolygon", "coordinates": [ [ [ [ 150.577232950038137, -35.023065245624323 ], [ 150.577274590713699, -35.023094989135352 ], [ 150.577351923144391, -35.023094989610648 ], [ 150.57743972527507, -35.023088380483927 ], [ 150.577525001620955, -35.023087781385485 ], [ 150.577626128291996, -35.023081833092085 ], [ 150.577762948062571, -35.023093729856136 ], [ 150.57782838294591, -35.023093730408611 ], [ 150.577941407182237, -35.023087781462777 ], [ 150.578066328542747, -35.023093730409855 ], [ 150.578179353676717, -35.023093730018196 ], [ 150.578262634538163, -35.023087781835812 ], [ 150.578375658938597, -35.023075883727955 ], [ 150.578560067001149, -35.023081832623085 ], [ 150.578637399279813, -35.023129422349442 ], [ 150.578702835189119, -35.023177011624831 ], [ 150.578750423963925, -35.023236498186925 ], [ 150.578756372648968, -35.023349522572431 ], [ 150.578714731993784, -35.023420905762919 ], [ 150.578673092015947, -35.023545827782762 ], [ 150.578679039815569, -35.023646954629797 ], [ 150.578631450922273, -35.023748081824486 ], [ 150.578613605399426, -35.023813517081798 ], [ 150.578613604535178, -35.023884901268623 ], [ 150.578571964634875, -35.023991976963437 ], [ 150.578554118075829, -35.024051463428492 ], [ 150.578554118098083, -35.024128795486654 ], [ 150.578530323750215, -35.024206128469181 ], [ 150.578530323968948, -35.024313204320727 ], [ 150.578506529737155, -35.024384587637712 ], [ 150.578494631457744, -35.02451545804832 ], [ 150.578452991769012, -35.024634431203246 ], [ 150.578441094254032, -35.024735557827839 ], [ 150.578441093976721, -35.0248902228196 ], [ 150.57845894058147, -35.024985401380384 ], [ 150.578458940463577, -35.025098425969489 ], [ 150.57844109464861, -35.025193604060433 ], [ 150.57841729964565, -35.025312577387744 ], [ 150.578435145199478, -35.025443447569003 ], [ 150.578417299575875, -35.025598113224781 ], [ 150.578429196736664, -35.02572898362984 ], [ 150.578447043269023, -35.025865802580675 ], [ 150.578441093734398, -35.025972877705009 ], [ 150.578447043247905, -35.026044261679743 ], [ 150.578452991484596, -35.026157286023697 ], [ 150.578482734294226, -35.026282207886069 ], [ 150.578500580440618, -35.026401180545719 ], [ 150.578470837485838, -35.026561794490384 ], [ 150.578476785937738, -35.026668870074687 ], [ 150.578447043086044, -35.026716459442149 ], [ 150.578447043066717, -35.026752151077588 ], [ 150.57848273455275, -35.026805689441836 ], [ 150.578524374974961, -35.026883021700158 ], [ 150.578536273095466, -35.02702578961069 ], [ 150.57855411886402, -35.027162608516015 ], [ 150.578571964474435, -35.027269684535902 ], [ 150.57857791342127, -35.027364862606852 ], [ 150.578601707645703, -35.027471938393134 ], [ 150.578625502838435, -35.027584962949618 ], [ 150.578637399515316, -35.027709884546461 ], [ 150.578702835345354, -35.027805063011257 ], [ 150.578720681022389, -35.02788239522971 ], [ 150.578774218888356, -35.028013265743873 ], [ 150.578780166805217, -35.028114392536317 ], [ 150.578815858987156, -35.028209571210922 ], [ 150.578875346180553, -35.028286903559341 ], [ 150.578887242982773, -35.02838208225603 ], [ 150.578887243173199, -35.028495106811491 ], [ 150.577166101282586, -35.028148019006949 ], [ 150.577167089312439, -35.028152860669493 ], [ 150.576658663144201, -35.028070436089855 ], [ 150.576501732942177, -35.028044999045498 ], [ 150.575873948924169, -35.027943236772217 ], [ 150.575900452746595, -35.027859860186823 ], [ 150.575870709050861, -35.027752784023527 ], [ 150.575852863151795, -35.027687348938677 ], [ 150.575840965533615, -35.027592170895296 ], [ 150.575829068346536, -35.027491043205586 ], [ 150.575823119640177, -35.027407762575585 ], [ 150.575829068421598, -35.027318532111423 ], [ 150.575852862763952, -35.027211456906031 ], [ 150.575835017068783, -35.02711032930884 ], [ 150.575829068360662, -35.027027048675237 ], [ 150.575840965944309, -35.026931870264697 ], [ 150.575823119875224, -35.026854537664711 ], [ 150.575840965544103, -35.026765307899701 ], [ 150.575882605777394, -35.026717719015508 ], [ 150.575900452408575, -35.026664180870554 ], [ 150.575870708608221, -35.02659874596398 ], [ 150.575852862516484, -35.026557104978657 ], [ 150.575882606111833, -35.026467875024636 ], [ 150.575882605858936, -35.026366748028252 ], [ 150.575876657167782, -35.026247774872758 ], [ 150.575852863033276, -35.026200186143853 ], [ 150.57585286347981, -35.026140699526664 ], [ 150.57586476009638, -35.026057418585516 ], [ 150.575858812117133, -35.02598008580847 ], [ 150.575835017408139, -35.025890855794088 ], [ 150.575829068403152, -35.025777831377503 ], [ 150.575823120053116, -35.025724293601826 ], [ 150.575817171332488, -35.025676704571332 ], [ 150.575805274283709, -35.025575577763625 ], [ 150.575805274052641, -35.025492296115694 ], [ 150.575835017216747, -35.02542091240494 ], [ 150.575846914075498, -35.025331682707041 ], [ 150.57583501666781, -35.025236503742669 ], [ 150.575846914954752, -35.025141325316945 ], [ 150.5758469138853, -35.025069942055218 ], [ 150.575846914296648, -35.024974763807556 ], [ 150.575840965645284, -35.024873635991753 ], [ 150.575823119915412, -35.024742766404621 ], [ 150.575793376061483, -35.024689228082998 ], [ 150.575793376134982, -35.024599998578914 ], [ 150.575793376948468, -35.024498871580526 ], [ 150.575793376663597, -35.024415589919606 ], [ 150.575769581603453, -35.024356103647882 ], [ 150.575757684706986, -35.024254976825659 ], [ 150.575805274158228, -35.024171695318522 ], [ 150.575882606842697, -35.024130054576055 ], [ 150.575977784350187, -35.024106260613479 ], [ 150.576031322689118, -35.024100311819531 ], [ 150.576084860903961, -35.024058671371947 ], [ 150.576102706323042, -35.023993235629092 ], [ 150.576114603686619, -35.023904005887331 ], [ 150.576132449359903, -35.023832622289014 ], [ 150.576180038513883, -35.023666059840416 ], [ 150.576227627960321, -35.023529241148509 ], [ 150.576227628270374, -35.023445959479339 ], [ 150.576251422307877, -35.023368626975788 ], [ 150.576263319590879, -35.02325560308357 ], [ 150.576281165624408, -35.023172321946987 ], [ 150.576281166061591, -35.023065246153081 ], [ 150.576299012353672, -35.022976016259634 ], [ 150.57632280685317, -35.022946272889335 ], [ 150.576346600750981, -35.022785659570275 ], [ 150.576400138879364, -35.022726172683875 ], [ 150.576447728865901, -35.022726172574664 ], [ 150.576513163909141, -35.022738070446678 ], [ 150.576566701544664, -35.022791608045793 ], [ 150.576679725519227, -35.022827299759669 ], [ 150.576774904446296, -35.02285109431164 ], [ 150.576876031307393, -35.022904632410125 ], [ 150.576953363255853, -35.022934376010369 ], [ 150.577036644874681, -35.022981964794667 ], [ 150.577161566326339, -35.023029554170527 ], [ 150.577232950038137, -35.023065245624323 ] ] ] ] } },
{ "type": "Feature", "properties": { "OBJECTID_1": 49, "OBJECTID": 60, "Zone_ID": "3", "CONDITION": "Good", "EasternPCT": "3271", "E_PCT_Name": "Shoalhaven Spotted Gum-Blackbutt Moist Forest", "VEG_CLASS": "Southern Lowland Wet Sclerophyll Forests", "BC_Act": "-", "EPBC_Act": "-", "Area_ha": 0.73357947571899995, "Area_m2": 7335.7947571900004, "Comments": null, "ECMLink": null, "FSource": "Derived from field observations and aerial imagery.", "SourceDate": "2026-02-04T00:00:00Z", "PlanAccur": null, "Supplier": "Stantec Australia Pty Ltd (3045)", "Shape_Length": 419.80861635476043, "Shape_Area": 7335.7947571934365 }, "geometry": { "type": "MultiPolygon", "coordinates": [ [ [ [ 150.578532406228334, -35.029889272124251 ], [ 150.578478868493903, -35.029865478188242 ], [ 150.578478868607561, -35.029829785667999 ], [ 150.578478867683657, -35.029758402406934 ], [ 150.578484817086888, -35.029704864319946 ], [ 150.578550252065952, -35.029663223315886 ], [ 150.578615686739994, -35.029663223547608 ], [ 150.57867517379762, -35.029663223993211 ], [ 150.578722762933097, -35.029681069319167 ], [ 150.578776300799518, -35.029734607822505 ], [ 150.578823889757928, -35.029722710235987 ], [ 150.578823889649954, -35.02965132608248 ], [ 150.578823889756677, -35.029609685704955 ], [ 150.578835786949753, -35.029502610353497 ], [ 150.578907170605106, -35.029449072304082 ], [ 150.578966657242233, -35.029419328820723 ], [ 150.579002350017731, -35.029395534157409 ], [ 150.57903804134952, -35.029341996580762 ], [ 150.57912132292725, -35.029341996712738 ], [ 150.579192706055579, -35.02934199637231 ], [ 150.579275987498249, -35.029347945150569 ], [ 150.579359268956409, -35.029353893872063 ], [ 150.57939496074917, -35.029419328599985 ], [ 150.579454447443737, -35.02953235320372 ], [ 150.579484190416736, -35.02960968568118 ], [ 150.579537728514367, -35.029728659270965 ], [ 150.57956152292698, -35.029805991101277 ], [ 150.57959721457766, -35.029895220791786 ], [ 150.579662650255386, -35.030026091298332 ], [ 150.57969834175654, -35.030133167223745 ], [ 150.579805417728068, -35.030275935012867 ], [ 150.579870853019656, -35.030400856650203 ], [ 150.57991844186509, -35.030478189067217 ], [ 150.579918441665427, -35.030490086574055 ], [ 150.579876801577711, -35.030478189280615 ], [ 150.579799469011647, -35.03046034310357 ], [ 150.579686444682977, -35.030400856360409 ], [ 150.579591266423563, -35.030359215867541 ], [ 150.5794425497117, -35.030305678375427 ], [ 150.579335473504614, -35.030246191938623 ], [ 150.57921650107096, -35.030186705038943 ], [ 150.579079681950276, -35.030109372491623 ], [ 150.578942863344281, -35.030061783575967 ], [ 150.578811992343788, -35.029984450482637 ], [ 150.578728711019323, -35.029954707260671 ], [ 150.57863353357854, -35.029919015704877 ], [ 150.578532406228334, -35.029889272124251 ] ] ] ] } },
{ "type": "Feature", "properties": { "OBJECTID_1": 50, "OBJECTID": 61, "Zone_ID": "3", "CONDITION": "Good", "EasternPCT": "3271", "E_PCT_Name": "Shoalhaven Spotted Gum-Blackbutt Moist Forest", "VEG_CLASS": "Southern Lowland Wet Sclerophyll Forests", "BC_Act": "-", "EPBC_Act": "-", "Area_ha": 0.024370967044700001, "Area_m2": 243.70967044700001, "Comments": null, "ECMLink": null, "FSource": "Derived from field observations and aerial imagery.", "SourceDate": "2026-02-04T00:00:00Z", "PlanAccur": null, "Supplier": "Stantec Australia Pty Ltd (3045)", "Shape_Length": 59.565938103185424, "Shape_Area": 243.70967044698736 }, "geometry": { "type": "MultiPolygon", "coordinates": [ [ [ [ 150.578752506285184, -35.029282509728134 ], [ 150.578788197671003, -35.029306304235753 ], [ 150.578788198473831, -35.029353893387409 ], [ 150.578788198330187, -35.029395534666733 ], [ 150.578788198211868, -35.029437175044869 ], [ 150.578740608901484, -35.029466917976038 ], [ 150.57868112270927, -35.029478815091551 ], [ 150.57865137886111, -35.029455021203809 ], [ 150.578639482060623, -35.0294014828794 ], [ 150.578651378701807, -35.029353894179273 ], [ 150.578657327761562, -35.029306304825518 ], [ 150.578693019291364, -35.029288458983558 ], [ 150.578752506285184, -35.029282509728134 ] ] ] ] } },
{ "type": "Feature", "properties": { "OBJECTID_1": 51, "OBJECTID": 62, "Zone_ID": "3", "CONDITION": "Good", "EasternPCT": "3271", "E_PCT_Name": "Shoalhaven Spotted Gum-Blackbutt Moist Forest", "VEG_CLASS": "Southern Lowland Wet Sclerophyll Forests", "BC_Act": "-", "EPBC_Act": "-", "Area_ha": 0.45713523654600002, "Area_m2": 4571.3523654600003, "Comments": null, "ECMLink": null, "FSource": "Derived from field observations and aerial imagery.", "SourceDate": "2026-02-04T00:00:00Z", "PlanAccur": null, "Supplier": "Stantec Australia Pty Ltd (3045)", "Shape_Length": 283.82962080387426, "Shape_Area": 4571.3523654611154 }, "geometry": { "type": "MultiPolygon", "coordinates": [ [ [ [ 150.577414059628239, -35.029413380387332 ], [ 150.577354572481397, -35.029419328977902 ], [ 150.577378367804812, -35.029383636721043 ], [ 150.57738431595007, -35.029347944932191 ], [ 150.57741405936369, -35.029276560876298 ], [ 150.577473546089294, -35.029228971878162 ], [ 150.577544929267987, -35.029175433732568 ], [ 150.577616313239702, -35.029151639323501 ], [ 150.577681749012356, -35.029115947554757 ], [ 150.577747184343337, -35.029115947358498 ], [ 150.577830465409335, -35.029068358336445 ], [ 150.577901848253731, -35.029068358746592 ], [ 150.578020821553054, -35.029038615605884 ], [ 150.578110052119825, -35.029050512842758 ], [ 150.578169538303712, -35.029062410116516 ], [ 150.578246870919173, -35.029062410140817 ], [ 150.578353945847908, -35.029092152803742 ], [ 150.578401536058379, -35.029098101663479 ], [ 150.578395586767954, -35.029181382622241 ], [ 150.578371792028236, -35.029246817971078 ], [ 150.57834204931325, -35.029353893916344 ], [ 150.578342048624847, -35.029437174654412 ], [ 150.578342048790006, -35.029526405063862 ], [ 150.578342048975912, -35.029615634571165 ], [ 150.578282562031319, -35.029675120599578 ], [ 150.578205230577794, -35.029716761883499 ], [ 150.578115999941332, -35.029716761306268 ], [ 150.577997027297044, -35.029704864160728 ], [ 150.577937540385562, -35.029645377656365 ], [ 150.577907797062466, -35.029585891081645 ], [ 150.577842362090479, -35.029514507229173 ], [ 150.577782875519574, -35.029478815671325 ], [ 150.577693645390951, -35.029472866946911 ], [ 150.57759846741439, -35.029472867101724 ], [ 150.577538980744663, -35.029443123275882 ], [ 150.577461648866063, -35.029443123708099 ], [ 150.577414059628239, -35.029413380387332 ] ] ] ] } },
{ "type": "Feature", "properties": { "OBJECTID_1": 52, "OBJECTID": 63, "Zone_ID": "3", "CONDITION": "Good", "EasternPCT": "3271", "E_PCT_Name": "Shoalhaven Spotted Gum-Blackbutt Moist Forest", "VEG_CLASS": "Southern Lowland Wet Sclerophyll Forests", "BC_Act": "-", "EPBC_Act": "-", "Area_ha": 0.10587159259499999, "Area_m2": 1058.7159259499999, "Comments": null, "ECMLink": null, "FSource": "Derived from field observations and aerial imagery.", "SourceDate": "2026-02-04T00:00:00Z", "PlanAccur": null, "Supplier": "Stantec Australia Pty Ltd (3045)", "Shape_Length": 147.29629529483373, "Shape_Area": 1058.7159259477787 }, "geometry": { "type": "MultiPolygon", "coordinates": [ [ [ [ 150.576682375437258, -35.028372366226627 ], [ 150.576718067376873, -35.028408057940908 ], [ 150.576771604722865, -35.028431852622184 ], [ 150.576771605024646, -35.028467544240577 ], [ 150.576783502214653, -35.028550825594749 ], [ 150.576813245181086, -35.028574619908639 ], [ 150.576813245641716, -35.028628157786606 ], [ 150.576759706977043, -35.028687644723455 ], [ 150.576777553935671, -35.028729285599617 ], [ 150.576777553912081, -35.028770925962185 ], [ 150.576795399326357, -35.028842309663681 ], [ 150.576777553673935, -35.028878001690714 ], [ 150.576724015663387, -35.028901796107782 ], [ 150.576640734909404, -35.028895847403547 ], [ 150.576593145079045, -35.028848258405169 ], [ 150.576569350862968, -35.028782823552717 ], [ 150.576569350812605, -35.02870549068026 ], [ 150.576599093659098, -35.028651953072618 ], [ 150.576575298844148, -35.028598414811036 ], [ 150.5765277098902, -35.028538928303192 ], [ 150.576563401560861, -35.028461595573148 ], [ 150.57659314517548, -35.028431852987033 ], [ 150.576593145308948, -35.028390211725224 ], [ 150.576622889018665, -35.028378314487625 ], [ 150.576640734835792, -35.028378314996488 ], [ 150.576682375437258, -35.028372366226627 ] ] ] ] } },
{ "type": "Feature", "properties": { "OBJECTID_1": 53, "OBJECTID": 64, "Zone_ID": "3", "CONDITION": "Good", "EasternPCT": "3271", "E_PCT_Name": "Shoalhaven Spotted Gum-Blackbutt Moist Forest", "VEG_CLASS": "Southern Lowland Wet Sclerophyll Forests", "BC_Act": "-", "EPBC_Act": "-", "Area_ha": 0.187227525698, "Area_m2": 1872.27525698, "Comments": null, "ECMLink": null, "FSource": "Derived from field observations and aerial imagery.", "SourceDate": "2026-02-04T00:00:00Z", "PlanAccur": null, "Supplier": "Stantec Australia Pty Ltd (3045)", "Shape_Length": 216.85775049807887, "Shape_Area": 1872.2752569794059 }, "geometry": { "type": "MultiPolygon", "coordinates": [ [ [ [ 150.577015499826445, -35.029002923407887 ], [ 150.577080934970411, -35.029026717673958 ], [ 150.577104729595732, -35.029026717969295 ], [ 150.57712257493796, -35.028973179629034 ], [ 150.577193958837654, -35.028949385465822 ], [ 150.57729508569571, -35.028931539201366 ], [ 150.577354572224465, -35.028883950251782 ], [ 150.577449750880646, -35.028901796546982 ], [ 150.57748544282822, -35.028925590538385 ], [ 150.577533032353557, -35.028943436327339 ], [ 150.577598467902163, -35.028985077484919 ], [ 150.577574672933196, -35.029068358019799 ], [ 150.57750923822536, -35.02910405065348 ], [ 150.577431905621779, -35.029151639277949 ], [ 150.577390264671976, -35.029181382400118 ], [ 150.577342675799656, -35.02924086944823 ], [ 150.577301034385016, -35.029347945408297 ], [ 150.577205856059948, -35.029336047746021 ], [ 150.577158267333147, -35.029276561478135 ], [ 150.577158267049953, -35.029193279842374 ], [ 150.577098780795353, -35.029139742608912 ], [ 150.577033345955186, -35.029151639968383 ], [ 150.576938167451942, -35.029169485857238 ], [ 150.576878680609525, -35.02910999885367 ], [ 150.57681324486984, -35.02905646070716 ], [ 150.576801348520007, -35.028996974383922 ], [ 150.576819193555252, -35.028973179845877 ], [ 150.576860834590093, -35.028943436923115 ], [ 150.576944115866127, -35.028919641726802 ], [ 150.577009550591384, -35.028949385675269 ], [ 150.577015499826445, -35.029002923407887 ] ] ] ] } },
{ "type": "Feature", "properties": { "OBJECTID_1": 54, "OBJECTID": 65, "Zone_ID": "3", "CONDITION": "Good", "EasternPCT": "3271", "E_PCT_Name": "Shoalhaven Spotted Gum-Blackbutt Moist Forest", "VEG_CLASS": "Southern Lowland Wet Sclerophyll Forests", "BC_Act": "-", "EPBC_Act": "-", "Area_ha": 0.22196936619300001, "Area_m2": 2219.69366193, "Comments": null, "ECMLink": null, "FSource": "Derived from field observations and aerial imagery.", "SourceDate": "2026-02-04T00:00:00Z", "PlanAccur": null, "Supplier": "Stantec Australia Pty Ltd (3045)", "Shape_Length": 917.79243426338508, "Shape_Area": 2219.6936619292128 }, "geometry": { "type": "MultiPolygon", "coordinates": [ [ [ [ 150.575680352106474, -35.027746835408294 ], [ 150.575658603306863, -35.027942942930373 ], [ 150.575659206275475, -35.028003549489426 ], [ 150.575671103950015, -35.028045190587733 ], [ 150.575677053206789, -35.028134419977661 ], [ 150.575700847242899, -35.02820580373983 ], [ 150.575677052507586, -35.02827718727972 ], [ 150.575677052338364, -35.028378315137651 ], [ 150.575677052289137, -35.028461595843225 ], [ 150.575677052828979, -35.028568671561921 ], [ 150.575677052960771, -35.028681696021359 ], [ 150.575629938942654, -35.028772523099462 ], [ 150.575611459962033, -35.028640418498043 ], [ 150.575593375221899, -35.02599279227698 ], [ 150.575620865197635, -35.026075264012654 ], [ 150.575638712044196, -35.026152596658676 ], [ 150.575638711362132, -35.026229929525009 ], [ 150.57563871144373, -35.026396490985718 ], [ 150.575638711367077, -35.026497618870323 ], [ 150.575662505684164, -35.026574951403042 ], [ 150.575662505826443, -35.026723667503589 ], [ 150.575644660678222, -35.026818846001262 ], [ 150.575626814321964, -35.026931869824047 ], [ 150.575650609254495, -35.027050843631557 ], [ 150.575668454430598, -35.027140072836517 ], [ 150.575668454755885, -35.027235251066642 ], [ 150.575656557366557, -35.027306635350428 ], [ 150.575656557821901, -35.027366121973273 ], [ 150.575638711085674, -35.027449402924191 ], [ 150.57566250672005, -35.027526735479022 ], [ 150.575680351648998, -35.027604068072741 ], [ 150.575680351865515, -35.027717092548748 ], [ 150.575680352106474, -35.027746835408294 ] ] ], [ [ [ 150.575590612127172, -35.02558837961864 ], [ 150.575588314144682, -35.02525187261233 ], [ 150.57559112270539, -35.025260298835825 ], [ 150.575626814247755, -35.025325733704996 ], [ 150.575626813873583, -35.025432809449555 ], [ 150.575597070679152, -35.025551783127703 ], [ 150.575590612127172, -35.02558837961864 ] ] ], [ [ [ 150.575587179029696, -35.025085782440982 ], [ 150.575580537739825, -35.024113730259018 ], [ 150.575603019530377, -35.02412410655846 ], [ 150.575632763347585, -35.024225233152542 ], [ 150.575632763123934, -35.024314462654523 ], [ 150.575632762867798, -35.024403693056222 ], [ 150.575656557759515, -35.024498870970788 ], [ 150.575650608852385, -35.024576203950957 ], [ 150.5756149171159, -35.024671381827957 ], [ 150.575626814386368, -35.024713022930804 ], [ 150.575662505746038, -35.024778457786297 ], [ 150.575686300780035, -35.024855790336801 ], [ 150.575662505879336, -35.024998558062769 ], [ 150.575603019789611, -35.025069942167548 ], [ 150.575587179029696, -35.025085782440982 ] ] ] ] } },
{ "type": "Feature", "properties": { "OBJECTID_1": 55, "OBJECTID": 66, "Zone_ID": "3", "CONDITION": "Good", "EasternPCT": "3271", "E_PCT_Name": "Shoalhaven Spotted Gum-Blackbutt Moist Forest", "VEG_CLASS": "Southern Lowland Wet Sclerophyll Forests", "BC_Act": "-", "EPBC_Act": "-", "Area_ha": 4.4615513081599998, "Area_m2": 44615.513081600002, "Comments": null, "ECMLink": null, "FSource": "Derived from field observations and aerial imagery.", "SourceDate": "2026-02-04T00:00:00Z", "PlanAccur": null, "Supplier": "Stantec Australia Pty Ltd (3045)", "Shape_Length": 1336.9546655193114, "Shape_Area": 44615.513081566991 }, "geometry": { "type": "MultiPolygon", "coordinates": [ [ [ [ 150.578197151143428, -35.031977908071866 ], [ 150.576779084918542, -35.030950374712575 ], [ 150.576658054093599, -35.030866657957525 ], [ 150.576495281045624, -35.030888808536993 ], [ 150.576195305136707, -35.030929628401267 ], [ 150.576111304176521, -35.030864851698922 ], [ 150.576045869464593, -35.030799416555041 ], [ 150.575998280375188, -35.030763724832674 ], [ 150.575879306934212, -35.03076372396611 ], [ 150.575784128799341, -35.030793467306303 ], [ 150.575748436965853, -35.030829159402167 ], [ 150.57574248784897, -35.030882697313402 ], [ 150.575754384800604, -35.030924338382384 ], [ 150.575752775993863, -35.030989845226166 ], [ 150.575627619802248, -35.031006876241157 ], [ 150.575611459962033, -35.028640418498043 ], [ 150.575629938942654, -35.028772523099462 ], [ 150.575642977408592, -35.028865729917364 ], [ 150.575688949914792, -35.02894938510827 ], [ 150.575712744155055, -35.029020768869401 ], [ 150.575736538938656, -35.02913379388837 ], [ 150.575712745189691, -35.029169485841848 ], [ 150.575718693506445, -35.029240868949771 ], [ 150.575784128179322, -35.029318201752488 ], [ 150.575790077541626, -35.029407432029515 ], [ 150.57583171766413, -35.029484764253951 ], [ 150.575944742598836, -35.029556147524183 ], [ 150.576045868871688, -35.029597788915872 ], [ 150.576146996742665, -35.029633480605042 ], [ 150.576200533978209, -35.029687018396714 ], [ 150.576301661314176, -35.029734607450386 ], [ 150.576408737026014, -35.029752453447443 ], [ 150.576492017929212, -35.029770299832968 ], [ 150.576605043045703, -35.029758401797167 ], [ 150.576652632186949, -35.029728658821462 ], [ 150.576694272479102, -35.029681069699869 ], [ 150.576712118582464, -35.029621582697352 ], [ 150.576765655779724, -35.029621583286904 ], [ 150.576872732395685, -35.029621583537889 ], [ 150.576944116059906, -35.029657275245853 ], [ 150.576944115340893, -35.029734607198833 ], [ 150.576860834624114, -35.029794093993239 ], [ 150.57683703991313, -35.029811939897556 ], [ 150.576866783777206, -35.029889272082329 ], [ 150.576920321468066, -35.029883323865597 ], [ 150.576973859257265, -35.029811940262114 ], [ 150.577057139732887, -35.02973460712888 ], [ 150.577122575516398, -35.029669171920965 ], [ 150.577205856188044, -35.029603737087434 ], [ 150.577330778121706, -35.029573993590134 ], [ 150.577396213806793, -35.029573993598262 ], [ 150.577455699417328, -35.029603737473458 ], [ 150.577568723742417, -35.029651326039797 ], [ 150.577604415947718, -35.029651326798948 ], [ 150.577687697380071, -35.029687018634071 ], [ 150.577765029440314, -35.029740555939462 ], [ 150.577854259977016, -35.02977029963688 ], [ 150.577925643831151, -35.029788145423311 ], [ 150.578038667347812, -35.029841683199059 ], [ 150.578098154469444, -35.02990116966081 ], [ 150.578110051652175, -35.02993686177723 ], [ 150.578098154621443, -35.029954707540405 ], [ 150.578068410981928, -35.029954707625812 ], [ 150.578008923998198, -35.029919016164243 ], [ 150.577925643063253, -35.029889272404766 ], [ 150.577860208451227, -35.02988332394623 ], [ 150.577806670209043, -35.029877375063599 ], [ 150.577759081115545, -35.029913067252849 ], [ 150.577693646071282, -35.029942810309088 ], [ 150.577669851095692, -35.030020142997046 ], [ 150.577687696925523, -35.030079629080269 ], [ 150.577729337897722, -35.030109372489996 ], [ 150.577788824436766, -35.030103423713534 ], [ 150.577830464959703, -35.030145064585497 ], [ 150.57789590051155, -35.030133166825053 ], [ 150.5779494379168, -35.030109372792715 ], [ 150.578008924507628, -35.030073681046012 ], [ 150.578056514061615, -35.030026091262272 ], [ 150.578127897124006, -35.029984451190593 ], [ 150.578169537600303, -35.029942810305016 ], [ 150.57824687060679, -35.029924964094384 ], [ 150.578288511027864, -35.02994281069865 ], [ 150.578330151494242, -35.029960656388397 ], [ 150.578347997523423, -35.029996348276192 ], [ 150.578377740536439, -35.030109372622199 ], [ 150.578353946564135, -35.030174807968713 ], [ 150.578359895166216, -35.030210499374014 ], [ 150.57842532973612, -35.03025808884103 ], [ 150.578431279235133, -35.030299729915882 ], [ 150.578425329814166, -35.030383010858735 ], [ 150.578425329952893, -35.030442497492189 ], [ 150.578437228051598, -35.030490086201603 ], [ 150.578449124508353, -35.030585264902072 ], [ 150.57844317616258, -35.030668545863996 ], [ 150.578466970818113, -35.030745878790114 ], [ 150.578466970288929, -35.030793467902015 ], [ 150.578466970439905, -35.030852954533025 ], [ 150.578466970614897, -35.030912440262568 ], [ 150.578472919155132, -35.03098382417668 ], [ 150.57850861103401, -35.03104331130185 ], [ 150.578562149215458, -35.031108746516139 ], [ 150.578562149421742, -35.031168233147135 ], [ 150.578579994904828, -35.031263411617928 ], [ 150.578579994943254, -35.03132884609586 ], [ 150.578568097386437, -35.0314240247722 ], [ 150.57850861134321, -35.031548946266724 ], [ 150.57843722708526, -35.031620330267252 ], [ 150.578377740432501, -35.031721457568025 ], [ 150.578318254943355, -35.031757149488492 ], [ 150.578258768073596, -35.031828532960432 ], [ 150.578223076543935, -35.031899917408872 ], [ 150.578197151143428, -35.031977908071866 ] ] ] ] } },
{ "type": "Feature", "properties": { "OBJECTID_1": 56, "OBJECTID": 67, "Zone_ID": "4", "CONDITION": "Low", "EasternPCT": "3271", "E_PCT_Name": "Shoalhaven Spotted Gum-Blackbutt Moist Forest", "VEG_CLASS": "Southern Lowland Wet Sclerophyll Forests", "BC_Act": "-", "EPBC_Act": "-", "Area_ha": 0.44638669542699999, "Area_m2": 4463.86695427, "Comments": null, "ECMLink": null, "FSource": "Derived from field observations and aerial imagery.", "SourceDate": "2026-02-04T00:00:00Z", "PlanAccur": null, "Supplier": "Stantec Australia Pty Ltd (3045)", "Shape_Length": 1122.7063752376694, "Shape_Area": 4463.8669542729467 }, "geometry": { "type": "MultiPolygon", "coordinates": [ [ [ [ 150.575727941663018, -35.027847962602486 ], [ 150.57572320779019, -35.027918802260615 ], [ 150.575783831211737, -35.027928629318893 ], [ 150.57577553022449, -35.027847962790872 ], [ 150.575781479479758, -35.027752784495689 ], [ 150.575787427900394, -35.027687349037762 ], [ 150.575787427855516, -35.027586222064713 ], [ 150.575787428030281, -35.027413710976582 ], [ 150.575793376114603, -35.027318532650852 ], [ 150.575793376034966, -35.027217405671898 ], [ 150.575793376389726, -35.027092483692563 ], [ 150.575793376293291, -35.026991356710163 ], [ 150.575781479622407, -35.026866434914041 ], [ 150.575799325339574, -35.026777205157273 ], [ 150.575840965544103, -35.026765307899701 ], [ 150.575823119875224, -35.026854537664711 ], [ 150.575840965944309, -35.026931870264697 ], [ 150.575829068360662, -35.027027048675237 ], [ 150.575835017068783, -35.02711032930884 ], [ 150.575852862763952, -35.027211456906031 ], [ 150.575829068421598, -35.027318532111423 ], [ 150.575823119640177, -35.027407762575585 ], [ 150.575829068346536, -35.027491043205586 ], [ 150.575840965533615, -35.027592170895296 ], [ 150.575852863151795, -35.027687348938677 ], [ 150.575870709050861, -35.027752784023527 ], [ 150.575900452746595, -35.027859860186823 ], [ 150.575873948924169, -35.027943236772217 ], [ 150.575871275970144, -35.028037060753768 ], [ 150.575835583868013, -35.028114393265838 ], [ 150.575829635138149, -35.028167930312627 ], [ 150.57581178969815, -35.028280955060978 ], [ 150.575811789332874, -35.028388030767836 ], [ 150.575829635250045, -35.028471312107982 ], [ 150.575829635281195, -35.028572439069713 ], [ 150.575835583980734, -35.02865572058947 ], [ 150.575853430632719, -35.028762796040716 ], [ 150.575677052960771, -35.028681696021359 ], [ 150.575677052828979, -35.028568671561921 ], [ 150.575677052289137, -35.028461595843225 ], [ 150.575677052338364, -35.028378315137651 ], [ 150.575677052507586, -35.02827718727972 ], [ 150.575700847242899, -35.02820580373983 ], [ 150.575677053206789, -35.028134419977661 ], [ 150.575671103950015, -35.028045190587733 ], [ 150.575659206275475, -35.028003549489426 ], [ 150.575658258740958, -35.027908273908032 ], [ 150.575662373878316, -35.027908941216431 ], [ 150.575680352106474, -35.027746835408294 ], [ 150.575680351865515, -35.027717092548748 ], [ 150.575680351648998, -35.027604068072741 ], [ 150.57566250672005, -35.027526735479022 ], [ 150.575638711085674, -35.027449402924191 ], [ 150.575656557821901, -35.027366121973273 ], [ 150.575656557366557, -35.027306635350428 ], [ 150.575668454755885, -35.027235251066642 ], [ 150.575668454430598, -35.027140072836517 ], [ 150.575650609254495, -35.027050843631557 ], [ 150.575626814321964, -35.026931869824047 ], [ 150.575644660678222, -35.026818846001262 ], [ 150.575662505826443, -35.026723667503589 ], [ 150.575662505684164, -35.026574951403042 ], [ 150.575638711367077, -35.026497618870323 ], [ 150.57563871144373, -35.026396490985718 ], [ 150.575638711362132, -35.026229929525009 ], [ 150.575638712044196, -35.026152596658676 ], [ 150.575620865197635, -35.026075264012654 ], [ 150.575593375221899, -35.02599279227698 ], [ 150.575590612127172, -35.02558837961864 ], [ 150.575597070679152, -35.025551783127703 ], [ 150.575626813873583, -35.025432809449555 ], [ 150.575626814247755, -35.025325733704996 ], [ 150.57559112270539, -35.025260298835825 ], [ 150.575588314144682, -35.02525187261233 ], [ 150.575587179029696, -35.025085782440982 ], [ 150.575603019789611, -35.025069942167548 ], [ 150.575662505879336, -35.024998558062769 ], [ 150.575686300635766, -35.025063993099941 ], [ 150.575716043754881, -35.025147274297311 ], [ 150.575698198602169, -35.025301939462587 ], [ 150.575668454660644, -35.02548634762929 ], [ 150.575638711211099, -35.025593422905281 ], [ 150.575662506555886, -35.025736190842423 ], [ 150.575698198217736, -35.025837318211039 ], [ 150.575716044563762, -35.025974137464488 ], [ 150.575721992512769, -35.026152596335244 ], [ 150.575745787426541, -35.026271570134398 ], [ 150.575733889935805, -35.026348902288383 ], [ 150.575745786831561, -35.026485721604068 ], [ 150.575763632794377, -35.02656305331255 ], [ 150.575781479746468, -35.026676078453086 ], [ 150.575763633653736, -35.026771256953126 ], [ 150.575733889692174, -35.026896178472505 ], [ 150.575733890498555, -35.02698540796505 ], [ 150.575733890451659, -35.02710438119864 ], [ 150.575727941866205, -35.027223354519982 ], [ 150.575727941159471, -35.027318532729844 ], [ 150.575727941855689, -35.02742560846962 ], [ 150.575727941448292, -35.027532684185807 ], [ 150.5757457874127, -35.027645708398879 ], [ 150.575745787841953, -35.027723041273873 ], [ 150.575727941663018, -35.027847962602486 ] ] ] ] } },
{ "type": "Feature", "properties": { "OBJECTID_1": 57, "OBJECTID": 68, "Zone_ID": "3", "CONDITION": "Good", "EasternPCT": "3271", "E_PCT_Name": "Shoalhaven Spotted Gum-Blackbutt Moist Forest", "VEG_CLASS": "Southern Lowland Wet Sclerophyll Forests", "BC_Act": "-", "EPBC_Act": "-", "Area_ha": 4.5590943376600004, "Area_m2": 45590.9433766, "Comments": null, "ECMLink": null, "FSource": "Derived from field observations and aerial imagery.", "SourceDate": "2026-02-04T00:00:00Z", "PlanAccur": null, "Supplier": "Stantec Australia Pty Ltd (3045)", "Shape_Length": 1165.724527606262, "Shape_Area": 45590.943376614079 }, "geometry": { "type": "MultiPolygon", "coordinates": [ [ [ [ 150.580424077420048, -35.031911814509876 ], [ 150.580453821022047, -35.03198319801858 ], [ 150.580441923366664, -35.03207242815693 ], [ 150.580382436506824, -35.032090273910157 ], [ 150.580299155767619, -35.032060530831068 ], [ 150.580108798703122, -35.032018890129059 ], [ 150.580049312125766, -35.03194750621077 ], [ 150.579971980339707, -35.031929660133514 ], [ 150.579894647386965, -35.031917762738452 ], [ 150.579817315411674, -35.032030787346173 ], [ 150.579853006401692, -35.032155709470878 ], [ 150.579924390321196, -35.032250887928662 ], [ 150.579983877002832, -35.032387706400804 ], [ 150.580079055098196, -35.032459090393608 ], [ 150.580215874695853, -35.032530474044513 ], [ 150.580299155705802, -35.032572114702276 ], [ 150.580394334519099, -35.032625652206725 ], [ 150.580471666783779, -35.032667293055518 ], [ 150.580602537141885, -35.032726779974105 ], [ 150.580656074669406, -35.032804111801127 ], [ 150.580769099337232, -35.03290523899296 ], [ 150.580780996312257, -35.033024212525561 ], [ 150.580828585934142, -35.033155082512472 ], [ 150.580917815581074, -35.033226466204901 ], [ 150.580917815094352, -35.033303799104402 ], [ 150.580834534490151, -35.033363285886139 ], [ 150.580715561588278, -35.03335138859066 ], [ 150.580608485480411, -35.033351388041858 ], [ 150.580560896686706, -35.033375182895639 ], [ 150.580554948288778, -35.033422772346682 ], [ 150.580471666287735, -35.033476310088176 ], [ 150.580400283325019, -35.033523899337979 ], [ 150.580311052647261, -35.033619077643593 ], [ 150.580203977565589, -35.033672615529767 ], [ 150.580132593380768, -35.033708307083067 ], [ 150.58009609120532, -35.033782377590818 ], [ 150.579982779820483, -35.03349733752956 ], [ 150.579519763763187, -35.032932847430892 ], [ 150.57833320109674, -35.032076175374961 ], [ 150.578333447007168, -35.032075975653392 ], [ 150.578365843989729, -35.031989146435507 ], [ 150.578365844181661, -35.031953454829598 ], [ 150.578371792341272, -35.031882071389752 ], [ 150.578413432625126, -35.031840430444596 ], [ 150.578466970575903, -35.031798789963339 ], [ 150.578520509092812, -35.031739303211523 ], [ 150.57857404601404, -35.031626279433063 ], [ 150.578574046223281, -35.031554895308858 ], [ 150.578597841184518, -35.03150135746094 ], [ 150.578633533071724, -35.031435922549058 ], [ 150.57866922504931, -35.031400230489233 ], [ 150.578675173804783, -35.031334794886078 ], [ 150.57867517414229, -35.031221770390786 ], [ 150.578621635267837, -35.031138489852985 ], [ 150.578603790283267, -35.031061156753658 ], [ 150.578556200186284, -35.030983824721162 ], [ 150.57855025189113, -35.030936234925022 ], [ 150.578550251364504, -35.030852954175231 ], [ 150.578508611317574, -35.030775621932563 ], [ 150.578496713885642, -35.030674494465821 ], [ 150.57850266217801, -35.030591213499143 ], [ 150.578502663084976, -35.030531726886601 ], [ 150.578490765288024, -35.030377061531084 ], [ 150.578472919325947, -35.030269986426944 ], [ 150.578472919755598, -35.030192653542372 ], [ 150.578443176066969, -35.030127218330641 ], [ 150.578431278714618, -35.030091526240909 ], [ 150.578449124822043, -35.030061783630586 ], [ 150.578526457793629, -35.030079629763932 ], [ 150.578585943450122, -35.030133167212071 ], [ 150.578710865905833, -35.030168859503554 ], [ 150.578919067929093, -35.030234293885051 ], [ 150.579139168432732, -35.030359215883394 ], [ 150.57937116618146, -35.0304305999815 ], [ 150.579496087282365, -35.030466291450736 ], [ 150.579686444781686, -35.030567418799592 ], [ 150.579876800958317, -35.030644751711741 ], [ 150.579954133448041, -35.030680443205839 ], [ 150.579966030886283, -35.030757775545752 ], [ 150.579966030933122, -35.030823210952761 ], [ 150.580019568899246, -35.030900543051771 ], [ 150.580031466857093, -35.031019516681397 ], [ 150.580114747461806, -35.031132540692255 ], [ 150.580144491123463, -35.031239616805159 ], [ 150.580239669051821, -35.031406178934745 ], [ 150.58029320696312, -35.031537048813597 ], [ 150.58032294988007, -35.031644124869793 ], [ 150.580435974347438, -35.03178689272746 ], [ 150.580453821219436, -35.03186422472443 ], [ 150.580424077420048, -35.031911814509876 ] ] ] ] } },
{ "type": "Feature", "properties": { "OBJECTID_1": 58, "OBJECTID": 69, "Zone_ID": "3", "CONDITION": "Good", "EasternPCT": "3271", "E_PCT_Name": "Shoalhaven Spotted Gum-Blackbutt Moist Forest", "VEG_CLASS": "Southern Lowland Wet Sclerophyll Forests", "BC_Act": "-", "EPBC_Act": "-", "Area_ha": 6.1133178002, "Area_m2": 61133.178002000001, "Comments": null, "ECMLink": null, "FSource": "Derived from field observations and aerial imagery.", "SourceDate": "2026-02-04T00:00:00Z", "PlanAccur": null, "Supplier": "Stantec Australia Pty Ltd (3045)", "Shape_Length": 3405.3243538665738, "Shape_Area": 61133.178001971188 }, "geometry": { "type": "MultiPolygon", "coordinates": [ [ [ [ 150.58363119378356, -35.035010665642297 ], [ 150.583708526841576, -35.035224817568064 ], [ 150.583720424497415, -35.035367585010597 ], [ 150.583803704938163, -35.035498455586662 ], [ 150.583827499652273, -35.035629325456469 ], [ 150.583833448521233, -35.035778042112156 ], [ 150.583863191954549, -35.035968399070718 ], [ 150.583904831848145, -35.036164704710714 ], [ 150.583875089569091, -35.036414547673196 ], [ 150.583851294502097, -35.036598955598308 ], [ 150.583809654397044, -35.036723877379558 ], [ 150.583809654418445, -35.036848799456685 ], [ 150.583762064224942, -35.036991567020713 ], [ 150.583726372476519, -35.037181923698341 ], [ 150.583678783646462, -35.037306845878156 ], [ 150.583666886043915, -35.037479356198439 ], [ 150.583619296924752, -35.037604278338591 ], [ 150.583547912798764, -35.037735148322845 ], [ 150.583476529629763, -35.037871967933292 ], [ 150.583345658720987, -35.038074221926948 ], [ 150.583232634828477, -35.038258630004997 ], [ 150.583155302095946, -35.038377602653696 ], [ 150.582935202085821, -35.038645292641483 ], [ 150.582780537343069, -35.038829700498148 ], [ 150.582602077473268, -35.039002211352809 ], [ 150.58246525802852, -35.039144978971407 ], [ 150.58225705532746, -35.039341284491819 ], [ 150.582090492913693, -35.039448360196467 ], [ 150.581965571715443, -35.039567333261679 ], [ 150.581852546834739, -35.039674408830194 ], [ 150.581757368893278, -35.039769587514073 ], [ 150.581626498277558, -35.039912355554563 ], [ 150.581489679066379, -35.040001585043129 ], [ 150.58132311716551, -35.040174095890855 ], [ 150.581186297880947, -35.040310915011162 ], [ 150.580989992936537, -35.040459631148003 ], [ 150.580769892589103, -35.040685680122039 ], [ 150.580639021926203, -35.040834396659847 ], [ 150.580466510834526, -35.040971215850526 ], [ 150.580270206019264, -35.041131829145577 ], [ 150.580109591875868, -35.04131028843878 ], [ 150.580014413353069, -35.041399518694277 ], [ 150.579853800405544, -35.041530388573506 ], [ 150.579752672694411, -35.041667207934651 ], [ 150.579627751165958, -35.041786181108691 ], [ 150.579508777556214, -35.041875411052466 ], [ 150.579371959255184, -35.042000332300702 ], [ 150.579306524059859, -35.042083613793736 ], [ 150.579229191097795, -35.042184741045972 ], [ 150.579098320566686, -35.042303713862594 ], [ 150.579009091792869, -35.042386995217548 ], [ 150.578961502218647, -35.042452429588138 ], [ 150.578884169765303, -35.042547608766341 ], [ 150.578829645883246, -35.042602132161548 ], [ 150.578297300646312, -35.042472345627196 ], [ 150.578371522881071, -35.042373382588593 ], [ 150.578466701306183, -35.042278204050184 ], [ 150.578508341556812, -35.042212769165268 ], [ 150.578523604618709, -35.042156303526077 ], [ 150.578541666045936, -35.042161503244728 ], [ 150.578605496191955, -35.042179880391778 ], [ 150.578719911683521, -35.042047461481012 ], [ 150.578751572261865, -35.042010819135214 ], [ 150.578937012816283, -35.041796194992692 ], [ 150.578987558332727, -35.041451804652198 ], [ 150.579038834729516, -35.041453056462359 ], [ 150.579098321468848, -35.041488748441587 ], [ 150.579193499079054, -35.04145900546547 ], [ 150.579241088577788, -35.041405467567223 ], [ 150.579258934553593, -35.041387621515334 ], [ 150.579360061740317, -35.041387621010436 ], [ 150.57947308568481, -35.041429262033681 ], [ 150.579580162477299, -35.041429262016401 ], [ 150.579657493918717, -35.041340031967934 ], [ 150.57978836518339, -35.041268648469277 ], [ 150.579865697640258, -35.041167520804905 ], [ 150.579859749074245, -35.041084239523343 ], [ 150.579871645795777, -35.041000959221293 ], [ 150.579972773087746, -35.040929575035285 ], [ 150.580151233099457, -35.040751115051933 ], [ 150.58023451405839, -35.04064998864078 ], [ 150.580371332774973, -35.040542912572903 ], [ 150.580520048788571, -35.040382298804388 ], [ 150.580734200921938, -35.040209788433195 ], [ 150.580817481410946, -35.040132455672286 ], [ 150.580948352114603, -35.040043225489406 ], [ 150.581043530258114, -35.039942098725831 ], [ 150.581263630791568, -35.039751741677883 ], [ 150.581352860900381, -35.039662511603595 ], [ 150.581448038958229, -35.039614922347283 ], [ 150.581537268777225, -35.039501898021619 ], [ 150.581656242058443, -35.03944241148848 ], [ 150.581739523036788, -35.039359131112661 ], [ 150.581912034041949, -35.039252054619837 ], [ 150.582054800908566, -35.039162825110893 ], [ 150.582149980060962, -35.039091441195012 ], [ 150.582257055702627, -35.039031954809325 ], [ 150.582364130962333, -35.038942725457837 ], [ 150.58248905299223, -35.03884754696621 ], [ 150.582613974554079, -35.038734522070705 ], [ 150.582679409370172, -35.038585805942155 ], [ 150.582679409432757, -35.038496576450498 ], [ 150.582643717943796, -35.038419243332193 ], [ 150.582625872277589, -35.038335962023922 ], [ 150.582667512460716, -35.038264578611191 ], [ 150.582744844800146, -35.038240783627472 ], [ 150.582792434310704, -35.038098016525666 ], [ 150.582851921255866, -35.038038530210898 ], [ 150.582917356309366, -35.037901710530342 ], [ 150.582941150657092, -35.037782737350483 ], [ 150.582994688462691, -35.037687559748306 ], [ 150.583054174860422, -35.037556689159551 ], [ 150.583054174571515, -35.037473407492982 ], [ 150.582988739656741, -35.037443664852908 ], [ 150.582857869015101, -35.037390126404368 ], [ 150.582649666912317, -35.037348486221333 ], [ 150.582518795979922, -35.037336588684077 ], [ 150.582459309376304, -35.037288999991098 ], [ 150.582471206790842, -35.037175975569127 ], [ 150.582584231574231, -35.037062950542484 ], [ 150.582685358891524, -35.03705700200306 ], [ 150.582881664521352, -35.037062950449169 ], [ 150.583101764529914, -35.03710459116823 ], [ 150.583268326376611, -35.037062951108894 ], [ 150.583309966775715, -35.03700941280642 ], [ 150.583309966547802, -35.03694397739541 ], [ 150.583274275503697, -35.036890439478434 ], [ 150.583292121406913, -35.036747672523937 ], [ 150.583393248386443, -35.03669413423367 ], [ 150.583482478299459, -35.03661085299035 ], [ 150.583518170037252, -35.036503777157264 ], [ 150.58348842672919, -35.036384804313869 ], [ 150.583536016294033, -35.036259883104286 ], [ 150.583524119087969, -35.036123063528692 ], [ 150.583476529312776, -35.035902963181009 ], [ 150.583452734974856, -35.035813733658124 ], [ 150.583405145031122, -35.03571855536056 ], [ 150.583411094522802, -35.035587684987057 ], [ 150.58341109417529, -35.035427071256166 ], [ 150.583351607494109, -35.035290252557402 ], [ 150.583298070055378, -35.035201022547717 ], [ 150.583155302013495, -35.035135587853553 ], [ 150.583006585348585, -35.035022563378028 ], [ 150.582917356499252, -35.035022562649878 ], [ 150.582810280746344, -35.0349809227177 ], [ 150.58265561523487, -35.034909538634388 ], [ 150.582637769010773, -35.034826257292636 ], [ 150.582589386547141, -35.03474932113204 ], [ 150.582565592275159, -35.034654142693036 ], [ 150.582500156829639, -35.03456491315891 ], [ 150.582452567689757, -35.034481632036673 ], [ 150.582452567797674, -35.034398351257366 ], [ 150.582452567631208, -35.034291275447124 ], [ 150.582410927516548, -35.034190148542791 ], [ 150.58230385149804, -35.034094969375992 ], [ 150.582250313253411, -35.033958150666379 ], [ 150.582202724149681, -35.033815382792483 ], [ 150.582137289274954, -35.033672615181601 ], [ 150.582113494556694, -35.033565540037308 ], [ 150.582048059471276, -35.033494155648128 ], [ 150.581994522144953, -35.033381131874322 ], [ 150.581923138089991, -35.033274056165091 ], [ 150.58187554823752, -35.033226466450351 ], [ 150.581798216662719, -35.033131287684867 ], [ 150.581685191433991, -35.033018263900978 ], [ 150.581572167737875, -35.032952828291322 ], [ 150.5815186292715, -35.032887393442643 ], [ 150.581417502653892, -35.032780317474433 ], [ 150.581292580521762, -35.032714882306827 ], [ 150.581191453230417, -35.03263754992237 ], [ 150.581072480658179, -35.032506679697491 ], [ 150.580888071846886, -35.032328220274138 ], [ 150.580822636882033, -35.032209247015672 ], [ 150.580733407874959, -35.032060530362841 ], [ 150.580626331133573, -35.031947506206897 ], [ 150.580543050164351, -35.031834481619939 ], [ 150.580435974347438, -35.03178689272746 ], [ 150.58032294988007, -35.031644124869793 ], [ 150.58029320696312, -35.031537048813597 ], [ 150.580239669051821, -35.031406178934745 ], [ 150.580144491123463, -35.031239616805159 ], [ 150.580114747461806, -35.031132540692255 ], [ 150.580031466857093, -35.031019516681397 ], [ 150.580019568899246, -35.030900543051771 ], [ 150.579966030933122, -35.030823210952761 ], [ 150.579966030886283, -35.030757775545752 ], [ 150.579954133448041, -35.030680443205839 ], [ 150.580020361697194, -35.030703841583595 ], [ 150.580050105662224, -35.030775225194041 ], [ 150.580151232602873, -35.030876352594859 ], [ 150.580252359142662, -35.031031016903462 ], [ 150.580347538434438, -35.031173784859192 ], [ 150.580525997654519, -35.031393884840142 ], [ 150.580740148846246, -35.031596139053271 ], [ 150.580960249475282, -35.031899520530636 ], [ 150.581174400828331, -35.032095826159996 ], [ 150.581352860870993, -35.032298080533202 ], [ 150.581501577180376, -35.032488437150128 ], [ 150.581769266408998, -35.032726383394447 ], [ 150.581983417796749, -35.032976226464974 ], [ 150.582161876950323, -35.033142788947949 ], [ 150.582292747268639, -35.033315299552434 ], [ 150.582441463842827, -35.033475913096254 ], [ 150.582495001208969, -35.033541348434348 ], [ 150.582679409841433, -35.033737654481143 ], [ 150.582875715724754, -35.033963703188128 ], [ 150.582994687933308, -35.034046984358426 ], [ 150.583226686452747, -35.034326570545545 ], [ 150.58332781326402, -35.034499081402835 ], [ 150.583422991665088, -35.034683490154158 ], [ 150.583524118268457, -35.034814360452849 ], [ 150.58363119378356, -35.035010665642297 ] ] ] ] } },
{ "type": "Feature", "properties": { "OBJECTID_1": 59, "OBJECTID": 70, "Zone_ID": "3", "CONDITION": "Good", "EasternPCT": "3271", "E_PCT_Name": "Shoalhaven Spotted Gum-Blackbutt Moist Forest", "VEG_CLASS": "Southern Lowland Wet Sclerophyll Forests", "BC_Act": "-", "EPBC_Act": "-", "Area_ha": 2.5662091921700001, "Area_m2": 25662.091921700001, "Comments": null, "ECMLink": null, "FSource": "Derived from field observations and aerial imagery.", "SourceDate": "2026-02-04T00:00:00Z", "PlanAccur": null, "Supplier": "Stantec Australia Pty Ltd (3045)", "Shape_Length": 961.13777014186974, "Shape_Area": 25662.091921735529 }, "geometry": { "type": "MultiPolygon", "coordinates": [ [ [ [ 150.580704953157635, -35.032318900801371 ], [ 150.580770388443966, -35.032384335330185 ], [ 150.580847720310004, -35.032485462582081 ], [ 150.580936950411171, -35.032550897505914 ], [ 150.581008334000757, -35.032586589595745 ], [ 150.581121358816887, -35.032693665222858 ], [ 150.5812462807435, -35.032770998070859 ], [ 150.581359305022289, -35.032884022229766 ], [ 150.58154966170207, -35.033056533636127 ], [ 150.581650788914772, -35.03319335239015 ], [ 150.581757864958547, -35.033217147035373 ], [ 150.581817350538671, -35.03327068476527 ], [ 150.581811401933919, -35.033348017168215 ], [ 150.581775710484834, -35.03340750428832 ], [ 150.581805454014074, -35.033580014530138 ], [ 150.581888734713687, -35.03362165502255 ], [ 150.581977964833982, -35.033716833893209 ], [ 150.582001759379125, -35.033823909957192 ], [ 150.582061245934767, -35.033930985496113 ], [ 150.582138577819848, -35.034073753256877 ], [ 150.582204012974984, -35.034216520871553 ], [ 150.582293243235, -35.034335493648008 ], [ 150.582340832628944, -35.034466363979874 ], [ 150.58231703830424, -35.034549645464793 ], [ 150.582245654333065, -35.034597233975653 ], [ 150.582180218427709, -35.034668617960932 ], [ 150.582204013083015, -35.034734053598392 ], [ 150.582334883471134, -35.034781643014341 ], [ 150.582394370397026, -35.034823282996264 ], [ 150.582394370116987, -35.034900615911987 ], [ 150.582281345480311, -35.034948204545181 ], [ 150.582150475532501, -35.034989845502359 ], [ 150.581972015917273, -35.035025537013418 ], [ 150.581817351427247, -35.035055280721707 ], [ 150.581668634842771, -35.035073126339185 ], [ 150.581567507715647, -35.035043383361575 ], [ 150.581478277745617, -35.035055280860909 ], [ 150.581424740245893, -35.035037434210942 ], [ 150.581258177481004, -35.035025537516269 ], [ 150.581103512929076, -35.035025537439807 ], [ 150.580978590683316, -35.035013639778931 ], [ 150.580883412844429, -35.035001743076371 ], [ 150.58078823391233, -35.034995794129337 ], [ 150.580728747487143, -35.034977948395436 ], [ 150.58057786900153, -35.034994288271356 ], [ 150.580335061882977, -35.034383509470373 ], [ 150.580443212361445, -35.034335493672813 ], [ 150.580532442293702, -35.034270058142127 ], [ 150.580615722773132, -35.034228417857008 ], [ 150.580734696793286, -35.03413323953491 ], [ 150.580853668875591, -35.034115393048218 ], [ 150.580936950138693, -35.034073752550228 ], [ 150.581049975085875, -35.03408565000187 ], [ 150.581234383018483, -35.03408565018141 ], [ 150.581341459035457, -35.03407970144 ], [ 150.581448535047087, -35.034067803848643 ], [ 150.581478277984161, -35.033996420595386 ], [ 150.581549661902358, -35.033984523257878 ], [ 150.581597250715163, -35.033913138879427 ], [ 150.581561558643187, -35.03381201222701 ], [ 150.581484226908202, -35.033693039142236 ], [ 150.581377150377705, -35.033603809732874 ], [ 150.581329561856649, -35.033478887821623 ], [ 150.581281972320284, -35.03338965750163 ], [ 150.581198690989453, -35.033377760364218 ], [ 150.581097563866052, -35.033359914543873 ], [ 150.581067821253583, -35.033336120341794 ], [ 150.580917815094352, -35.033303799104402 ], [ 150.580917815581074, -35.033226466204901 ], [ 150.580828585934142, -35.033155082512472 ], [ 150.580780996312257, -35.033024212525561 ], [ 150.580769099337232, -35.03290523899296 ], [ 150.580794182885114, -35.032854279350303 ], [ 150.580823925860813, -35.032788844102988 ], [ 150.58080607985363, -35.032675819646357 ], [ 150.580752542089243, -35.032622281996716 ], [ 150.580716850165999, -35.03255684674199 ], [ 150.580687107327805, -35.032479513653215 ], [ 150.580687106811013, -35.032408130386052 ], [ 150.580681158261882, -35.032366489425975 ], [ 150.580675209743958, -35.032318900612516 ], [ 150.580704953157635, -35.032318900801371 ] ] ] ] } },
{ "type": "Feature", "properties": { "OBJECTID_1": 60, "OBJECTID": 71, "Zone_ID": "3", "CONDITION": "Good", "EasternPCT": "3271", "E_PCT_Name": "Shoalhaven Spotted Gum-Blackbutt Moist Forest", "VEG_CLASS": "Southern Lowland Wet Sclerophyll Forests", "BC_Act": "-", "EPBC_Act": "-", "Area_ha": 10.0891805324, "Area_m2": 100891.805324, "Comments": null, "ECMLink": null, "FSource": "Derived from field observations and aerial imagery.", "SourceDate": "2026-02-04T00:00:00Z", "PlanAccur": null, "Supplier": "Stantec Australia Pty Ltd (3045)", "Shape_Length": 1945.9636525827261, "Shape_Area": 100891.8053241382 }, "geometry": { "type": "MultiPolygon", "coordinates": [ [ [ [ 150.582810280746344, -35.0349809227177 ], [ 150.582917356499252, -35.035022562649878 ], [ 150.583006585348585, -35.035022563378028 ], [ 150.583155302013495, -35.035135587853553 ], [ 150.583298070055378, -35.035201022547717 ], [ 150.583351607494109, -35.035290252557402 ], [ 150.58341109417529, -35.035427071256166 ], [ 150.583411094522802, -35.035587684987057 ], [ 150.583405145031122, -35.03571855536056 ], [ 150.583452734974856, -35.035813733658124 ], [ 150.583476529312776, -35.035902963181009 ], [ 150.583524119087969, -35.036123063528692 ], [ 150.583536016294033, -35.036259883104286 ], [ 150.58348842672919, -35.036384804313869 ], [ 150.583518170037252, -35.036503777157264 ], [ 150.583482478299459, -35.03661085299035 ], [ 150.583393248386443, -35.03669413423367 ], [ 150.583292121406913, -35.036747672523937 ], [ 150.583274275503697, -35.036890439478434 ], [ 150.583309966547802, -35.03694397739541 ], [ 150.583309966775715, -35.03700941280642 ], [ 150.583268326376611, -35.037062951108894 ], [ 150.583101764529914, -35.03710459116823 ], [ 150.582881664521352, -35.037062950449169 ], [ 150.582685358891524, -35.03705700200306 ], [ 150.582584231574231, -35.037062950542484 ], [ 150.582471206790842, -35.037175975569127 ], [ 150.582459309376304, -35.037288999991098 ], [ 150.582518795979922, -35.037336588684077 ], [ 150.582471703256175, -35.037393101005932 ], [ 150.582430062220936, -35.03745853649631 ], [ 150.582364626934435, -35.037613201266069 ], [ 150.582358678465795, -35.037714328670184 ], [ 150.582328934738882, -35.037785712075916 ], [ 150.582287294933366, -35.037916582913226 ], [ 150.582293242835107, -35.038023658254545 ], [ 150.582257550829354, -35.038118837048131 ], [ 150.582174270566043, -35.038196169093084 ], [ 150.582090989022703, -35.038273501952602 ], [ 150.582025554242676, -35.038344885777477 ], [ 150.581989861673861, -35.038404371954705 ], [ 150.581894683231894, -35.038481704531094 ], [ 150.581811402223252, -35.038553088442704 ], [ 150.581757864591367, -35.038636369773371 ], [ 150.581692429223466, -35.038707753390923 ], [ 150.581609147845626, -35.038761290891642 ], [ 150.58154966152631, -35.038868366581646 ], [ 150.58148422674256, -35.038975442593973 ], [ 150.581323612482549, -35.039070621182574 ], [ 150.581168948126418, -35.039195542988899 ], [ 150.581067820455274, -35.039308566795249 ], [ 150.581067820860369, -35.039385899651606 ], [ 150.581044026209014, -35.03941564292041 ], [ 150.581103512190111, -35.039481077646066 ], [ 150.581162999186176, -35.039564359515431 ], [ 150.581174896220006, -35.039659537935322 ], [ 150.581109461468571, -35.039754716211554 ], [ 150.581038077338462, -35.03982609976471 ], [ 150.580913155318626, -35.03992722723283 ], [ 150.580835823238147, -35.04002835383907 ], [ 150.580794182803828, -35.040087840852969 ], [ 150.580716850053278, -35.040135429523758 ], [ 150.580734200921938, -35.040209788433195 ], [ 150.580520048788571, -35.040382298804388 ], [ 150.580371332774973, -35.040542912572903 ], [ 150.58023451405839, -35.04064998864078 ], [ 150.580151233099457, -35.040751115051933 ], [ 150.579972773087746, -35.040929575035285 ], [ 150.579871645795777, -35.041000959221293 ], [ 150.579859749074245, -35.041084239523343 ], [ 150.579865697640258, -35.041167520804905 ], [ 150.57978836518339, -35.041268648469277 ], [ 150.579657493918717, -35.041340031967934 ], [ 150.579580162477299, -35.041429262016401 ], [ 150.57947308568481, -35.041429262033681 ], [ 150.579360061740317, -35.041387621010436 ], [ 150.579301071424794, -35.041319211501701 ], [ 150.579277276597082, -35.041247827512777 ], [ 150.579176149174941, -35.041194290138236 ], [ 150.579102818483051, -35.041133811072342 ], [ 150.579161969647259, -35.041017983144229 ], [ 150.581304591861596, -35.036822204208804 ], [ 150.581302226824334, -35.036816361534257 ], [ 150.580858253356354, -35.035699570151181 ], [ 150.580836993697517, -35.035646096772602 ], [ 150.580624395451906, -35.035111318586999 ], [ 150.580603134955595, -35.035057846054151 ], [ 150.580699004533329, -35.035055280186661 ], [ 150.580770387993084, -35.03508502369219 ], [ 150.580853668876784, -35.035085023641066 ], [ 150.58100833465798, -35.035079075310279 ], [ 150.581151102197367, -35.035079075299237 ], [ 150.581281972597935, -35.035090972426438 ], [ 150.581389047714026, -35.035096921160736 ], [ 150.581531815284904, -35.035096921603433 ], [ 150.581656737816076, -35.035126664064613 ], [ 150.58173406987973, -35.035227791694375 ], [ 150.581823300162966, -35.03525753439574 ], [ 150.581930375410707, -35.03523373978755 ], [ 150.582037450634829, -35.035215893837609 ], [ 150.582150475929126, -35.035186150821026 ], [ 150.582257551301012, -35.035198048452607 ], [ 150.582322986496393, -35.035126664423856 ], [ 150.582382472722543, -35.035079074873181 ], [ 150.582424113540895, -35.035013640250916 ], [ 150.582513343343294, -35.035001742948658 ], [ 150.582578778626015, -35.034966050406993 ], [ 150.58265561523487, -35.034909538634388 ], [ 150.582810280746344, -35.0349809227177 ] ] ] ] } },
{ "type": "Feature", "properties": { "OBJECTID_1": 61, "OBJECTID": 72, "Zone_ID": "3", "CONDITION": "Good", "EasternPCT": "3271", "E_PCT_Name": "Shoalhaven Spotted Gum-Blackbutt Moist Forest", "VEG_CLASS": "Southern Lowland Wet Sclerophyll Forests", "BC_Act": "-", "EPBC_Act": "-", "Area_ha": 0.31788773223, "Area_m2": 3178.8773222999998, "Comments": null, "ECMLink": null, "FSource": "Derived from field observations and aerial imagery.", "SourceDate": "2026-02-04T00:00:00Z", "PlanAccur": null, "Supplier": "Stantec Australia Pty Ltd (3045)", "Shape_Length": 237.21855301083855, "Shape_Area": 3178.8773222995055 }, "geometry": { "type": "MultiPolygon", "coordinates": [ [ [ [ 150.581174896220006, -35.039659537935322 ], [ 150.581162999186176, -35.039564359515431 ], [ 150.581103512190111, -35.039481077646066 ], [ 150.581044026209014, -35.03941564292041 ], [ 150.581067820860369, -35.039385899651606 ], [ 150.581067820455274, -35.039308566795249 ], [ 150.581168948126418, -35.039195542988899 ], [ 150.581323612482549, -35.039070621182574 ], [ 150.58148422674256, -35.038975442593973 ], [ 150.581514665095256, -35.038925634465002 ], [ 150.581591302589999, -35.038969493764171 ], [ 150.581674582966258, -35.039034929482845 ], [ 150.581745966929788, -35.039034928730025 ], [ 150.581835196873897, -35.039076569890646 ], [ 150.581900632645926, -35.039124158535948 ], [ 150.581900632683016, -35.039159851045078 ], [ 150.581817350980913, -35.039243131527151 ], [ 150.581692429778286, -35.039302618605568 ], [ 150.581591302661622, -35.0394156428709 ], [ 150.581454483180607, -35.039504872336686 ], [ 150.581311716038186, -35.039611948253935 ], [ 150.581174896220006, -35.039659537935322 ] ] ] ] } },
{ "type": "Feature", "properties": { "OBJECTID_1": 62, "OBJECTID": 73, "Zone_ID": "3", "CONDITION": "Good", "EasternPCT": "3271", "E_PCT_Name": "Shoalhaven Spotted Gum-Blackbutt Moist Forest", "VEG_CLASS": "Southern Lowland Wet Sclerophyll Forests", "BC_Act": "-", "EPBC_Act": "-", "Area_ha": 2.9663819845299999, "Area_m2": 29663.8198453, "Comments": null, "ECMLink": null, "FSource": "Derived from field observations and aerial imagery.", "SourceDate": "2026-02-04T00:00:00Z", "PlanAccur": null, "Supplier": "Stantec Australia Pty Ltd (3045)", "Shape_Length": 2789.3925206137128, "Shape_Area": 29663.819845287791 }, "geometry": { "type": "MultiPolygon", "coordinates": [ [ [ [ 150.580585979988655, -35.030920966809958 ], [ 150.580633569200074, -35.030932864453817 ], [ 150.580669261474128, -35.031004248494597 ], [ 150.580776336907348, -35.031152964212197 ], [ 150.580859618492212, -35.031295732434607 ], [ 150.581014283010518, -35.031480140516351 ], [ 150.581091615457268, -35.031593165137537 ], [ 150.581192742429181, -35.031735932098158 ], [ 150.581347407373528, -35.031914391929611 ], [ 150.58146043182947, -35.03208095479733 ], [ 150.581656736937589, -35.032241568140662 ], [ 150.581906580559604, -35.032533052207619 ], [ 150.582073142781411, -35.032675819651345 ], [ 150.582227808302406, -35.032878073451052 ], [ 150.582525240700448, -35.033151712235757 ], [ 150.582709648961128, -35.033300428164289 ], [ 150.582840518757138, -35.033425349935229 ], [ 150.582935698158252, -35.033544322736006 ], [ 150.58304872240987, -35.033651398420915 ], [ 150.583381846923857, -35.033978574089218 ], [ 150.583590049798232, -35.034192725958469 ], [ 150.583738765635673, -35.03437713389394 ], [ 150.583869635996365, -35.034561542194233 ], [ 150.583994558185566, -35.03475784836867 ], [ 150.584107581905329, -35.034995793975725 ], [ 150.584244400835047, -35.035209945194701 ], [ 150.58431578491809, -35.035376508087687 ], [ 150.584345528591797, -35.035543069931194 ], [ 150.584327681983837, -35.035697735510858 ], [ 150.584309836217699, -35.035846451440882 ], [ 150.58432768203636, -35.035959475442979 ], [ 150.584327682811676, -35.036048705920692 ], [ 150.58432173382252, -35.036120089697569 ], [ 150.584351477465674, -35.036215268241939 ], [ 150.584369322996622, -35.036316394714582 ], [ 150.584309836461188, -35.036381829701611 ], [ 150.584309836757996, -35.036524598077214 ], [ 150.584327681868501, -35.036613827931006 ], [ 150.584309836956152, -35.036697108430211 ], [ 150.584291990045813, -35.036822030183465 ], [ 150.58429199098245, -35.036952901049126 ], [ 150.584250349980408, -35.037000490033563 ], [ 150.584226554886271, -35.037095668486437 ], [ 150.584167068521708, -35.037297922978865 ], [ 150.584113530810583, -35.037452587799628 ], [ 150.584024300843907, -35.037660790660041 ], [ 150.583923173805658, -35.037863044735616 ], [ 150.583798252377079, -35.038071247539769 ], [ 150.583720920279717, -35.03821996345917 ], [ 150.58365548491247, -35.03834488517365 ], [ 150.58357220368606, -35.038529293958547 ], [ 150.583459179519537, -35.038814829244728 ], [ 150.583399692606207, -35.038993288221782 ], [ 150.58335805151529, -35.039064672768248 ], [ 150.583322360530957, -35.039118210624139 ], [ 150.583268822711034, -35.039189594228816 ], [ 150.583221232691017, -35.039237183241269 ], [ 150.58316174617633, -35.039296669723981 ], [ 150.583096310906143, -35.039403745726915 ], [ 150.582983287371206, -35.039487026503302 ], [ 150.582900005276457, -35.039570307734643 ], [ 150.582810776196879, -35.03968928096679 ], [ 150.582733443303169, -35.039784459171997 ], [ 150.582685854014755, -35.039861791731155 ], [ 150.582602573122387, -35.039915329905803 ], [ 150.582507394947129, -35.039915330058989 ], [ 150.582388421286623, -35.03993317525412 ], [ 150.582263500245517, -35.039945072896124 ], [ 150.582138578324191, -35.04002240575123 ], [ 150.582007707896366, -35.04013542955294 ], [ 150.581936324148501, -35.040183018646687 ], [ 150.581876837078994, -35.040266300349025 ], [ 150.58182924779112, -35.040343632543809 ], [ 150.581692429046427, -35.040468554755449 ], [ 150.581579404768547, -35.040551835937102 ], [ 150.581448535086906, -35.040623219663878 ], [ 150.58133551031051, -35.040712449345826 ], [ 150.581168947904729, -35.040855217074977 ], [ 150.581067821148054, -35.04098608707767 ], [ 150.580936950928162, -35.041099111451508 ], [ 150.580859617892003, -35.041182392672404 ], [ 150.580776337240877, -35.041271622922736 ], [ 150.580710901690054, -35.041295416837826 ], [ 150.580609774672723, -35.04128946882787 ], [ 150.580562185595682, -35.041241879484836 ], [ 150.580591929010211, -35.041170495696917 ], [ 150.580675209927477, -35.041069368083591 ], [ 150.580895310078461, -35.040879011807327 ], [ 150.581026180112076, -35.040754089967777 ], [ 150.581151102280302, -35.040647013671489 ], [ 150.58132956111109, -35.040498297404746 ], [ 150.581496123727021, -35.040319837833529 ], [ 150.581603199396881, -35.040224659579415 ], [ 150.581716224318569, -35.040105686774339 ], [ 150.5818114027212, -35.040046199747273 ], [ 150.581918477610373, -35.039909380826096 ], [ 150.582037451154605, -35.039820151079567 ], [ 150.582168321013938, -35.039707127218257 ], [ 150.582364627246619, -35.039522718391567 ], [ 150.582507394867349, -35.039391848003511 ], [ 150.58261447053323, -35.039320464704133 ], [ 150.582715597168999, -35.039201491690164 ], [ 150.582804826832387, -35.039076569771005 ], [ 150.582917852084393, -35.03898733952834 ], [ 150.582995183963533, -35.038892161154791 ], [ 150.583143900890377, -35.038755342596403 ], [ 150.583203386590242, -35.038672061079083 ], [ 150.583304514361487, -35.038529293436483 ], [ 150.583369949693093, -35.038368680304437 ], [ 150.583429435571958, -35.038267553302916 ], [ 150.58354840838544, -35.0380831445827 ], [ 150.58361979257478, -35.037940377101968 ], [ 150.58368522791821, -35.037827352904188 ], [ 150.583756611585642, -35.037726225703835 ], [ 150.583845841236496, -35.037642944214753 ], [ 150.583893430321012, -35.037488279101673 ], [ 150.583935070954624, -35.037410947367484 ], [ 150.583917225058087, -35.037321717455065 ], [ 150.583976711796794, -35.037226538913721 ], [ 150.584012403808657, -35.036988593008161 ], [ 150.584012403829746, -35.036875568440685 ], [ 150.583994557650783, -35.036738749377946 ], [ 150.58398860936785, -35.036619776536689 ], [ 150.584036198678604, -35.036542443367324 ], [ 150.584036198744712, -35.036471060090719 ], [ 150.584012403832673, -35.036274753935487 ], [ 150.584012403828609, -35.036126037716052 ], [ 150.583988608787081, -35.035959475333229 ], [ 150.583982660844669, -35.035852400001609 ], [ 150.583994558146088, -35.035781016658746 ], [ 150.583976711744839, -35.035667991702041 ], [ 150.583941019620681, -35.035537121009284 ], [ 150.583887482613505, -35.035376507969396 ], [ 150.583827995924139, -35.035227791973007 ], [ 150.583786355414105, -35.035108818327856 ], [ 150.583798252738461, -35.035037434998848 ], [ 150.583744714158655, -35.034918461366409 ], [ 150.583720919589979, -35.034823283121959 ], [ 150.583667381553028, -35.034716206983155 ], [ 150.583661433723108, -35.034638874517491 ], [ 150.583595997708244, -35.034531799266752 ], [ 150.58350676797744, -35.034430671890654 ], [ 150.583459179043388, -35.03430575074519 ], [ 150.583310462749466, -35.034115393713492 ], [ 150.583179592969117, -35.033919088236289 ], [ 150.583036824624884, -35.033776320488336 ], [ 150.582935697376001, -35.033681141436695 ], [ 150.582846467530288, -35.033603809526667 ], [ 150.582745340686103, -35.033508631232316 ], [ 150.582668007935268, -35.033419400831939 ], [ 150.582602572622761, -35.033359914243206 ], [ 150.58252524052196, -35.033300428455732 ], [ 150.582441959673559, -35.033246889981093 ], [ 150.582317037474752, -35.033116019516278 ], [ 150.582180218567913, -35.03295540594825 ], [ 150.582085039976562, -35.032854278867283 ], [ 150.581918478484567, -35.03271151145001 ], [ 150.581775710984999, -35.03255089783061 ], [ 150.581722172527009, -35.032467616801078 ], [ 150.581579404853727, -35.032354592108049 ], [ 150.581454483157358, -35.032247516730735 ], [ 150.581406894118572, -35.032176132735714 ], [ 150.581335510694743, -35.032092851737723 ], [ 150.581252228580752, -35.031997672961829 ], [ 150.581174896579455, -35.031914392226597 ], [ 150.581103512483224, -35.031848956451888 ], [ 150.581020231896559, -35.031765675967968 ], [ 150.580960744816537, -35.031664548692362 ], [ 150.580895309938541, -35.031599113375513 ], [ 150.580859618367327, -35.031521780655737 ], [ 150.580835823399099, -35.031450396906287 ], [ 150.580764439199271, -35.031331423938596 ], [ 150.580710901395037, -35.031248143400369 ], [ 150.580663312306825, -35.031194605395712 ], [ 150.580568134369258, -35.031081580581862 ], [ 150.580478904197122, -35.030986402533294 ], [ 150.580461058252354, -35.030938813430666 ], [ 150.580425365993904, -35.030885275600106 ], [ 150.580490801977504, -35.030855531986347 ], [ 150.58053244235532, -35.030867429079599 ], [ 150.580574082637924, -35.030891223669002 ], [ 150.580585979988655, -35.030920966809958 ] ] ] ] } },
{ "type": "Feature", "properties": { "OBJECTID_1": 63, "OBJECTID": 74, "Zone_ID": "3", "CONDITION": "Good", "EasternPCT": "3271", "E_PCT_Name": "Shoalhaven Spotted Gum-Blackbutt Moist Forest", "VEG_CLASS": "Southern Lowland Wet Sclerophyll Forests", "BC_Act": "-", "EPBC_Act": "-", "Area_ha": 5.0330818557699999, "Area_m2": 50330.818557699997, "Comments": null, "ECMLink": null, "FSource": "Derived from field observations and aerial imagery.", "SourceDate": "2026-02-04T00:00:00Z", "PlanAccur": null, "Supplier": "Stantec Australia Pty Ltd (3045)", "Shape_Length": 972.15853070484297, "Shape_Area": 50330.818557718689 }, "geometry": { "type": "MultiPolygon", "coordinates": [ [ [ [ 150.58023500912492, -35.029326728459154 ], [ 150.580324239338978, -35.029332677115654 ], [ 150.580437263431918, -35.029314831206939 ], [ 150.580496750632932, -35.029273190355831 ], [ 150.580550288254926, -35.029195858134031 ], [ 150.580615722899296, -35.029154216875241 ], [ 150.58072279845814, -35.029053090214404 ], [ 150.580829874545714, -35.029029295513425 ], [ 150.580877463621988, -35.029094730960217 ], [ 150.580895309452018, -35.029148268765724 ], [ 150.580984539533119, -35.029160165688069 ], [ 150.581121359054436, -35.029142319578554 ], [ 150.581192742010387, -35.02910067944719 ], [ 150.581341458742571, -35.029088782037491 ], [ 150.581442586085927, -35.029076884667958 ], [ 150.581680532423405, -35.029011449702814 ], [ 150.581775709992428, -35.029017398684637 ], [ 150.581787608075416, -35.028969808762163 ], [ 150.581817351002599, -35.028922219468221 ], [ 150.581942272984946, -35.028940065739278 ], [ 150.582001758984262, -35.028987654596413 ], [ 150.582061245423773, -35.029070935992948 ], [ 150.58208504056455, -35.029112576638482 ], [ 150.582126680932191, -35.029178012010682 ], [ 150.582198064637623, -35.029231549647008 ], [ 150.582301764614016, -35.029282053497603 ], [ 150.582695782368262, -35.031257357777442 ], [ 150.582727910989547, -35.031421908606625 ], [ 150.582789827199832, -35.031739007463514 ], [ 150.582792090688741, -35.031750603032208 ], [ 150.582727495186248, -35.031795419084141 ], [ 150.582668008079793, -35.031825162586209 ], [ 150.582560932732946, -35.031819213259681 ], [ 150.582436010841548, -35.031819213816412 ], [ 150.58233488380381, -35.031854905179159 ], [ 150.582245654526531, -35.031902494982553 ], [ 150.582174270236123, -35.031902494349346 ], [ 150.582079092057029, -35.03196198103192 ], [ 150.581983913741766, -35.032021467633612 ], [ 150.581930375428612, -35.032098800435776 ], [ 150.581870888655658, -35.03208690314321 ], [ 150.581745967261242, -35.032039313835696 ], [ 150.58165078912603, -35.031938186443007 ], [ 150.581472328980453, -35.031700240859045 ], [ 150.581270074454523, -35.031521781307433 ], [ 150.581151102340868, -35.03130762948971 ], [ 150.580972642343369, -35.031176759023928 ], [ 150.580931002180506, -35.031063735026045 ], [ 150.580889360992188, -35.030962607605531 ], [ 150.580835823737232, -35.030796045442116 ], [ 150.580829874448426, -35.0306830211902 ], [ 150.580782285935783, -35.030569996580212 ], [ 150.580722798978542, -35.030445075072727 ], [ 150.580651414592808, -35.030332050796638 ], [ 150.580627620584721, -35.030195231602782 ], [ 150.580544339215294, -35.030064360748717 ], [ 150.580478904522636, -35.02990374782717 ], [ 150.580431314639412, -35.029796671816079 ], [ 150.580377777184623, -35.029695544877796 ], [ 150.580312342252739, -35.029612263900916 ], [ 150.580264752411182, -35.029534930711037 ], [ 150.580229061323564, -35.029439752455666 ], [ 150.580211214565566, -35.029404060813441 ], [ 150.580181471777934, -35.029350522628896 ], [ 150.58023500912492, -35.029326728459154 ] ] ] ] } },
{ "type": "Feature", "properties": { "OBJECTID_1": 64, "OBJECTID": 75, "Zone_ID": "3", "CONDITION": "Good", "EasternPCT": "3271", "E_PCT_Name": "Shoalhaven Spotted Gum-Blackbutt Moist Forest", "VEG_CLASS": "Southern Lowland Wet Sclerophyll Forests", "BC_Act": "-", "EPBC_Act": "-", "Area_ha": 0.59293668775999997, "Area_m2": 5929.3668776000004, "Comments": null, "ECMLink": null, "FSource": "Derived from field observations and aerial imagery.", "SourceDate": "2026-02-04T00:00:00Z", "PlanAccur": null, "Supplier": "Stantec Australia Pty Ltd (3045)", "Shape_Length": 726.11016595856336, "Shape_Area": 5929.3668775955975 }, "geometry": { "type": "MultiPolygon", "coordinates": [ [ [ [ 150.581930375428612, -35.032098800435776 ], [ 150.582001759236192, -35.032152338218751 ], [ 150.582031502138221, -35.032229671012487 ], [ 150.582132629942436, -35.032324848987479 ], [ 150.582204013877401, -35.032360541288405 ], [ 150.582269448979957, -35.032396233044352 ], [ 150.582364627108831, -35.03239028413887 ], [ 150.582436011308687, -35.032348643363115 ], [ 150.582525241039718, -35.032307003098445 ], [ 150.582608521687689, -35.032330797710181 ], [ 150.582668007851879, -35.032354592149723 ], [ 150.582727495242949, -35.032384335343203 ], [ 150.582727495129319, -35.032443822020248 ], [ 150.58266206000215, -35.032491411315071 ], [ 150.582543086092613, -35.032497360285205 ], [ 150.582447908494515, -35.032550897596771 ], [ 150.582447907846529, -35.032586590129029 ], [ 150.582489548549603, -35.032616332849585 ], [ 150.582549035122554, -35.032657973631231 ], [ 150.582608522210847, -35.03272935728176 ], [ 150.582656111494344, -35.032800741733723 ], [ 150.582733443031032, -35.032848330808591 ], [ 150.582781032997076, -35.032818587246638 ], [ 150.582822673082489, -35.032800741584147 ], [ 150.582864313518201, -35.032741254607863 ], [ 150.582864313545542, -35.032681767929439 ], [ 150.582846467559875, -35.03260443536179 ], [ 150.582798878483686, -35.032550898161517 ], [ 150.582798878349394, -35.032479513963075 ], [ 150.582798879078695, -35.032396233166239 ], [ 150.582792930446203, -35.03234864352774 ], [ 150.582786981390939, -35.032277259748767 ], [ 150.582763186733104, -35.032205876352322 ], [ 150.58276913509124, -35.032110697590241 ], [ 150.582727495039791, -35.032045262429882 ], [ 150.582727495038625, -35.031979826988909 ], [ 150.58269180284853, -35.031914392278551 ], [ 150.582668008079793, -35.031825162586209 ], [ 150.582727495186248, -35.031795419084141 ], [ 150.582792090688741, -35.031750603032208 ], [ 150.582916735489107, -35.032388963561104 ], [ 150.583267534770272, -35.033452743223329 ], [ 150.583221976206517, -35.033496562338598 ], [ 150.583179592164697, -35.033466990746454 ], [ 150.582947594587353, -35.033282581928482 ], [ 150.582816725033524, -35.033169557792256 ], [ 150.58272749504178, -35.033110071171208 ], [ 150.58264421331765, -35.032997047046528 ], [ 150.582519291558611, -35.032895919681415 ], [ 150.582447908526632, -35.032806689660092 ], [ 150.582322986656067, -35.032747203399133 ], [ 150.582257550809516, -35.032669871254129 ], [ 150.582245653774578, -35.032539000301874 ], [ 150.582263499879559, -35.032479514236286 ], [ 150.582156424693011, -35.032461667925702 ], [ 150.582073142750431, -35.032414078850643 ], [ 150.581995810038933, -35.032396233129184 ], [ 150.581954170409659, -35.032318900209575 ], [ 150.581894683305762, -35.032283208792869 ], [ 150.581870888604186, -35.032253465633367 ], [ 150.581870889399568, -35.032205876495198 ], [ 150.581864940186165, -35.032152338052761 ], [ 150.581930375428612, -35.032098800435776 ] ] ] ] } },
{ "type": "Feature", "properties": { "OBJECTID_1": 65, "OBJECTID": 76, "Zone_ID": "3", "CONDITION": "Good", "EasternPCT": "3271", "E_PCT_Name": "Shoalhaven Spotted Gum-Blackbutt Moist Forest", "VEG_CLASS": "Southern Lowland Wet Sclerophyll Forests", "BC_Act": "-", "EPBC_Act": "-", "Area_ha": 4.49077862562, "Area_m2": 44907.786256200001, "Comments": null, "ECMLink": null, "FSource": "Derived from field observations and aerial imagery.", "SourceDate": "2026-02-04T00:00:00Z", "PlanAccur": null, "Supplier": "Stantec Australia Pty Ltd (3045)", "Shape_Length": 1549.6021597150889, "Shape_Area": 44907.786256227446 }, "geometry": { "type": "MultiPolygon", "coordinates": [ [ [ [ 150.583233972147298, -35.039528433844467 ], [ 150.582216429067813, -35.041052150742722 ], [ 150.582155960089807, -35.041142700409118 ], [ 150.581956950470186, -35.041440702210387 ], [ 150.581849445095003, -35.041601680715118 ], [ 150.581802724660093, -35.041668213550132 ], [ 150.581617272126977, -35.041932314252328 ], [ 150.580808193404465, -35.043084481816031 ], [ 150.578989740369735, -35.042641163549312 ], [ 150.579033381438848, -35.042568428730355 ], [ 150.579134508775837, -35.042479199082415 ], [ 150.579211841744581, -35.042389969392488 ], [ 150.579265378555561, -35.042324533750111 ], [ 150.579378403325023, -35.042205560584847 ], [ 150.579479530901125, -35.042116331533421 ], [ 150.579580658108114, -35.042033050228611 ], [ 150.579699631119013, -35.041931922715591 ], [ 150.579818604279126, -35.041812949744276 ], [ 150.579907834069985, -35.041717771185191 ], [ 150.580014908953189, -35.041628541358172 ], [ 150.580104139272038, -35.041539311400413 ], [ 150.580193368627562, -35.041485773834246 ], [ 150.580235009035277, -35.041485773630342 ], [ 150.580336136625988, -35.041414390058733 ], [ 150.58040157183629, -35.04130136603505 ], [ 150.580562185595682, -35.041241879484836 ], [ 150.580609774672723, -35.04128946882787 ], [ 150.580710901690054, -35.041295416837826 ], [ 150.580776337240877, -35.041271622922736 ], [ 150.580859617892003, -35.041182392672404 ], [ 150.580936950928162, -35.041099111451508 ], [ 150.581067821148054, -35.04098608707767 ], [ 150.581168947904729, -35.040855217074977 ], [ 150.58133551031051, -35.040712449345826 ], [ 150.581448535086906, -35.040623219663878 ], [ 150.581579404768547, -35.040551835937102 ], [ 150.581692429046427, -35.040468554755449 ], [ 150.58182924779112, -35.040343632543809 ], [ 150.581876837078994, -35.040266300349025 ], [ 150.581936324148501, -35.040183018646687 ], [ 150.582007707896366, -35.04013542955294 ], [ 150.582138578324191, -35.04002240575123 ], [ 150.582263500245517, -35.039945072896124 ], [ 150.582388421286623, -35.03993317525412 ], [ 150.582507394947129, -35.039915330058989 ], [ 150.582602573122387, -35.039915329905803 ], [ 150.582556504479015, -35.039974195611755 ], [ 150.582647188142118, -35.039980764928806 ], [ 150.582748315179629, -35.0399212785413 ], [ 150.582784006909861, -35.039867740890386 ], [ 150.582849442421463, -35.039802305448639 ], [ 150.58293867153742, -35.039760665072841 ], [ 150.582992209623512, -35.039659537875643 ], [ 150.583105234762769, -35.039522718353659 ], [ 150.583134978047354, -35.039421591900634 ], [ 150.583224207035983, -35.039403745409359 ], [ 150.583295591327328, -35.03934425892718 ], [ 150.583353191737132, -35.039349906047832 ], [ 150.583233972147298, -35.039528433844467 ] ], [ [ 150.58182329989117, -35.041271622591438 ], [ 150.581781659457732, -35.041348955283659 ], [ 150.581817351293324, -35.041402492742662 ], [ 150.581885760351696, -35.041325160179454 ], [ 150.581903606836335, -35.041229981792299 ], [ 150.581927400564354, -35.041021779458269 ], [ 150.58193929846081, -35.040890908931779 ], [ 150.581980938424977, -35.040765987063196 ], [ 150.582082065706288, -35.040652962519736 ], [ 150.582129654908982, -35.040557783974101 ], [ 150.582206987212714, -35.040492349034942 ], [ 150.582260525591863, -35.040385273454937 ], [ 150.58230216598696, -35.040284146464778 ], [ 150.582349755829085, -35.040194916582074 ], [ 150.582364626882253, -35.040123532374437 ], [ 150.582263499522412, -35.040224659680014 ], [ 150.582144527024496, -35.040403119116462 ], [ 150.582061245399728, -35.040528040986551 ], [ 150.581983912978984, -35.040623219578542 ], [ 150.581888735131571, -35.040742192434585 ], [ 150.5818173507094, -35.040861165525932 ], [ 150.581817350604979, -35.041003932815343 ], [ 150.581817350510249, -35.041111008505602 ], [ 150.58182329989117, -35.041271622591438 ] ] ] ] } },
{ "type": "Feature", "properties": { "OBJECTID_1": 69, "OBJECTID": 53, "Zone_ID": "3", "CONDITION": "Good", "EasternPCT": "3271", "E_PCT_Name": "Shoalhaven Spotted Gum-Blackbutt Moist Forest", "VEG_CLASS": "Southern Lowland Wet Sclerophyll Forests", "BC_Act": "-", "EPBC_Act": "-", "Area_ha": 1.21793102834, "Area_m2": 12179.3102834, "Comments": null, "ECMLink": null, "FSource": "Derived from field observations and aerial imagery.", "SourceDate": "2026-02-04T00:00:00Z", "PlanAccur": null, "Supplier": "Stantec Australia Pty Ltd (3045)", "Shape_Length": 959.9237557115548, "Shape_Area": 12179.31028338623 }, "geometry": { "type": "MultiPolygon", "coordinates": [ [ [ [ 150.577166101282586, -35.028148019006949 ], [ 150.578887243173199, -35.028495106811491 ], [ 150.578934831816611, -35.028548644566982 ], [ 150.578982420978122, -35.028625977337029 ], [ 150.57903595955321, -35.028804436897317 ], [ 150.579101394617254, -35.028893666389564 ], [ 150.579143035604858, -35.028965050604619 ], [ 150.579172778341643, -35.029078074780593 ], [ 150.57913708691936, -35.029143509911904 ], [ 150.579047857043861, -35.029179201679206 ], [ 150.578934832097957, -35.029185150564651 ], [ 150.578827756085786, -35.029143509976223 ], [ 150.578673091765722, -35.029107818107583 ], [ 150.578566015807212, -35.029072126047666 ], [ 150.578470837454091, -35.029030485609816 ], [ 150.578351864658288, -35.029018587927006 ], [ 150.578209097235771, -35.028976947185789 ], [ 150.578226942707005, -35.028929358325321 ], [ 150.57826858323719, -35.028899614897021 ], [ 150.578298326776746, -35.028828231504114 ], [ 150.578304274888524, -35.02878064214886 ], [ 150.578268583137401, -35.028715207118374 ], [ 150.578173404694354, -35.028661668946143 ], [ 150.578090124071053, -35.028596233702785 ], [ 150.578018739872562, -35.028584336778479 ], [ 150.57794735635008, -35.028584336432466 ], [ 150.577810536696518, -35.028614080071833 ], [ 150.577733204270402, -35.028620028534988 ], [ 150.57762612894291, -35.028620028196542 ], [ 150.57745956620596, -35.028620028561321 ], [ 150.577411977153361, -35.028572438990594 ], [ 150.577447668806826, -35.028477260624392 ], [ 150.577489310245141, -35.028477260346975 ], [ 150.577590436615907, -35.028429671846673 ], [ 150.577739153361222, -35.028423723093461 ], [ 150.577768896443331, -35.028370185183064 ], [ 150.57767371831261, -35.028352339159362 ], [ 150.577542847999496, -35.028322595701582 ], [ 150.577447669174518, -35.028322595748641 ], [ 150.57732274758871, -35.028292852788141 ], [ 150.577108595541404, -35.028227416800725 ], [ 150.576918238746515, -35.028215519554912 ], [ 150.576781420169851, -35.028209571347169 ], [ 150.576650550109662, -35.028185776594526 ], [ 150.576519679797286, -35.028167930449023 ], [ 150.576412603912928, -35.02815008458532 ], [ 150.576275784454566, -35.028161982046868 ], [ 150.576216298637149, -35.028233365489719 ], [ 150.576222247009611, -35.028328544498571 ], [ 150.57618060574012, -35.028399928461447 ], [ 150.576138965490742, -35.028435619920089 ], [ 150.57613301693641, -35.028578387354244 ], [ 150.576150863212405, -35.028661668659687 ], [ 150.576174657435388, -35.028774693597221 ], [ 150.576162760206188, -35.028846077022123 ], [ 150.576079479554267, -35.028857974188597 ], [ 150.575996197418903, -35.028857974667496 ], [ 150.57587722542138, -35.028810384781544 ], [ 150.575853430632719, -35.028762796040716 ], [ 150.575835583980734, -35.02865572058947 ], [ 150.575829635281195, -35.028572439069713 ], [ 150.575829635250045, -35.028471312107982 ], [ 150.575811789332874, -35.028388030767836 ], [ 150.57581178969815, -35.028280955060978 ], [ 150.575829635138149, -35.028167930312627 ], [ 150.575835583868013, -35.028114393265838 ], [ 150.575871275970144, -35.028037060753768 ], [ 150.575873948924169, -35.027943236772217 ], [ 150.576501732942177, -35.028044999045498 ], [ 150.576658663144201, -35.028070436089855 ], [ 150.577167089312439, -35.028152860669493 ], [ 150.577166101282586, -35.028148019006949 ] ] ] ] } },
{ "type": "Feature", "properties": { "OBJECTID_1": 82, "OBJECTID": 0, "Zone_ID": "3", "CONDITION": "Good", "EasternPCT": "3271", "E_PCT_Name": "Shoalhaven Spotted Gum-Blackbutt Moist Forest", "VEG_CLASS": "Southern Lowland Wet Sclerophyll Forests", "BC_Act": "-", "EPBC_Act": "-", "Area_ha": 0.201590283101, "Area_m2": 2015.90283101, "Comments": null, "ECMLink": null, "FSource": "Derived from field observations and aerial imagery.", "SourceDate": "2026-02-04T00:00:00Z", "PlanAccur": null, "Supplier": "Stantec Australia Pty Ltd (3045)", "Shape_Length": 559.77594589306636, "Shape_Area": 2015.9028310134192 }, "geometry": { "type": "MultiPolygon", "coordinates": [ [ [ [ 150.572225806665443, -35.022662150901141 ], [ 150.572331261217244, -35.022617610102074 ], [ 150.5724383364674, -35.022593815449682 ], [ 150.572598949602934, -35.02258191784842 ], [ 150.572771460935911, -35.022528379797798 ], [ 150.57290828003363, -35.022528379991869 ], [ 150.573080791504793, -35.022528380260049 ], [ 150.57317596899469, -35.022516482370321 ], [ 150.573324685527979, -35.022516483058929 ], [ 150.573532888887513, -35.022534329075462 ], [ 150.573752988655428, -35.022540277218873 ], [ 150.573860064621527, -35.022528379719304 ], [ 150.573955242806392, -35.022546225894061 ], [ 150.57408611294619, -35.022570020672127 ], [ 150.574258624247307, -35.022587866421638 ], [ 150.574454929754125, -35.022587866435245 ], [ 150.574651235033144, -35.022605712387467 ], [ 150.57482374628583, -35.022581917859156 ], [ 150.574907027476002, -35.022581918035293 ], [ 150.575037898146434, -35.02258786644019 ], [ 150.575156870793364, -35.022570020705665 ], [ 150.575186614485233, -35.022593815398039 ], [ 150.575175766698294, -35.022648049600569 ], [ 150.575083348038419, -35.022640530818002 ], [ 150.574745183810279, -35.022642329766484 ], [ 150.574371003786069, -35.022630560757555 ], [ 150.574132115795891, -35.022617228180657 ], [ 150.573908698263807, -35.022608476615581 ], [ 150.573737272452178, -35.022600769198341 ], [ 150.573446144631106, -35.022594943334525 ], [ 150.57312345196047, -35.022601328330843 ], [ 150.57282624788877, -35.022625331390344 ], [ 150.572559716526769, -35.022667067267932 ], [ 150.57224564276396, -35.022733529094147 ], [ 150.572237338133249, -35.02273580222289 ], [ 150.572236036788297, -35.022727486326858 ], [ 150.572225806665443, -35.022662150901141 ] ] ] ] } },
{ "type": "Feature", "properties": { "OBJECTID_1": 84, "OBJECTID": 0, "Zone_ID": "4", "CONDITION": "Low", "EasternPCT": "3271", "E_PCT_Name": "Shoalhaven Spotted Gum-Blackbutt Moist Forest", "VEG_CLASS": "Southern Lowland Wet Sclerophyll Forests", "BC_Act": "-", "EPBC_Act": "-", "Area_ha": 0.79941552530799997, "Area_m2": 7994.15525308, "Comments": null, "ECMLink": null, "FSource": "Derived from field observations and aerial imagery.", "SourceDate": "2026-02-04T00:00:00Z", "PlanAccur": null, "Supplier": "Stantec Australia Pty Ltd (3045)", "Shape_Length": 528.50006571029542, "Shape_Area": 7994.1552530799927 }, "geometry": { "type": "MultiPolygon", "coordinates": [ [ [ [ 150.578353653961187, -35.041112549178308 ], [ 150.578371522890905, -35.041189600570299 ], [ 150.578419111664687, -35.041213394862517 ], [ 150.578526188002201, -35.04124313858442 ], [ 150.578603520466402, -35.041260983949151 ], [ 150.578668955569185, -35.041290727175415 ], [ 150.578752236023774, -35.041350214338401 ], [ 150.578829568382048, -35.041403752029268 ], [ 150.57894259273391, -35.041457290139483 ], [ 150.578987558332727, -35.041451804652198 ], [ 150.578971793968435, -35.04155921006376 ], [ 150.578967749015362, -35.041586776229622 ], [ 150.578877158033833, -35.041558416749616 ], [ 150.578805774389963, -35.041522725105509 ], [ 150.578692750047509, -35.04146918686817 ], [ 150.578597571364469, -35.041439443782473 ], [ 150.578490495679716, -35.041439443853818 ], [ 150.578347727437546, -35.041504879373299 ], [ 150.57825849824772, -35.041552468615571 ], [ 150.578258498381018, -35.041647646718253 ], [ 150.578312035634582, -35.041701184582251 ], [ 150.578365573742559, -35.041736876208738 ], [ 150.578478598276462, -35.041736876960933 ], [ 150.578579725251672, -35.041724979624064 ], [ 150.578674903736356, -35.041713081514267 ], [ 150.578781979822793, -35.041683338473462 ], [ 150.578895003649279, -35.041641698508727 ], [ 150.578958951549083, -35.04164671815446 ], [ 150.578937012816283, -35.041796194992692 ], [ 150.578751572261865, -35.042010819135214 ], [ 150.578719911683521, -35.042047461481012 ], [ 150.578605496191955, -35.042179880391778 ], [ 150.577753445683499, -35.041934568003903 ], [ 150.577922059006681, -35.041076887203658 ], [ 150.578353653961187, -35.041112549178308 ] ] ] ] } }
]
}
