{
"type": "FeatureCollection",
"name": "JBR2HR_EasternPCT_3588",
"crs": { "type": "name", "properties": { "name": "urn:ogc:def:crs:OGC:1.3:CRS84" } },
"xy_coordinate_resolution": 1e-15,
"features": [
{ "type": "Feature", "properties": { "OBJECTID_1": 5, "OBJECTID": 10, "Zone_ID": "7", "CONDITION": "Moderate", "EasternPCT": "3588", "E_PCT_Name": "Shoalhaven Foothills Bloodwood Heathy Forest", "VEG_CLASS": "Sydney Coastal Dry Sclerophyll Forests", "BC_Act": "-", "EPBC_Act": "-", "Area_ha": 0.90904002743099999, "Area_m2": 9090.4002743100009, "Comments": null, "ECMLink": null, "FSource": "Derived from field observations and aerial imagery.", "SourceDate": "2026-02-04T00:00:00Z", "PlanAccur": null, "Supplier": "Stantec Australia Pty Ltd (3045)", "Shape_Length": 630.59778771821777, "Shape_Area": 9090.4006558980873 }, "geometry": { "type": "MultiPolygon", "coordinates": [ [ [ [ 150.585256984039887, -34.988191706990882 ], [ 150.585191548191005, -34.98841181020655 ], [ 150.585173702870122, -34.988489142808689 ], [ 150.5851737030994, -34.988513999933225 ], [ 150.585093924994055, -34.988829900770298 ], [ 150.585075640464652, -34.988902304388645 ], [ 150.585061021532198, -34.988960191574819 ], [ 150.584988243741947, -34.989248375321345 ], [ 150.584959550926726, -34.989232724472942 ], [ 150.584894115751752, -34.989220827131717 ], [ 150.584798937670911, -34.98919703242094 ], [ 150.584685913065726, -34.989197032761538 ], [ 150.584608580861641, -34.989214878617894 ], [ 150.584531247946302, -34.989238673205648 ], [ 150.584477709916541, -34.989274364847311 ], [ 150.584477710075788, -34.989339800699788 ], [ 150.584477710372425, -34.989375492577132 ], [ 150.584472691815307, -34.989438902982762 ], [ 150.584207350566629, -34.989399354789391 ], [ 150.58419217515123, -34.989321954507062 ], [ 150.58418622591546, -34.989286262285056 ], [ 150.584192174727889, -34.989232724374794 ], [ 150.584227866554954, -34.989161340871284 ], [ 150.58423381583134, -34.989131597246327 ], [ 150.584257609664178, -34.989095905811851 ], [ 150.584305199542058, -34.989089957016837 ], [ 150.584317096439463, -34.989072111292316 ], [ 150.584287352723351, -34.989030470742541 ], [ 150.584287352799635, -34.9889828812817 ], [ 150.584293302309419, -34.988941240967414 ], [ 150.584299250215651, -34.988875805438191 ], [ 150.584323045034751, -34.988840114007118 ], [ 150.584376583402388, -34.98878062725079 ], [ 150.584376583418276, -34.988733037786041 ], [ 150.584323045176745, -34.988697345616927 ], [ 150.584352788021306, -34.988631910519658 ], [ 150.584370634674713, -34.988578373267075 ], [ 150.584424171911678, -34.988584321414464 ], [ 150.584483658729994, -34.988614065067168 ], [ 150.584519350359329, -34.988655704978093 ], [ 150.58458478561036, -34.988691397698467 ], [ 150.584656170177112, -34.988744935301156 ], [ 150.584721605169136, -34.98874493516675 ], [ 150.58479893732337, -34.988703294941878 ], [ 150.58482868026573, -34.988673551599902 ], [ 150.584834629248576, -34.988614064850765 ], [ 150.584911961222616, -34.988572424545644 ], [ 150.584965499972185, -34.988554578198645 ], [ 150.5849714485623, -34.988477245942441 ], [ 150.584941704453996, -34.988417759148952 ], [ 150.584929807202684, -34.9883701699708 ], [ 150.584858424342457, -34.988352324443504 ], [ 150.584763245522623, -34.988364221587268 ], [ 150.584727553245244, -34.988388015792687 ], [ 150.584679964444433, -34.988417759069542 ], [ 150.584590734634787, -34.988370170237033 ], [ 150.584590734561772, -34.988292837684241 ], [ 150.584602631607396, -34.988203608173023 ], [ 150.584572888650001, -34.988185761991978 ], [ 150.584525298894562, -34.988185762110163 ], [ 150.584483658735394, -34.988132224287071 ], [ 150.58448365825069, -34.988078686010354 ], [ 150.584501505122006, -34.988031096629648 ], [ 150.584543145320623, -34.987947815729875 ], [ 150.584543145689651, -34.98787643197916 ], [ 150.584566939962855, -34.987793151002798 ], [ 150.584578837517029, -34.987757458866646 ], [ 150.5845728884739, -34.987680125981448 ], [ 150.5846145292046, -34.98766822882061 ], [ 150.584644271991039, -34.987686074985568 ], [ 150.584685913374784, -34.987727715184313 ], [ 150.584775142321291, -34.987757458430096 ], [ 150.584864372164219, -34.987769356138649 ], [ 150.584911962212772, -34.987805047771026 ], [ 150.584995242801909, -34.987840740258903 ], [ 150.585019037802113, -34.987900226732989 ], [ 150.584977396359648, -34.987918072814544 ], [ 150.584977396746751, -34.987965661398356 ], [ 150.585001191284391, -34.988019199970346 ], [ 150.585042832195199, -34.988078686434505 ], [ 150.585102318152622, -34.988084634575529 ], [ 150.585167753235879, -34.988078686294863 ], [ 150.585209394277712, -34.988096532025381 ], [ 150.58523913801119, -34.988150069952276 ], [ 150.585256984039887, -34.988191706990882 ] ] ] ] } },
{ "type": "Feature", "properties": { "OBJECTID_1": 13, "OBJECTID": 22, "Zone_ID": "7", "CONDITION": "Moderate", "EasternPCT": "3588", "E_PCT_Name": "Shoalhaven Foothills Bloodwood Heathy Forest", "VEG_CLASS": "Sydney Coastal Dry Sclerophyll Forests", "BC_Act": "-", "EPBC_Act": "-", "Area_ha": 1.38499284024, "Area_m2": 13849.928402400001, "Comments": null, "ECMLink": null, "FSource": "Derived from field observations and aerial imagery.", "SourceDate": "2026-02-04T00:00:00Z", "PlanAccur": null, "Supplier": "Stantec Australia Pty Ltd (3045)", "Shape_Length": 786.17414937689875, "Shape_Area": 13849.92840235266 }, "geometry": { "type": "MultiPolygon", "coordinates": [ [ [ [ 150.585230913624144, -34.994722891087342 ], [ 150.58522496487285, -34.994776429015765 ], [ 150.585230914163304, -34.994818069971117 ], [ 150.585242810578535, -34.994871606975217 ], [ 150.585248759183742, -34.994889453648668 ], [ 150.585318868092344, -34.994932539161283 ], [ 150.585239700531105, -34.99530096240256 ], [ 150.585171427215187, -34.995323705261697 ], [ 150.585147632667486, -34.99534155132848 ], [ 150.585159530380224, -34.995383191681398 ], [ 150.585211601973924, -34.99543174265429 ], [ 150.585042040411565, -34.996220847966988 ], [ 150.58510706839445, -34.996230872992108 ], [ 150.585104466497228, -34.996237697607185 ], [ 150.585048780757404, -34.996394902447591 ], [ 150.585030935277445, -34.996394902427888 ], [ 150.584977397042138, -34.996478183581637 ], [ 150.584959550674313, -34.996543618425207 ], [ 150.584923859160142, -34.99661500202545 ], [ 150.584911961921449, -34.996722077814972 ], [ 150.584953602252313, -34.996763718849373 ], [ 150.58501308905295, -34.996817256595698 ], [ 150.585007139840883, -34.996900537532454 ], [ 150.584911962132139, -34.996930280965607 ], [ 150.584870321460187, -34.996900537489694 ], [ 150.584792988934538, -34.996876743562353 ], [ 150.584679964626872, -34.996858897314013 ], [ 150.584614528965119, -34.996846999698668 ], [ 150.584549094339764, -34.996817256601744 ], [ 150.584489607246638, -34.996805359253067 ], [ 150.584447967261667, -34.996817256274177 ], [ 150.584376582894038, -34.996888640338966 ], [ 150.584323045455847, -34.996948126938229 ], [ 150.584287352794348, -34.996906486021302 ], [ 150.584251661606942, -34.996817256613873 ], [ 150.584293302302513, -34.996710180850265 ], [ 150.584328994024787, -34.996615002295606 ], [ 150.584400378104249, -34.996507926410381 ], [ 150.584412274947965, -34.996436542510004 ], [ 150.584436069630755, -34.996293775623684 ], [ 150.584471761050764, -34.996216442476729 ], [ 150.584513401932554, -34.996139110570439 ], [ 150.584465813264245, -34.996091521172289 ], [ 150.584465812913777, -34.995984445648425 ], [ 150.584477709880076, -34.995883317785228 ], [ 150.584501504837675, -34.99580003697556 ], [ 150.584543144844275, -34.995663218029087 ], [ 150.584596682615455, -34.995591834628243 ], [ 150.584602632176171, -34.995526399181117 ], [ 150.584614529241435, -34.995431220987513 ], [ 150.584656169479899, -34.9953360417258 ], [ 150.584650220697625, -34.995217069182175 ], [ 150.584697810416884, -34.995092147189638 ], [ 150.584769193515427, -34.995062404393842 ], [ 150.584822731408565, -34.995032660614562 ], [ 150.584864372031006, -34.994996969189891 ], [ 150.584846526816733, -34.994949379724048 ], [ 150.584757297017575, -34.994860150268174 ], [ 150.584769193633633, -34.994747125661405 ], [ 150.584769194440696, -34.994663844397927 ], [ 150.584804885820404, -34.994586512015061 ], [ 150.584816783403767, -34.994473487416471 ], [ 150.5848524752613, -34.994342616797894 ], [ 150.584923859048672, -34.99427123326317 ], [ 150.585013088944351, -34.994277182208236 ], [ 150.585092773281616, -34.994303994904811 ], [ 150.585073406643858, -34.994395423138108 ], [ 150.585042245031616, -34.994513987899523 ], [ 150.585042245605479, -34.994597269197939 ], [ 150.585066039893718, -34.994638910160717 ], [ 150.585125526182196, -34.994704345410831 ], [ 150.585230913624144, -34.994722891087342 ] ], [ [ 150.584996257690307, -34.99475963147993 ], [ 150.584974294746047, -34.994863314860488 ], [ 150.584998916130644, -34.99485971045771 ], [ 150.585028659387433, -34.994847812616868 ], [ 150.58502865969524, -34.994776428922997 ], [ 150.584996257690307, -34.99475963147993 ] ], [ [ 150.584865982465658, -34.995374637264625 ], [ 150.584850049539227, -34.995449855067925 ], [ 150.584885892168984, -34.995430780388823 ], [ 150.58490373743814, -34.99543078042133 ], [ 150.584897789117065, -34.995401037057661 ], [ 150.584865982465658, -34.995374637264625 ] ] ] ] } },
{ "type": "Feature", "properties": { "OBJECTID_1": 14, "OBJECTID": 23, "Zone_ID": "7", "CONDITION": "Moderate", "EasternPCT": "3588", "E_PCT_Name": "Shoalhaven Foothills Bloodwood Heathy Forest", "VEG_CLASS": "Sydney Coastal Dry Sclerophyll Forests", "BC_Act": "-", "EPBC_Act": "-", "Area_ha": 1.5413061721200001, "Area_m2": 15413.0617212, "Comments": null, "ECMLink": null, "FSource": "Derived from field observations and aerial imagery.", "SourceDate": "2026-02-04T00:00:00Z", "PlanAccur": null, "Supplier": "Stantec Australia Pty Ltd (3045)", "Shape_Length": 1515.1543608609791, "Shape_Area": 15413.06172123032 }, "geometry": { "type": "MultiPolygon", "coordinates": [ [ [ [ 150.586451650948902, -34.996438144778175 ], [ 150.586199663576679, -34.997618117868683 ], [ 150.586078748894778, -34.998195445756409 ], [ 150.58574523355648, -34.999835559766964 ], [ 150.585718703413335, -34.999731656867567 ], [ 150.585742497347127, -34.999690015554748 ], [ 150.585766292241601, -34.999576991490287 ], [ 150.585766292110435, -34.999547248443214 ], [ 150.585772240758899, -34.999475864152927 ], [ 150.585807932643007, -34.9993449942572 ], [ 150.585837676038494, -34.999231969541619 ], [ 150.585837676037528, -34.999190328916036 ], [ 150.585843624883893, -34.99913679098983 ], [ 150.585861470615924, -34.999077304813163 ], [ 150.585861470756839, -34.99902376660976 ], [ 150.585831727150264, -34.998994023985844 ], [ 150.585790087482508, -34.998952383246369 ], [ 150.585718702754519, -34.998916690748835 ], [ 150.58564731961178, -34.998886947932917 ], [ 150.585617576702361, -34.99889289620652 ], [ 150.585641370855626, -34.998928588271767 ], [ 150.585688960201395, -34.998970229363465 ], [ 150.585748447000611, -34.999011869196572 ], [ 150.585766292853236, -34.999065407334811 ], [ 150.585730600541837, -34.99907730503223 ], [ 150.58567706225196, -34.999047561246144 ], [ 150.585623525354237, -34.999035663833013 ], [ 150.585558089999012, -34.999023766698137 ], [ 150.585480756806646, -34.998976178000902 ], [ 150.58545696208904, -34.998976177728039 ], [ 150.585355835617378, -34.998976177213812 ], [ 150.585337990025465, -34.998922639927066 ], [ 150.585349886531134, -34.998880998985719 ], [ 150.585397476133494, -34.998869101992639 ], [ 150.58545696201702, -34.998886947691105 ], [ 150.585474808001834, -34.998857204624308 ], [ 150.585474808173501, -34.998815564003863 ], [ 150.585403424777468, -34.998779872253117 ], [ 150.585343938551574, -34.99875607773393 ], [ 150.585302297256845, -34.998732283168174 ], [ 150.585248759776078, -34.998708488004468 ], [ 150.585123837887124, -34.998708487874083 ], [ 150.585028659015961, -34.998720385861006 ], [ 150.584998916257689, -34.99874418035224 ], [ 150.584957276143314, -34.998767975101053 ], [ 150.584933480756206, -34.998821512908769 ], [ 150.584921583436255, -34.998821512269672 ], [ 150.584915634749819, -34.998821512850618 ], [ 150.584897789206792, -34.998779872181089 ], [ 150.584909686602572, -34.99873228251554 ], [ 150.584897789434251, -34.998702539737536 ], [ 150.58487994292858, -34.998678745411979 ], [ 150.584885891670325, -34.998631155426388 ], [ 150.584897789151853, -34.998601412128444 ], [ 150.584992967308722, -34.998613310284149 ], [ 150.585064351324917, -34.998631155916627 ], [ 150.585117888808412, -34.998625207215234 ], [ 150.58520711925874, -34.998649001589435 ], [ 150.585272554043456, -34.998643053429859 ], [ 150.58529634913657, -34.998619258587489 ], [ 150.58536773300068, -34.998619258573036 ], [ 150.585385578980549, -34.998649001608456 ], [ 150.585403425168323, -34.998666847968295 ], [ 150.585486705985062, -34.998690642725002 ], [ 150.585546192613322, -34.998690642023952 ], [ 150.585653268490319, -34.998690642670603 ], [ 150.585754395284738, -34.99868469324425 ], [ 150.585796035279259, -34.998649001534567 ], [ 150.585825778877023, -34.998625206858435 ], [ 150.585926906034842, -34.998625206984919 ], [ 150.58597449566733, -34.998589515500818 ], [ 150.585992341053981, -34.998541925968382 ], [ 150.585980443441656, -34.998470541746919 ], [ 150.585980443590785, -34.998405106858229 ], [ 150.585974494972277, -34.998351569280544 ], [ 150.585974495011044, -34.998298031068281 ], [ 150.585879316678756, -34.998268288214909 ], [ 150.585813881750653, -34.998268287916595 ], [ 150.585724652282579, -34.998268288271944 ], [ 150.585665165067127, -34.998256390573687 ], [ 150.585629473547243, -34.99820285247629 ], [ 150.585641370665911, -34.998173109990894 ], [ 150.585683011687451, -34.998167160481728 ], [ 150.585712754960809, -34.998155263402879 ], [ 150.585749357153702, -34.998147804607676 ], [ 150.585786414141893, -34.998060525311089 ], [ 150.585750721376598, -34.998060524533955 ], [ 150.585703132962607, -34.997983192551075 ], [ 150.585703132530426, -34.997935603120865 ], [ 150.585732875727558, -34.997882065401505 ], [ 150.585709081028739, -34.997822579083291 ], [ 150.585667440605562, -34.997763091922202 ], [ 150.585619851606992, -34.997703606268459 ], [ 150.5856198509384, -34.997638170461201 ], [ 150.58561390315657, -34.997620324724693 ], [ 150.585596057206885, -34.997560837769619 ], [ 150.585554416510291, -34.997495402677515 ], [ 150.585554416410559, -34.997465659624247 ], [ 150.585613903099727, -34.997435916722324 ], [ 150.585643645827616, -34.99740617327091 ], [ 150.585643645450148, -34.997316943204659 ], [ 150.585607954593513, -34.997281251488452 ], [ 150.585578210309762, -34.997233662424478 ], [ 150.585625799772828, -34.997162278308274 ], [ 150.585679338269557, -34.997209867574206 ], [ 150.585703132470996, -34.997251508417811 ], [ 150.585780464706147, -34.997305045725042 ], [ 150.585822105423858, -34.997328841008823 ], [ 150.585863746264437, -34.997299097160891 ], [ 150.585935130441072, -34.997263405849587 ], [ 150.585994617019281, -34.997275302488546 ], [ 150.586048154032852, -34.997275303038613 ], [ 150.58608979496131, -34.997221764847474 ], [ 150.586083846530755, -34.99714443210415 ], [ 150.586018411121387, -34.997114688869232 ], [ 150.585935130106037, -34.997138483929028 ], [ 150.585875643522513, -34.997138483943921 ], [ 150.585839951194686, -34.997180124748816 ], [ 150.585780464583763, -34.99718012471579 ], [ 150.585715029266481, -34.997150381320623 ], [ 150.585661492050463, -34.997090894513903 ], [ 150.585596057306731, -34.997067099858832 ], [ 150.585584159634067, -34.997031408340384 ], [ 150.585530621116334, -34.99699571661619 ], [ 150.585494929719204, -34.99700761338223 ], [ 150.585483031874361, -34.997055203119736 ], [ 150.585459237413914, -34.997108740177623 ], [ 150.585429494086327, -34.997144432364514 ], [ 150.5853402645144, -34.997126586989943 ], [ 150.585310521319968, -34.997061151513769 ], [ 150.58529862399655, -34.997013562395722 ], [ 150.585262932118866, -34.996960024190351 ], [ 150.585274829847577, -34.996924332055087 ], [ 150.585251034626964, -34.996864845641426 ], [ 150.585304573109084, -34.996829153799737 ], [ 150.585381905080055, -34.99685889708396 ], [ 150.585411648208435, -34.996894589490239 ], [ 150.585471135273764, -34.996888640016806 ], [ 150.585506826907078, -34.996823205043881 ], [ 150.585488980595272, -34.996799410810681 ], [ 150.585435442785524, -34.99679941090551 ], [ 150.585352161894178, -34.996763718564551 ], [ 150.585346213528624, -34.996722078541779 ], [ 150.585322419210399, -34.99667448883887 ], [ 150.585310521701388, -34.996609053344194 ], [ 150.585399751029314, -34.99657336140892 ], [ 150.585435443462472, -34.996519824050772 ], [ 150.585429494367645, -34.996454388850999 ], [ 150.58541759696746, -34.996377056684942 ], [ 150.585439035805706, -34.996287478007417 ], [ 150.585439351693623, -34.996282097117437 ], [ 150.586451650948902, -34.996438144778175 ] ], [ [ 150.58569718346925, -34.996787513240811 ], [ 150.585679338057957, -34.996817256371187 ], [ 150.585637697581262, -34.996835102586211 ], [ 150.585607954328651, -34.996841050867751 ], [ 150.585602005126987, -34.996888640001139 ], [ 150.585685286094787, -34.996936229758504 ], [ 150.58577451677408, -34.996942178217459 ], [ 150.585887541125828, -34.996942177979349 ], [ 150.585958924263167, -34.99692433209831 ], [ 150.586054102970081, -34.996924332714457 ], [ 150.586083846632448, -34.996870794898442 ], [ 150.585964873125562, -34.996835102296366 ], [ 150.585958924694353, -34.996769667129357 ], [ 150.585887540875945, -34.99671018051162 ], [ 150.585786414161078, -34.996686386145505 ], [ 150.58572097843907, -34.996674489126008 ], [ 150.585667440862522, -34.996704232385056 ], [ 150.585679338367839, -34.996751821476018 ], [ 150.58569718346925, -34.996787513240811 ] ] ] ] } },
{ "type": "Feature", "properties": { "OBJECTID_1": 15, "OBJECTID": 26, "Zone_ID": "7", "CONDITION": "Moderate", "EasternPCT": "3588", "E_PCT_Name": "Shoalhaven Foothills Bloodwood Heathy Forest", "VEG_CLASS": "Sydney Coastal Dry Sclerophyll Forests", "BC_Act": "-", "EPBC_Act": "-", "Area_ha": 0.44110808183599998, "Area_m2": 4411.0808183600002, "Comments": null, "ECMLink": null, "FSource": "Derived from field observations and aerial imagery.", "SourceDate": "2026-02-04T00:00:00Z", "PlanAccur": null, "Supplier": "Stantec Australia Pty Ltd (3045)", "Shape_Length": 502.14875146834163, "Shape_Area": 4411.0808183616118 }, "geometry": { "type": "MultiPolygon", "coordinates": [ [ [ [ 150.58386499909011, -34.998976617051575 ], [ 150.583835255479073, -34.998952822739227 ], [ 150.583817409480872, -34.998893336454124 ], [ 150.583835255208982, -34.998827900915082 ], [ 150.583876896311779, -34.998756517185058 ], [ 150.583876896495383, -34.998661339300682 ], [ 150.583864998744673, -34.998554263086483 ], [ 150.583930433564291, -34.998470982320107 ], [ 150.583972074145521, -34.998375803388292 ], [ 150.58399586962139, -34.998238984555577 ], [ 150.584001817591115, -34.99813190853159 ], [ 150.58400181780425, -34.997983192448174 ], [ 150.584037509334337, -34.997905860374381 ], [ 150.58409104738584, -34.997804733323619 ], [ 150.584091048030558, -34.997703605741343 ], [ 150.584114842571807, -34.99761437625083 ], [ 150.584156482463698, -34.997501351753527 ], [ 150.584204072262935, -34.997394275502842 ], [ 150.584204072001768, -34.997263405753543 ], [ 150.584192174981155, -34.997174175927277 ], [ 150.584227866680521, -34.997108740457435 ], [ 150.584287353212659, -34.997126586715751 ], [ 150.584346840169871, -34.997168227208284 ], [ 150.584394428654235, -34.997221764541663 ], [ 150.584412274758648, -34.99728125165997 ], [ 150.584352787828436, -34.997400224891869 ], [ 150.584287353247333, -34.997483505929978 ], [ 150.584287353245685, -34.997626273249935 ], [ 150.584293301439232, -34.997745246654894 ], [ 150.584311147948, -34.997810681679717 ], [ 150.584376583247177, -34.997822578563813 ], [ 150.584483658755431, -34.99785232235395 ], [ 150.58454314532824, -34.997929654581903 ], [ 150.584525374394957, -34.997970776436595 ], [ 150.584403251642755, -34.99795311385823 ], [ 150.584383942648742, -34.998088754653615 ], [ 150.584263558638185, -34.998108113786756 ], [ 150.584215968893631, -34.998149755179888 ], [ 150.584186225960934, -34.998262779484712 ], [ 150.58414458536862, -34.998352008808588 ], [ 150.584144585892744, -34.99843529004368 ], [ 150.584102945500149, -34.998530468139847 ], [ 150.584073201706843, -34.998691081785211 ], [ 150.584073201382608, -34.998780311785346 ], [ 150.584096995972175, -34.998911182039926 ], [ 150.584037510132987, -34.999042052652278 ], [ 150.58396017724877, -34.999042052402061 ], [ 150.583888793133298, -34.999024207016795 ], [ 150.58386499909011, -34.998976617051575 ] ] ] ] } },
{ "type": "Feature", "properties": { "OBJECTID_1": 16, "OBJECTID": 27, "Zone_ID": "7", "CONDITION": "Moderate", "EasternPCT": "3588", "E_PCT_Name": "Shoalhaven Foothills Bloodwood Heathy Forest", "VEG_CLASS": "Sydney Coastal Dry Sclerophyll Forests", "BC_Act": "-", "EPBC_Act": "-", "Area_ha": 2.53474628254, "Area_m2": 25347.462825400002, "Comments": null, "ECMLink": null, "FSource": "Derived from field observations and aerial imagery.", "SourceDate": "2026-02-04T00:00:00Z", "PlanAccur": null, "Supplier": "Stantec Australia Pty Ltd (3045)", "Shape_Length": 1081.8606487675561, "Shape_Area": 25347.462825413917 }, "geometry": { "type": "MultiPolygon", "coordinates": [ [ [ [ 150.584055356137213, -34.997453762592166 ], [ 150.584001817832899, -34.997584632669991 ], [ 150.583995869268193, -34.99767981111485 ], [ 150.583972074154303, -34.997780938142554 ], [ 150.583972074538281, -34.997864219377675 ], [ 150.583948280489039, -34.997947500955902 ], [ 150.583870947242445, -34.998001038849978 ], [ 150.583853101470197, -34.998120011689522 ], [ 150.583835255970456, -34.998185446344031 ], [ 150.583799563638735, -34.998274676808826 ], [ 150.583781718055747, -34.998340111450837 ], [ 150.583734128333361, -34.998429341139385 ], [ 150.583746026365191, -34.998524519795978 ], [ 150.583763871991579, -34.998619697904644 ], [ 150.583763872113195, -34.998702979120651 ], [ 150.583751974262611, -34.998774362896739 ], [ 150.583716282169803, -34.998833849394046 ], [ 150.583710334009652, -34.998905233563057 ], [ 150.583710334165687, -34.998929028712602 ], [ 150.583722231138978, -34.999024206443472 ], [ 150.58369843659392, -34.999089641578031 ], [ 150.583644898537841, -34.99919671719627 ], [ 150.58362110402777, -34.999244306855331 ], [ 150.583585411757042, -34.999327587543419 ], [ 150.583603258685514, -34.999428715378563 ], [ 150.583597310027983, -34.999535790436177 ], [ 150.58355566907241, -34.999666661008639 ], [ 150.583543771743109, -34.999755891115711 ], [ 150.583525926156341, -34.999833223267039 ], [ 150.583484285420383, -34.999952196237672 ], [ 150.583418850325074, -35.000065220633033 ], [ 150.583395055871591, -35.000190142639042 ], [ 150.58339505576609, -35.000255577469851 ], [ 150.583395055453423, -35.000362653790823 ], [ 150.58335936296416, -35.000457831950079 ], [ 150.583299877124432, -35.000547061533716 ], [ 150.583287979637902, -35.000666034614788 ], [ 150.583270134108744, -35.00075526427981 ], [ 150.5832463394363, -35.000838545642765 ], [ 150.583234441795611, -35.000933724472773 ], [ 150.583216595865252, -35.001017005332088 ], [ 150.583204698151974, -35.001112184154174 ], [ 150.583174955331287, -35.001165721177955 ], [ 150.583097622547172, -35.001213310608087 ], [ 150.582990546628082, -35.001237105471567 ], [ 150.582925111318559, -35.001231156574981 ], [ 150.582835693580449, -35.0012078119927 ], [ 150.582791965801334, -35.001183127611498 ], [ 150.582750326138523, -35.001183127331728 ], [ 150.582672993038244, -35.001200973464364 ], [ 150.582589711914068, -35.001183127324708 ], [ 150.582542122941902, -35.001171230759212 ], [ 150.582464790272724, -35.001171230418116 ], [ 150.582423149527841, -35.00117123000441 ], [ 150.582381508998992, -35.001147436252474 ], [ 150.582363663274236, -35.001076052222651 ], [ 150.582369611777324, -35.001004668175277 ], [ 150.58240530325196, -35.000933284554044 ], [ 150.582405303299652, -35.000903540639868 ], [ 150.582395693026569, -35.000825448834647 ], [ 150.582859912508866, -35.000882498776164 ], [ 150.583048520712566, -34.99848270738601 ], [ 150.583132149460795, -34.997418566959126 ], [ 150.58320469825486, -34.997441865503099 ], [ 150.583282031096218, -34.997471608336248 ], [ 150.583359363596571, -34.997471608079586 ], [ 150.583466438614096, -34.997465660019145 ], [ 150.583585412029322, -34.997483506 ], [ 150.583644898381834, -34.99749540288299 ], [ 150.583769820899334, -34.997501351497888 ], [ 150.583847153091142, -34.997495403037703 ], [ 150.5838768965572, -34.997447813684779 ], [ 150.583924485159656, -34.997352635102665 ], [ 150.583960177748253, -34.997316943678513 ], [ 150.584037510128979, -34.997316942983417 ], [ 150.584061304945919, -34.997364532932927 ], [ 150.584055356137213, -34.997453762592166 ] ] ] ] } },
{ "type": "Feature", "properties": { "OBJECTID_1": 23, "OBJECTID": 34, "Zone_ID": "7", "CONDITION": "Moderate", "EasternPCT": "3588", "E_PCT_Name": "Shoalhaven Foothills Bloodwood Heathy Forest", "VEG_CLASS": "Sydney Coastal Dry Sclerophyll Forests", "BC_Act": "-", "EPBC_Act": "-", "Area_ha": 0.044616764187099998, "Area_m2": 446.167641871, "Comments": null, "ECMLink": null, "FSource": "Derived from field observations and aerial imagery.", "SourceDate": "2026-02-04T00:00:00Z", "PlanAccur": null, "Supplier": "Stantec Australia Pty Ltd (3045)", "Shape_Length": 91.266266060398578, "Shape_Area": 446.16764187071703 }, "geometry": { "type": "MultiPolygon", "coordinates": [ [ [ [ 150.583644899255063, -35.002450630471188 ], [ 150.583597309986231, -35.002450630963729 ], [ 150.583555669377716, -35.002444682145125 ], [ 150.583543771467873, -35.002420887115377 ], [ 150.583519976492823, -35.002391144321486 ], [ 150.583502131285684, -35.002355452255244 ], [ 150.583537823383466, -35.00232570890126 ], [ 150.583579463123897, -35.002337606491174 ], [ 150.583633001848654, -35.002349503074697 ], [ 150.583698436700672, -35.002349503716069 ], [ 150.583793614943431, -35.002367348976364 ], [ 150.583817409808944, -35.002414938969665 ], [ 150.583847153353645, -35.002498219336424 ], [ 150.583793614598562, -35.00255175766366 ], [ 150.583710333844039, -35.002551757721285 ], [ 150.583674641613527, -35.00249227117029 ], [ 150.583644899255063, -35.002450630471188 ] ] ] ] } },
{ "type": "Feature", "properties": { "OBJECTID_1": 24, "OBJECTID": 35, "Zone_ID": "7", "CONDITION": "Moderate", "EasternPCT": "3588", "E_PCT_Name": "Shoalhaven Foothills Bloodwood Heathy Forest", "VEG_CLASS": "Sydney Coastal Dry Sclerophyll Forests", "BC_Act": "-", "EPBC_Act": "-", "Area_ha": 4.1972792405300003, "Area_m2": 41972.792405300002, "Comments": null, "ECMLink": null, "FSource": "Derived from field observations and aerial imagery.", "SourceDate": "2026-02-04T00:00:00Z", "PlanAccur": null, "Supplier": "Stantec Australia Pty Ltd (3045)", "Shape_Length": 1563.4432119486589, "Shape_Area": 41972.792405251952 }, "geometry": { "type": "MultiPolygon", "coordinates": [ [ [ [ 150.583270133595818, -35.002004481856062 ], [ 150.583293928354493, -35.002058019825903 ], [ 150.583276082195681, -35.00209371130741 ], [ 150.583252287630387, -35.002141300852273 ], [ 150.583246338645836, -35.002236479168133 ], [ 150.58325228753128, -35.002284068042563 ], [ 150.583246338852348, -35.002313811550863 ], [ 150.583258235822257, -35.00236734960361 ], [ 150.583293928255102, -35.002414938708654 ], [ 150.583341517498098, -35.002462527698597 ], [ 150.583401004362457, -35.002480373561184 ], [ 150.583436696108038, -35.002533911395759 ], [ 150.583490233896811, -35.002593398292277 ], [ 150.583525925281776, -35.002682627893144 ], [ 150.583573514447636, -35.002700473779456 ], [ 150.583680591044441, -35.002742114171994 ], [ 150.583728179780877, -35.002771857557299 ], [ 150.583817409544935, -35.002789703328695 ], [ 150.583888793078586, -35.002819447272067 ], [ 150.583972074151006, -35.002861087689084 ], [ 150.584013715700877, -35.00292057454115 ], [ 150.58409699584638, -35.002962214856659 ], [ 150.58416243168719, -35.003009803746266 ], [ 150.58422191751805, -35.003057393115903 ], [ 150.584299251050709, -35.003116879328942 ], [ 150.584305199067558, -35.003176365710836 ], [ 150.584346839502075, -35.003247750000092 ], [ 150.584412274592069, -35.003295339647103 ], [ 150.584513401605875, -35.003325082287667 ], [ 150.584578837238496, -35.003342928838087 ], [ 150.584626425921584, -35.003378620665345 ], [ 150.584697810302799, -35.003408363261613 ], [ 150.584769193616182, -35.003438106696976 ], [ 150.584840577817516, -35.003515439484353 ], [ 150.58490573675337, -35.003584435935586 ], [ 150.584905730245566, -35.003584470963276 ], [ 150.584840182155233, -35.003918703121073 ], [ 150.584787039848351, -35.003896153284309 ], [ 150.584703759163489, -35.003848563725299 ], [ 150.584596682770325, -35.003842615107892 ], [ 150.584543145228025, -35.003777179897938 ], [ 150.584525299753153, -35.003693898598151 ], [ 150.584549094109235, -35.003628463352321 ], [ 150.584572888398014, -35.003563029000581 ], [ 150.58450150511996, -35.003497593646877 ], [ 150.584388480596147, -35.003479747851379 ], [ 150.58432304538016, -35.003432158187429 ], [ 150.584257609644851, -35.003432157848025 ], [ 150.584186226117055, -35.003473798613392 ], [ 150.584144585151165, -35.003551131146132 ], [ 150.584132687768118, -35.003622514914234 ], [ 150.584180277379744, -35.003676053283719 ], [ 150.584251661402931, -35.00371769370377 ], [ 150.584364685458013, -35.003741488406959 ], [ 150.584430120655355, -35.003765282916589 ], [ 150.584489606873632, -35.003789077036842 ], [ 150.584555042767278, -35.003878307215679 ], [ 150.584584785682438, -35.003949690732533 ], [ 150.584632375419062, -35.003997280150642 ], [ 150.584697810160236, -35.004044869647458 ], [ 150.584721604556449, -35.004086509778517 ], [ 150.584733502660583, -35.004122202271049 ], [ 150.584706156416019, -35.004175527736869 ], [ 150.584705584569917, -35.004175451446443 ], [ 150.584687543806297, -35.004173055859887 ], [ 150.584392871914076, -35.004133929250443 ], [ 150.584388480781797, -35.004068663920116 ], [ 150.584364685887266, -35.00401512615025 ], [ 150.584299250679322, -35.003955639803081 ], [ 150.584299250601731, -35.003896152868499 ], [ 150.584287353355279, -35.003872358822335 ], [ 150.584239764038955, -35.003866409864379 ], [ 150.584215969557278, -35.003896153239701 ], [ 150.584215969687079, -35.003937793824143 ], [ 150.584215969375265, -35.003991331966105 ], [ 150.584150533741536, -35.004021074575931 ], [ 150.584126740061379, -35.004027023716539 ], [ 150.584104109878695, -35.004095586703045 ], [ 150.584003741639236, -35.004082259212879 ], [ 150.584000795678293, -35.004094808467251 ], [ 150.583911239224335, -35.004496665940771 ], [ 150.583892576255067, -35.004580411067913 ], [ 150.583348710959882, -35.00702077348457 ], [ 150.582775876086714, -35.006939582816294 ], [ 150.582829933426268, -35.006626584405268 ], [ 150.582877523074927, -35.006573047062844 ], [ 150.582907265294295, -35.006382690062942 ], [ 150.582931060351285, -35.006192332649228 ], [ 150.58297270120741, -35.006073360054529 ], [ 150.582972700740243, -35.005865157259535 ], [ 150.582954855258976, -35.005692645879002 ], [ 150.582978649883302, -35.00550228932449 ], [ 150.583014342094174, -35.005407110490424 ], [ 150.583050032974199, -35.005335726738139 ], [ 150.583050033005748, -35.005228651394674 ], [ 150.583050032954787, -35.005038294020586 ], [ 150.583073827560042, -35.004859834983236 ], [ 150.583103571508389, -35.004663529121878 ], [ 150.583127366359093, -35.004496966726137 ], [ 150.583091673985649, -35.004389891560436 ], [ 150.583008392387114, -35.00430660994634 ], [ 150.582931060863274, -35.004217379950497 ], [ 150.582847779682623, -35.004193586050071 ], [ 150.582818035677121, -35.00416979146366 ], [ 150.58281803652946, -35.004021074658041 ], [ 150.582823984649252, -35.003884255814846 ], [ 150.582877522960274, -35.003670104455111 ], [ 150.582960803164355, -35.003521388144797 ], [ 150.582984598824055, -35.003432158128277 ], [ 150.58298459878543, -35.003271544621228 ], [ 150.583026239128515, -35.003104982562363 ], [ 150.583044085114977, -35.002926523054988 ], [ 150.583115468859376, -35.002837292706033 ], [ 150.583133315144039, -35.002748063116989 ], [ 150.583127365854381, -35.002664782437741 ], [ 150.58312141743906, -35.002575552090697 ], [ 150.583121417696532, -35.002480373373906 ], [ 150.583157109326095, -35.002361401087363 ], [ 150.583157109490827, -35.002290016595872 ], [ 150.583180903927143, -35.002212684055948 ], [ 150.583216595315719, -35.002117505970205 ], [ 150.583240390201638, -35.002028275856759 ], [ 150.583246339392787, -35.001986635692042 ], [ 150.583270133595818, -35.002004481856062 ] ] ] ] } },
{ "type": "Feature", "properties": { "OBJECTID_1": 26, "OBJECTID": 37, "Zone_ID": "7", "CONDITION": "Moderate", "EasternPCT": "3588", "E_PCT_Name": "Shoalhaven Foothills Bloodwood Heathy Forest", "VEG_CLASS": "Sydney Coastal Dry Sclerophyll Forests", "BC_Act": "-", "EPBC_Act": "-", "Area_ha": 0.69735152834000003, "Area_m2": 6973.5152834, "Comments": null, "ECMLink": null, "FSource": "Derived from field observations and aerial imagery.", "SourceDate": "2026-02-04T00:00:00Z", "PlanAccur": null, "Supplier": "Stantec Australia Pty Ltd (3045)", "Shape_Length": 477.05408980792151, "Shape_Area": 6973.5152833962629 }, "geometry": { "type": "MultiPolygon", "coordinates": [ [ [ [ 150.582327272523173, -35.0041302323541 ], [ 150.582357015024371, -35.004213513929599 ], [ 150.582446245410353, -35.004213513503899 ], [ 150.582547372340258, -35.004231359326987 ], [ 150.582565217895365, -35.004278949092708 ], [ 150.582565218400873, -35.00438602444752 ], [ 150.582523577590251, -35.004463357276443 ], [ 150.582499783123581, -35.004516895416977 ], [ 150.582547372779487, -35.0045882789491 ], [ 150.582541423374067, -35.004641816609663 ], [ 150.582487885305369, -35.004719149431274 ], [ 150.58248193694169, -35.004772687107724 ], [ 150.582505731671091, -35.004820276437734 ], [ 150.582505731729555, -35.004885711215934 ], [ 150.582428399588395, -35.004974941585068 ], [ 150.582410553637345, -35.005016581687734 ], [ 150.582386758844166, -35.005034428014199 ], [ 150.582362964632125, -35.005070119784683 ], [ 150.582302429440062, -35.005077597231654 ], [ 150.582091408278131, -35.005048140648569 ], [ 150.582096035406664, -35.004983892481839 ], [ 150.582054333299396, -35.004990264949598 ], [ 150.581971051959073, -35.004978367992692 ], [ 150.581898704664553, -35.004970715770725 ], [ 150.582066703943923, -35.00416600290778 ], [ 150.581557777402111, -35.003614270908393 ], [ 150.581584269799691, -35.003421820212552 ], [ 150.581684817471427, -35.003458035194569 ], [ 150.581744303717073, -35.003481829742242 ], [ 150.581797842575099, -35.003565110704947 ], [ 150.581904918109728, -35.003642443523759 ], [ 150.581982250453109, -35.003701929361597 ], [ 150.582059582882408, -35.003761416055077 ], [ 150.58213096676397, -35.003832799799468 ], [ 150.582238042421949, -35.003927978678227 ], [ 150.582309426222935, -35.003987464759646 ], [ 150.582333220534537, -35.004064797113955 ], [ 150.582327272523173, -35.0041302323541 ] ] ] ] } },
{ "type": "Feature", "properties": { "OBJECTID_1": 33, "OBJECTID": 44, "Zone_ID": "7", "CONDITION": "Moderate", "EasternPCT": "3588", "E_PCT_Name": "Shoalhaven Foothills Bloodwood Heathy Forest", "VEG_CLASS": "Sydney Coastal Dry Sclerophyll Forests", "BC_Act": "-", "EPBC_Act": "-", "Area_ha": 0.40295472507899999, "Area_m2": 4029.5472507899999, "Comments": null, "ECMLink": null, "FSource": "Derived from field observations and aerial imagery.", "SourceDate": "2026-02-04T00:00:00Z", "PlanAccur": null, "Supplier": "Stantec Australia Pty Ltd (3045)", "Shape_Length": 458.04601564618815, "Shape_Area": 4029.5472507884324 }, "geometry": { "type": "MultiPolygon", "coordinates": [ [ [ [ 150.580461774430773, -35.015330950737948 ], [ 150.580567729112175, -35.015346305752836 ], [ 150.58066402907545, -35.015307155737133 ], [ 150.58068782329633, -35.015366642023892 ], [ 150.580664028583755, -35.015461821009616 ], [ 150.580646182700121, -35.015580793818145 ], [ 150.580699721328955, -35.015741407453916 ], [ 150.58068782403322, -35.015818740337984 ], [ 150.580658080296899, -35.015890123679796 ], [ 150.580598593470114, -35.015937712763339 ], [ 150.580551004211685, -35.015997199576951 ], [ 150.580515312498591, -35.0160447890622 ], [ 150.580515312714539, -35.01617565925612 ], [ 150.58046177447676, -35.016288683467415 ], [ 150.580455825697697, -35.016366015977525 ], [ 150.580443929167757, -35.016461194240783 ], [ 150.580426082626957, -35.016532578640096 ], [ 150.58039633944253, -35.016633705748184 ], [ 150.580384442770338, -35.016770524465962 ], [ 150.580348750572483, -35.016853805579423 ], [ 150.580342801590888, -35.016960881004358 ], [ 150.5803368525915, -35.017050111027601 ], [ 150.580289263489561, -35.017145289414117 ], [ 150.58025952111123, -35.017186929723337 ], [ 150.580205983202006, -35.017186929931889 ], [ 150.580152445318987, -35.017180981350819 ], [ 150.580134598699374, -35.017163135094812 ], [ 150.580128649976729, -35.017115546181735 ], [ 150.580170290371882, -35.017020367279983 ], [ 150.580182188432872, -35.016925189089669 ], [ 150.580194085458999, -35.016794319176043 ], [ 150.58021193125893, -35.016687243103725 ], [ 150.580241674820712, -35.016526629284428 ], [ 150.580253571726018, -35.016366015515814 ], [ 150.580277366081077, -35.016300580467707 ], [ 150.580277366203404, -35.016211350761594 ], [ 150.580307109392123, -35.016062634437432 ], [ 150.580330904730175, -35.015943661384775 ], [ 150.580366596478115, -35.015794945605357 ], [ 150.580390390557, -35.015699766678942 ], [ 150.580426083241434, -35.015634331843053 ], [ 150.580443928397187, -35.015527255695282 ], [ 150.580420134274561, -35.015426128889906 ], [ 150.580461774430773, -35.015330950737948 ] ] ] ] } },
{ "type": "Feature", "properties": { "OBJECTID_1": 34, "OBJECTID": 45, "Zone_ID": "8", "CONDITION": "Low", "EasternPCT": "3588", "E_PCT_Name": "Shoalhaven Foothills Bloodwood Heathy Forest", "VEG_CLASS": "Sydney Coastal Dry Sclerophyll Forests", "BC_Act": "-", "EPBC_Act": "-", "Area_ha": 0.69781323785500005, "Area_m2": 6978.1323785499999, "Comments": null, "ECMLink": null, "FSource": "Derived from field observations and aerial imagery.", "SourceDate": "2026-02-04T00:00:00Z", "PlanAccur": null, "Supplier": "Stantec Australia Pty Ltd (3045)", "Shape_Length": 517.963938528727, "Shape_Area": 6978.1323785519353 }, "geometry": { "type": "MultiPolygon", "coordinates": [ [ [ [ 150.580739584755975, -35.016941003229952 ], [ 150.580733636058795, -35.016991566749887 ], [ 150.580733636211932, -35.017033207224046 ], [ 150.580709841967746, -35.017098642360679 ], [ 150.580703893271334, -35.017158128577755 ], [ 150.580697944537121, -35.017217615694591 ], [ 150.580705774241181, -35.017266309436963 ], [ 150.58057214007016, -35.017245606603687 ], [ 150.580455826040179, -35.017228570109843 ], [ 150.580378493579701, -35.017222622063272 ], [ 150.58025952111123, -35.017186929723337 ], [ 150.580289263489561, -35.017145289414117 ], [ 150.5803368525915, -35.017050111027601 ], [ 150.580342801590888, -35.016960881004358 ], [ 150.580348750572483, -35.016853805579423 ], [ 150.580384442770338, -35.016770524465962 ], [ 150.58039633944253, -35.016633705748184 ], [ 150.580426082626957, -35.016532578640096 ], [ 150.580443929167757, -35.016461194240783 ], [ 150.580455825697697, -35.016366015977525 ], [ 150.58046177447676, -35.016288683467415 ], [ 150.580515312714539, -35.01617565925612 ], [ 150.580515312498591, -35.0160447890622 ], [ 150.580551004211685, -35.015997199576951 ], [ 150.580598593470114, -35.015937712763339 ], [ 150.580658080296899, -35.015890123679796 ], [ 150.58068782403322, -35.015818740337984 ], [ 150.580699721328955, -35.015741407453916 ], [ 150.580646182700121, -35.015580793818145 ], [ 150.580664028583755, -35.015461821009616 ], [ 150.58068782329633, -35.015366642023892 ], [ 150.58066402907545, -35.015307155737133 ], [ 150.580828499781546, -35.015351506742846 ], [ 150.580965747612026, -35.015358425780185 ], [ 150.581053463808956, -35.015313348413542 ], [ 150.58101516001156, -35.015464488670716 ], [ 150.580897947282352, -35.016036215896804 ], [ 150.580842308162488, -35.016302479014136 ], [ 150.580843958579834, -35.016408674770254 ], [ 150.580814632908783, -35.016592892046582 ], [ 150.580777607189646, -35.016714044293813 ], [ 150.580739584755975, -35.016941003229952 ] ] ] ] } },
{ "type": "Feature", "properties": { "OBJECTID_1": 48, "OBJECTID": 59, "Zone_ID": "7", "CONDITION": "Moderate", "EasternPCT": "3588", "E_PCT_Name": "Shoalhaven Foothills Bloodwood Heathy Forest", "VEG_CLASS": "Sydney Coastal Dry Sclerophyll Forests", "BC_Act": "-", "EPBC_Act": "-", "Area_ha": 1.11837138348, "Area_m2": 11183.713834800001, "Comments": null, "ECMLink": null, "FSource": "Derived from field observations and aerial imagery.", "SourceDate": "2026-02-04T00:00:00Z", "PlanAccur": null, "Supplier": "Stantec Australia Pty Ltd (3045)", "Shape_Length": 628.95846034547424, "Shape_Area": 11183.713834807093 }, "geometry": { "type": "MultiPolygon", "coordinates": [ [ [ [ 150.579192705987282, -35.028384262942211 ], [ 150.57921055236983, -35.028360468960841 ], [ 150.579240295448017, -35.028360468571584 ], [ 150.579293833781406, -35.028372366462463 ], [ 150.579329525407985, -35.028425903692764 ], [ 150.579371165552288, -35.028485390303857 ], [ 150.579478241890143, -35.02859246582755 ], [ 150.579579368896106, -35.028634107004585 ], [ 150.579686444167606, -35.028764977356182 ], [ 150.57976377711779, -35.028860155615263 ], [ 150.57976972526501, -35.028955333622292 ], [ 150.579835160339059, -35.029032666123932 ], [ 150.579930339684097, -35.029127845233688 ], [ 150.5799838776108, -35.029211126098325 ], [ 150.580102850356297, -35.029437174720435 ], [ 150.580198028151017, -35.029544250211501 ], [ 150.580293206801912, -35.029692966944786 ], [ 150.580340796383268, -35.029805991757243 ], [ 150.580418128881689, -35.030008245427652 ], [ 150.580453821046063, -35.030151012801646 ], [ 150.580495461020575, -35.030287831976416 ], [ 150.580548999334042, -35.030472240570845 ], [ 150.580626331810834, -35.030668546258376 ], [ 150.580596588877427, -35.030817262273281 ], [ 150.580531153130977, -35.030829159682405 ], [ 150.580447871519908, -35.030787519196693 ], [ 150.580305104730428, -35.030710186526221 ], [ 150.580239669553379, -35.030680443401678 ], [ 150.580174233575946, -35.030632853959659 ], [ 150.580108799088094, -35.030484137470104 ], [ 150.580031466588082, -35.030383010665624 ], [ 150.579936287769499, -35.030228345876175 ], [ 150.579888698444762, -35.030121269678446 ], [ 150.579829212350091, -35.02997850241092 ], [ 150.579734033361177, -35.029817888712572 ], [ 150.579698341925194, -35.029710812796274 ], [ 150.579668598830381, -35.029627531609371 ], [ 150.579603163365448, -35.029443123209361 ], [ 150.579561522569037, -35.029330098758642 ], [ 150.579519882604387, -35.02923492057829 ], [ 150.579424704104099, -35.02911594795129 ], [ 150.579389011769393, -35.028979129052807 ], [ 150.579335473504642, -35.028895847931402 ], [ 150.579287884939646, -35.028770926159623 ], [ 150.579252193091236, -35.028628158476032 ], [ 150.579222449687279, -35.028544877178696 ], [ 150.579192706195414, -35.028467544628548 ], [ 150.579192705987282, -35.028384262942211 ] ] ] ] } },
{ "type": "Feature", "properties": { "OBJECTID_1": 74, "OBJECTID": 0, "Zone_ID": "7", "CONDITION": "Moderate", "EasternPCT": "3588", "E_PCT_Name": "Shoalhaven Foothills Bloodwood Heathy Forest", "VEG_CLASS": "Sydney Coastal Dry Sclerophyll Forests", "BC_Act": "-", "EPBC_Act": "-", "Area_ha": 0.030703147259800001, "Area_m2": 307.03147259799999, "Comments": null, "ECMLink": null, "FSource": "Derived from field observations and aerial imagery.", "SourceDate": "2026-02-04T00:00:00Z", "PlanAccur": null, "Supplier": "Stantec Australia Pty Ltd (3045)", "Shape_Length": 79.462567659014312, "Shape_Area": 307.03147259752689 }, "geometry": { "type": "MultiPolygon", "coordinates": [ [ [ [ 150.583141262904803, -34.997302605171711 ], [ 150.583207680675656, -34.997277732437603 ], [ 150.58322671687813, -34.997249178110344 ], [ 150.583233854710926, -34.997218245787643 ], [ 150.583226217928569, -34.997167787247506 ], [ 150.583261909358015, -34.997215376328128 ], [ 150.583303550464905, -34.997262965816169 ], [ 150.58336303690507, -34.997280811622957 ], [ 150.583380882470891, -34.997322452504569 ], [ 150.583380882787111, -34.997393836156363 ], [ 150.58335708863288, -34.997417630640875 ], [ 150.583333293562617, -34.997423579641861 ], [ 150.583279756183458, -34.997417630898163 ], [ 150.583232166227447, -34.997387887358713 ], [ 150.583184577093334, -34.997352195931946 ], [ 150.583141262904803, -34.997302605171711 ] ] ] ] } },
{ "type": "Feature", "properties": { "OBJECTID_1": 75, "OBJECTID": 0, "Zone_ID": "7", "CONDITION": "Moderate", "EasternPCT": "3588", "E_PCT_Name": "Shoalhaven Foothills Bloodwood Heathy Forest", "VEG_CLASS": "Sydney Coastal Dry Sclerophyll Forests", "BC_Act": "-", "EPBC_Act": "-", "Area_ha": 0.080319440402799994, "Area_m2": 803.19440402800001, "Comments": null, "ECMLink": null, "FSource": "Derived from field observations and aerial imagery.", "SourceDate": "2026-02-04T00:00:00Z", "PlanAccur": null, "Supplier": "Stantec Australia Pty Ltd (3045)", "Shape_Length": 113.32440641617359, "Shape_Area": 803.19440402782323 }, "geometry": { "type": "MultiPolygon", "coordinates": [ [ [ [ 150.584882802182449, -34.998022472158844 ], [ 150.584927532841931, -34.998000598673549 ], [ 150.584939430069454, -34.998000598406279 ], [ 150.584963224498182, -34.998000598769188 ], [ 150.585010813383036, -34.998000598580042 ], [ 150.58507030015042, -34.997994650217194 ], [ 150.585123837634967, -34.997994650293521 ], [ 150.585159529740366, -34.998000598228245 ], [ 150.585213067621027, -34.998036290109226 ], [ 150.585290400208635, -34.998060085594034 ], [ 150.585314195320109, -34.998113623206265 ], [ 150.585355835458216, -34.998155263208105 ], [ 150.585326092317501, -34.998214750517903 ], [ 150.585260656783248, -34.998220698699022 ], [ 150.585129786992212, -34.99822069920436 ], [ 150.585100043021299, -34.998208801868188 ], [ 150.585064351125055, -34.998190955438531 ], [ 150.585004865148505, -34.998179058345102 ], [ 150.584909686945565, -34.998143365952906 ], [ 150.584885891511249, -34.998113623416472 ], [ 150.584885891958919, -34.998071982803523 ], [ 150.584882802182449, -34.998022472158844 ] ] ] ] } },
{ "type": "Feature", "properties": { "OBJECTID_1": 76, "OBJECTID": 0, "Zone_ID": "7", "CONDITION": "Moderate", "EasternPCT": "3588", "E_PCT_Name": "Shoalhaven Foothills Bloodwood Heathy Forest", "VEG_CLASS": "Sydney Coastal Dry Sclerophyll Forests", "BC_Act": "-", "EPBC_Act": "-", "Area_ha": 0.109528599702, "Area_m2": 1095.28599702, "Comments": null, "ECMLink": null, "FSource": "Derived from field observations and aerial imagery.", "SourceDate": "2026-02-04T00:00:00Z", "PlanAccur": null, "Supplier": "Stantec Australia Pty Ltd (3045)", "Shape_Length": 130.75645343073762, "Shape_Area": 1095.2859970185627 }, "geometry": { "type": "MultiPolygon", "coordinates": [ [ [ [ 150.58537368101608, -34.999850629304426 ], [ 150.585361784612815, -34.999850629625179 ], [ 150.585320143201869, -34.999832783843409 ], [ 150.585266605608354, -34.999832783826754 ], [ 150.585177375408676, -34.999814937364697 ], [ 150.585105992404579, -34.999779245435896 ], [ 150.585052454294953, -34.999755451064736 ], [ 150.585052454025316, -34.999672169830468 ], [ 150.585105992466367, -34.999654323592146 ], [ 150.585135735684503, -34.999648375457447 ], [ 150.585183324777262, -34.999606734608221 ], [ 150.585236862343095, -34.999547248577223 ], [ 150.58530824658618, -34.999541299833666 ], [ 150.585379629717892, -34.999565094067272 ], [ 150.585445065665482, -34.999565094641973 ], [ 150.5854926544053, -34.999594837321816 ], [ 150.585546192785358, -34.999636477871178 ], [ 150.585575936091658, -34.999690015714549 ], [ 150.585564038724499, -34.999749502121077 ], [ 150.585492654966714, -34.999779246175969 ], [ 150.585397475796213, -34.999803040194294 ], [ 150.58537368101608, -34.999850629304426 ] ] ] ] } },
{ "type": "Feature", "properties": { "OBJECTID_1": 77, "OBJECTID": 0, "Zone_ID": "7", "CONDITION": "Moderate", "EasternPCT": "3588", "E_PCT_Name": "Shoalhaven Foothills Bloodwood Heathy Forest", "VEG_CLASS": "Sydney Coastal Dry Sclerophyll Forests", "BC_Act": "-", "EPBC_Act": "-", "Area_ha": 0.0124946489613, "Area_m2": 124.946489613, "Comments": null, "ECMLink": null, "FSource": "Derived from field observations and aerial imagery.", "SourceDate": "2026-02-04T00:00:00Z", "PlanAccur": null, "Supplier": "Stantec Australia Pty Ltd (3045)", "Shape_Length": 42.697457068278737, "Shape_Area": 124.94648961261088 }, "geometry": { "type": "MultiPolygon", "coordinates": [ [ [ [ 150.584356461601345, -34.999136791563544 ], [ 150.584320769488642, -34.999118944907643 ], [ 150.584320769871169, -34.999089201879841 ], [ 150.584320770277827, -34.999023767029307 ], [ 150.584338615628553, -34.998994023225578 ], [ 150.584374307706241, -34.99899402351214 ], [ 150.584409999805359, -34.999011869249934 ], [ 150.584421897169392, -34.999047561764819 ], [ 150.584427845524999, -34.999095150600922 ], [ 150.584392154113942, -34.99912489427988 ], [ 150.584356461601345, -34.999136791563544 ] ] ] ] } },
{ "type": "Feature", "properties": { "OBJECTID_1": 78, "OBJECTID": 0, "Zone_ID": "7", "CONDITION": "Moderate", "EasternPCT": "3588", "E_PCT_Name": "Shoalhaven Foothills Bloodwood Heathy Forest", "VEG_CLASS": "Sydney Coastal Dry Sclerophyll Forests", "BC_Act": "-", "EPBC_Act": "-", "Area_ha": 0.070842709349699995, "Area_m2": 708.42709349699999, "Comments": null, "ECMLink": null, "FSource": "Derived from field observations and aerial imagery.", "SourceDate": "2026-02-04T00:00:00Z", "PlanAccur": null, "Supplier": "Stantec Australia Pty Ltd (3045)", "Shape_Length": 109.84513846551101, "Shape_Area": 708.42709349714062 }, "geometry": { "type": "MultiPolygon", "coordinates": [ [ [ [ 150.581944508891837, -35.001101274904777 ], [ 150.581945698399409, -35.001093654170617 ], [ 150.581995246397355, -35.000776234444785 ], [ 150.582186987409926, -35.000799798790062 ], [ 150.582185203752431, -35.000873798049476 ], [ 150.582179254912887, -35.000939233296542 ], [ 150.582179254897284, -35.001004668102311 ], [ 150.58217925507094, -35.001076051693829 ], [ 150.582155460927197, -35.001111743466097 ], [ 150.582113819873683, -35.00113553807018 ], [ 150.582066231008895, -35.001123641321762 ], [ 150.581988897841057, -35.001105795222507 ], [ 150.581944508891837, -35.001101274904777 ] ] ] ] } },
{ "type": "Feature", "properties": { "OBJECTID_1": 83, "OBJECTID": 0, "Zone_ID": "7", "CONDITION": "Moderate", "EasternPCT": "3588", "E_PCT_Name": "Shoalhaven Foothills Bloodwood Heathy Forest", "VEG_CLASS": "Sydney Coastal Dry Sclerophyll Forests", "BC_Act": "-", "EPBC_Act": "-", "Area_ha": 0.099169302012200006, "Area_m2": 991.69302012200001, "Comments": null, "ECMLink": null, "FSource": "Derived from field observations and aerial imagery.", "SourceDate": "2026-02-04T00:00:00Z", "PlanAccur": null, "Supplier": "Stantec Australia Pty Ltd (3045)", "Shape_Length": 152.34179233661567, "Shape_Area": 991.69302012188882 }, "geometry": { "type": "MultiPolygon", "coordinates": [ [ [ [ 150.57955530417027, -35.028483278881787 ], [ 150.579608842222825, -35.028459484090796 ], [ 150.579704020373498, -35.028447586623926 ], [ 150.579799199098176, -35.028465432877425 ], [ 150.579864634047283, -35.028459483662758 ], [ 150.579888428793794, -35.028441638040405 ], [ 150.579918172066698, -35.028429740876454 ], [ 150.579953863605311, -35.028441638432767 ], [ 150.579971710575478, -35.028518970513339 ], [ 150.580019299573536, -35.028518970853234 ], [ 150.58007878600182, -35.02850707306483 ], [ 150.58016206742829, -35.028542765004346 ], [ 150.580197758983672, -35.028560611248054 ], [ 150.580191809941738, -35.028596303187705 ], [ 150.580126374769407, -35.028614149185877 ], [ 150.579989556453228, -35.028596303470813 ], [ 150.579924121152175, -35.028620098113109 ], [ 150.579858685814855, -35.028643892718435 ], [ 150.579828941890668, -35.028691481491556 ], [ 150.579805148151422, -35.028709327119977 ], [ 150.579769456290478, -35.028709327926528 ], [ 150.579686175212601, -35.028655789455144 ], [ 150.579668328322782, -35.028649840616062 ], [ 150.579614791156388, -35.028620097541783 ], [ 150.579590995985711, -35.028596302705665 ], [ 150.579555304884963, -35.028560610926895 ], [ 150.579555304116354, -35.028542765543762 ], [ 150.57955530417027, -35.028483278881787 ] ] ] ] } },
{ "type": "Feature", "properties": { "OBJECTID_1": 85, "OBJECTID": 0, "Zone_ID": "7", "CONDITION": "Moderate", "EasternPCT": "3588", "E_PCT_Name": "Shoalhaven Foothills Bloodwood Heathy Forest", "VEG_CLASS": "Sydney Coastal Dry Sclerophyll Forests", "BC_Act": "-", "EPBC_Act": "-", "Area_ha": 0.191925730637, "Area_m2": 1919.2573063699999, "Comments": null, "ECMLink": null, "FSource": "Derived from field observations and aerial imagery.", "SourceDate": "2026-02-04T00:00:00Z", "PlanAccur": null, "Supplier": "Stantec Australia Pty Ltd (3045)", "Shape_Length": 215.95420526377526, "Shape_Area": 1919.2573063677105 }, "geometry": { "type": "MultiPolygon", "coordinates": [ [ [ [ 150.582300673671512, -35.015218518747055 ], [ 150.582294096370305, -35.015254448979057 ], [ 150.582264261692359, -35.015417420742601 ], [ 150.581516315119728, -35.015331786062809 ], [ 150.581620577567151, -35.015243601064064 ], [ 150.581525398498485, -35.015243601021588 ], [ 150.581430220986675, -35.015196011676757 ], [ 150.581401667400513, -35.015129386577783 ], [ 150.581477809967311, -35.015119869007982 ], [ 150.581763345336356, -35.015100832731399 ], [ 150.581972737934535, -35.015138904774439 ], [ 150.582182130553861, -35.015167457884857 ], [ 150.582300673671512, -35.015218518747055 ] ] ] ] } },
{ "type": "Feature", "properties": { "OBJECTID_1": 90, "OBJECTID": 45, "Zone_ID": "7", "CONDITION": "Moderate", "EasternPCT": "3588", "E_PCT_Name": "Shoalhaven Foothills Bloodwood Heathy Forest", "VEG_CLASS": "Sydney Coastal Dry Sclerophyll Forests", "BC_Act": "-", "EPBC_Act": "-", "Area_ha": 0.32083132362700001, "Area_m2": 3208.3132362699998, "Comments": null, "ECMLink": null, "FSource": "Derived from field observations and aerial imagery.", "SourceDate": "2026-02-04T00:00:00Z", "PlanAccur": null, "Supplier": "Stantec Australia Pty Ltd (3045)", "Shape_Length": 437.2277846003912, "Shape_Area": 3208.3132362664182 }, "geometry": { "type": "MultiPolygon", "coordinates": [ [ [ [ 150.580739584755975, -35.016941003229952 ], [ 150.580777607189646, -35.016714044293813 ], [ 150.580814632908783, -35.016592892046582 ], [ 150.580843958579834, -35.016408674770254 ], [ 150.580842308162488, -35.016302479014136 ], [ 150.580897947282352, -35.016036215896804 ], [ 150.58101516001156, -35.015464488670716 ], [ 150.581053463808956, -35.015313348413542 ], [ 150.581078060814406, -35.015300708175012 ], [ 150.581135167700012, -35.015329261421968 ], [ 150.581173238351795, -35.015357814563949 ], [ 150.581211309904774, -35.015472029452404 ], [ 150.581173239280048, -35.015557689268768 ], [ 150.581087578408784, -35.015662385541091 ], [ 150.58108757815765, -35.015757564038665 ], [ 150.581087578316129, -35.015900331793389 ], [ 150.581039989308266, -35.016081171351459 ], [ 150.581011435122434, -35.016214420817015 ], [ 150.58101143530277, -35.016385742468806 ], [ 150.581001917968109, -35.016585616627715 ], [ 150.581001917963448, -35.016737902028488 ], [ 150.581030471500412, -35.01677597330432 ], [ 150.581106613530096, -35.016775973660671 ], [ 150.58114468573001, -35.016785491513225 ], [ 150.581217451671591, -35.016820974655168 ], [ 150.581187329502995, -35.016971068309388 ], [ 150.581106614005023, -35.016966330646227 ], [ 150.581039988465932, -35.016966330759381 ], [ 150.580944810647196, -35.016956812575877 ], [ 150.580858557960795, -35.016929105870489 ], [ 150.580828814624709, -35.0169201822345 ], [ 150.580790148527996, -35.016920182725578 ], [ 150.580751482458567, -35.016920182303394 ], [ 150.580739584755975, -35.016941003229952 ] ] ] ] } },
{ "type": "Feature", "properties": { "OBJECTID_1": 94, "OBJECTID": 0, "Zone_ID": "8", "CONDITION": "Low", "EasternPCT": "3588", "E_PCT_Name": "Shoalhaven Foothills Bloodwood Heathy Forest", "VEG_CLASS": "Sydney Coastal Dry Sclerophyll Forests", "BC_Act": "-", "EPBC_Act": "-", "Area_ha": 0.176866243408, "Area_m2": 1768.6624340799999, "Comments": null, "ECMLink": null, "FSource": "Derived from field observations and aerial imagery.", "SourceDate": "2026-02-04T00:00:00Z", "PlanAccur": null, "Supplier": "Stantec Australia Pty Ltd (3045)", "Shape_Length": 269.91714473471455, "Shape_Area": 1768.6634884055297 }, "geometry": { "type": "MultiPolygon", "coordinates": [ [ [ [ 150.581443727084235, -35.004509357863192 ], [ 150.581832467473731, -35.004563632698634 ], [ 150.581993232769634, -35.00434693595426 ], [ 150.582066703943923, -35.00416600290778 ], [ 150.581978205988747, -35.004583980042888 ], [ 150.581979984888619, -35.004581386821705 ], [ 150.581903893348397, -35.00494586028281 ], [ 150.581898704664553, -35.004970715770725 ], [ 150.581846010224922, -35.004961464801561 ], [ 150.581812496234647, -35.004942100355912 ], [ 150.581784384537485, -35.00493219179571 ], [ 150.581759112071495, -35.004922339824418 ], [ 150.581734667845581, -35.00492305692697 ], [ 150.581685005264859, -35.004916438208767 ], [ 150.581637035347711, -35.004910044323417 ], [ 150.581595001119382, -35.004904441239461 ], [ 150.581545015545032, -35.004897779065388 ], [ 150.581500693915928, -35.004891871628502 ], [ 150.581471567176607, -35.004875694696096 ], [ 150.581484556970338, -35.004832559755378 ], [ 150.581532755896518, -35.004787716195374 ], [ 150.581568746550062, -35.004759503800344 ], [ 150.581610733772067, -35.004726589888769 ], [ 150.581620369894438, -35.004697853011628 ], [ 150.58161286204674, -35.004654309444078 ], [ 150.581561927873452, -35.004593024729076 ], [ 150.581489786811375, -35.004555425150677 ], [ 150.581443727084235, -35.004509357863192 ] ] ] ] } },
{ "type": "Feature", "properties": { "OBJECTID_1": 95, "OBJECTID": 0, "Zone_ID": "8", "CONDITION": "Low", "EasternPCT": "3588", "E_PCT_Name": "Shoalhaven Foothills Bloodwood Heathy Forest", "VEG_CLASS": "Sydney Coastal Dry Sclerophyll Forests", "BC_Act": "-", "EPBC_Act": "-", "Area_ha": 0.51651680553500001, "Area_m2": 5165.16805535, "Comments": null, "ECMLink": null, "FSource": "Derived from field observations and aerial imagery.", "SourceDate": "2026-02-04T00:00:00Z", "PlanAccur": null, "Supplier": "Stantec Australia Pty Ltd (3045)", "Shape_Length": 287.8394676497677, "Shape_Area": 5165.1623356932632 }, "geometry": { "type": "MultiPolygon", "coordinates": [ [ [ [ 150.579984164981511, -35.001670154977447 ], [ 150.580101172399139, -35.001660974450829 ], [ 150.580165163982173, -35.001674022174349 ], [ 150.580215724618824, -35.001657373599556 ], [ 150.580246052136886, -35.001599121720062 ], [ 150.580289290759765, -35.001588212752146 ], [ 150.580346480185, -35.001589353359449 ], [ 150.580417447173687, -35.001608425744529 ], [ 150.580522944800549, -35.001669386465828 ], [ 150.580572292584549, -35.001693913291781 ], [ 150.580684939135068, -35.001755016441848 ], [ 150.580725752364373, -35.001826458432603 ], [ 150.580774753821771, -35.001862749626895 ], [ 150.580773021399892, -35.001921571852158 ], [ 150.580771462215921, -35.001974511854336 ], [ 150.580769383297593, -35.002045098523105 ], [ 150.580711500546613, -35.002067486990548 ], [ 150.580638800558944, -35.002107236977579 ], [ 150.580595041928035, -35.002135792724587 ], [ 150.580551110007121, -35.002170230675716 ], [ 150.580528277724255, -35.002216860750472 ], [ 150.580541882148424, -35.002240674765886 ], [ 150.580547298276741, -35.002299639542464 ], [ 150.580521695026391, -35.002375326320745 ], [ 150.579862830642128, -35.002287316267257 ], [ 150.579936030029444, -35.001916306660767 ], [ 150.579984164981511, -35.001670154977447 ] ] ] ] } },
{ "type": "Feature", "properties": { "OBJECTID_1": 96, "OBJECTID": 0, "Zone_ID": "7", "CONDITION": "Moderate", "EasternPCT": "3588", "E_PCT_Name": "Shoalhaven Foothills Bloodwood Heathy Forest", "VEG_CLASS": "Sydney Coastal Dry Sclerophyll Forests", "BC_Act": "-", "EPBC_Act": "-", "Area_ha": 0.10569840482200001, "Area_m2": 1056.98404822, "Comments": null, "ECMLink": null, "FSource": "Derived from field observations and aerial imagery.", "SourceDate": "2026-02-04T00:00:00Z", "PlanAccur": null, "Supplier": "Stantec Australia Pty Ltd (3045)", "Shape_Length": 345.79816947442851, "Shape_Area": 1056.9847763580833 }, "geometry": { "type": "MultiPolygon", "coordinates": [ [ [ [ 150.581952429429293, -35.001050594523292 ], [ 150.581943191908806, -35.001101130564003 ], [ 150.581942341099449, -35.001106400711883 ], [ 150.580935624056707, -35.0009669974106 ], [ 150.580810097707115, -35.000949614846711 ], [ 150.580143124245211, -35.000857250311689 ], [ 150.580154317728699, -35.000800005061045 ], [ 150.580813700338553, -35.000891901748631 ], [ 150.581224261764589, -35.000949119388274 ], [ 150.581951379789729, -35.001050449200697 ], [ 150.581952429429293, -35.001050594523292 ] ] ] ] } },
{ "type": "Feature", "properties": { "OBJECTID_1": 102, "OBJECTID": 10, "Zone_ID": "7", "CONDITION": "Moderate", "EasternPCT": "3588", "E_PCT_Name": "Shoalhaven Foothills Bloodwood Heathy Forest", "VEG_CLASS": "Sydney Coastal Dry Sclerophyll Forests", "BC_Act": "-", "EPBC_Act": "-", "Area_ha": 0.0179574114303, "Area_m2": 179.57411430299999, "Comments": null, "ECMLink": null, "FSource": "Derived from field observations and aerial imagery.", "SourceDate": "2026-02-04T00:00:00Z", "PlanAccur": null, "Supplier": "Stantec Australia Pty Ltd (3045)", "Shape_Length": 55.999234253085334, "Shape_Area": 179.57406082254857 }, "geometry": { "type": "MultiPolygon", "coordinates": [ [ [ [ 150.585324306309928, -34.987917637827138 ], [ 150.585299917218691, -34.988014216426336 ], [ 150.58529267557833, -34.988013251079721 ], [ 150.585233189208793, -34.988001353325529 ], [ 150.585191548818955, -34.987935918136792 ], [ 150.585167753352067, -34.987858586193063 ], [ 150.585197496936757, -34.987828842760734 ], [ 150.585256983798359, -34.987834791741925 ], [ 150.585280778395912, -34.987900226056951 ], [ 150.585324306309928, -34.987917637827138 ] ] ] ] } }
]
}
