{
"type": "FeatureCollection",
"name": "C4_Environmental Living",
"crs": { "type": "name", "properties": { "name": "urn:ogc:def:crs:OGC:1.3:CRS84" } },
"features": [
{ "type": "Feature", "properties": { "OBJECTID": 2, "Comments": "Downloaded from SEED Map Service 20250513", "FSource": "https://mapprod3.environment.nsw.gov.au/arcgis/rest/services/Planning/EPI_Primary_Planning_Layers/MapServer/2", "SourceDate": 20250513.0, "Supplier": "DOP", "EPI_NAME": "Shoalhaven Local Environmental Plan (Jerberra Estate) 2014", "LGA_NAME": "SHOALHAVEN", "PUBLISHED_DATE": "20211105000000", "COMMENCED_DATE": "20211201000000", "CURRENCY_DATE": "20211201000000", "AMENDMENT": "Standard Instrument (Local Environmental Plans) Amendment (Land Use Zones) Order 2021", "MAP_TYPE": "LZN", "MAP_NAME": "Land Zoning Map", "LAY_NAME": "Zone", "LAY_CLASS": "Environmental Living", "PCO_REF_KEY": "2014-51", "EPI_TYPE": "LEP", "SYM_CODE": "C4", "PURPOSE": null, "arcgisonline_objectid": 632.0, "arcgisonline_type": "arcgisonline_polygon", "multi_reader_type": "ARCGISFEATURES", "SHAPE_Length": 640.78910696556079, "SHAPE_Area": 22420.970440351044 }, "geometry": { "type": "MultiPolygon", "coordinates": [ [ [ [ 150.60477956990627, -35.05403342184119 ], [ 150.604667185626141, -35.054609732615951 ], [ 150.604007408133128, -35.054522746837762 ], [ 150.602969281148802, -35.054385867555787 ], [ 150.602993430592278, -35.054262031109189 ], [ 150.603029671727398, -35.054189826255758 ], [ 150.603045512037824, -35.054152992728604 ], [ 150.60305847261273, -35.054119378192979 ], [ 150.603083842500098, -35.054039356338514 ], [ 150.603101241334286, -35.053962561897634 ], [ 150.603112178232863, -35.053884960901804 ], [ 150.60311504590689, -35.053848593877632 ], [ 150.603116588491474, -35.053806929788038 ], [ 150.603114463599439, -35.053728835285661 ], [ 150.603110951114161, -35.053689878424549 ], [ 150.603105688415098, -35.053650266754481 ], [ 150.603090477182576, -35.053573158466811 ], [ 150.603088943894022, -35.053566883702551 ], [ 150.603068847698665, -35.053497089787967 ], [ 150.603040906518061, -35.053422428816518 ], [ 150.603024269854984, -35.053385004603975 ], [ 150.603006414470912, -35.053348807529403 ], [ 150.602966218869454, -35.053278029377857 ], [ 150.602962374337551, -35.053271879295053 ], [ 150.602943917786376, -35.053243534712379 ], [ 150.602919705330777, -35.053209023889096 ], [ 150.602879233595218, -35.053157705597457 ], [ 150.602868010646546, -35.05314347944018 ], [ 150.602810963883286, -35.053081018536851 ], [ 150.602784681415443, -35.053052782428502 ], [ 150.602760182835766, -35.053023487206417 ], [ 150.602737666294871, -35.052993404524805 ], [ 150.602716886670606, -35.052962219433937 ], [ 150.60427176296659, -35.053167053923623 ], [ 150.60477956990627, -35.05403342184119 ] ] ] ] } },
{ "type": "Feature", "properties": { "OBJECTID": 4, "Comments": "Downloaded from SEED Map Service 20250513", "FSource": "https://mapprod3.environment.nsw.gov.au/arcgis/rest/services/Planning/EPI_Primary_Planning_Layers/MapServer/2", "SourceDate": 20250513.0, "Supplier": "DOP", "EPI_NAME": "Shoalhaven Local Environmental Plan (Jerberra Estate) 2014", "LGA_NAME": "SHOALHAVEN", "PUBLISHED_DATE": "20211105000000", "COMMENCED_DATE": "20211201000000", "CURRENCY_DATE": "20211201000000", "AMENDMENT": "Standard Instrument (Local Environmental Plans) Amendment (Land Use Zones) Order 2021", "MAP_TYPE": "LZN", "MAP_NAME": "Land Zoning Map", "LAY_NAME": "Zone", "LAY_CLASS": "Environmental Living", "PCO_REF_KEY": "2014-51", "EPI_TYPE": "LEP", "SYM_CODE": "C4", "PURPOSE": null, "arcgisonline_objectid": 637.0, "arcgisonline_type": "arcgisonline_polygon", "multi_reader_type": "ARCGISFEATURES", "SHAPE_Length": 2964.8278768604664, "SHAPE_Area": 303827.38747836213 }, "geometry": { "type": "MultiPolygon", "coordinates": [ [ [ [ 150.609029495339911, -35.049900084927991 ], [ 150.609359368501316, -35.049943596421258 ], [ 150.609491571525638, -35.049265419191478 ], [ 150.609821436968247, -35.049308930131232 ], [ 150.610151300858234, -35.049352432035086 ], [ 150.610481174984301, -35.049395934150041 ], [ 150.610811039337364, -35.049439445997912 ], [ 150.611028746321864, -35.049468158193839 ], [ 150.611756521508283, -35.049564135757485 ], [ 150.612416260877154, -35.049651132040708 ], [ 150.612426156611065, -35.049652440214075 ], [ 150.613075998488966, -35.049738127425258 ], [ 150.613592583009336, -35.049806235859286 ], [ 150.613572449295646, -35.049880198115019 ], [ 150.613609129987509, -35.050053408821242 ], [ 150.613674665087586, -35.050138414405005 ], [ 150.613723617208109, -35.050201897364836 ], [ 150.613730375633452, -35.050205805724929 ], [ 150.613732858766667, -35.050208924995964 ], [ 150.613734086615125, -35.050210466332111 ], [ 150.613734579434038, -35.050211085423747 ], [ 150.61379024642315, -35.050256434056301 ], [ 150.613798421067258, -35.050261023848748 ], [ 150.613853621111417, -35.050300760637512 ], [ 150.614271108416403, -35.050550435165619 ], [ 150.614239430324545, -35.050712987562001 ], [ 150.614105551551432, -35.051400040525174 ], [ 150.613989288700964, -35.051661394280089 ], [ 150.613270396045777, -35.051855184990416 ], [ 150.613227879105892, -35.051866650377704 ], [ 150.613208239533577, -35.051871939409871 ], [ 150.612556156156444, -35.052047721588785 ], [ 150.611912345064894, -35.052221263418623 ], [ 150.611846736863612, -35.052215517920153 ], [ 150.611183377236614, -35.052146934123911 ], [ 150.61112801493519, -35.052141215219329 ], [ 150.610801762718665, -35.052107482206026 ], [ 150.610536026588221, -35.051996257268904 ], [ 150.610329550506776, -35.051909853345137 ], [ 150.609860305512683, -35.051713479225981 ], [ 150.609713824945487, -35.051652174683106 ], [ 150.609622473431273, -35.05161394273042 ], [ 150.609378734888878, -35.05158022083301 ], [ 150.608949360171067, -35.051520807704499 ], [ 150.60888451562991, -35.051511833999328 ], [ 150.608841119486755, -35.051734311247827 ], [ 150.608700814089133, -35.052453659808059 ], [ 150.60867875233069, -35.052566750030195 ], [ 150.60866445522899, -35.052640074628862 ], [ 150.608596668132634, -35.052987563870744 ], [ 150.608489161025574, -35.053538740291984 ], [ 150.608454237491884, -35.053717777764255 ], [ 150.608230504891509, -35.053688285607102 ], [ 150.608127114026445, -35.053674660328234 ], [ 150.607570721163711, -35.053601315588729 ], [ 150.607391217596643, -35.053577651791954 ], [ 150.607329760460402, -35.053568292438193 ], [ 150.607273870936268, -35.053557966578303 ], [ 150.607213452168736, -35.053544807242908 ], [ 150.607153725192603, -35.053529693629386 ], [ 150.607094769492733, -35.053512644435429 ], [ 150.607036684090929, -35.053493685054711 ], [ 150.606979546823567, -35.05347285308347 ], [ 150.606932871948629, -35.053453984546799 ], [ 150.606923469596353, -35.053450183184658 ], [ 150.606872571216883, -35.053427584831198 ], [ 150.606822723699395, -35.053403462987241 ], [ 150.606773976208245, -35.053377860993486 ], [ 150.606726414483745, -35.053350808489164 ], [ 150.606680080309673, -35.05332233875329 ], [ 150.606635044709208, -35.053292497361141 ], [ 150.606587473674409, -35.05325840687177 ], [ 150.606545351186043, -35.053225813983978 ], [ 150.606412810644855, -35.053118507468049 ], [ 150.606325197522636, -35.053047565911378 ], [ 150.605740720934051, -35.052574338611301 ], [ 150.605409952636421, -35.052306521822452 ], [ 150.605348638712144, -35.052258933129679 ], [ 150.60528493230251, -35.05221350304123 ], [ 150.605218966893716, -35.052170315321838 ], [ 150.605150840806431, -35.052129456647663 ], [ 150.605078043705078, -35.052089611770924 ], [ 150.605037034460025, -35.052069237204876 ], [ 150.605136366435858, -35.051559769500429 ], [ 150.6051350660521, -35.051559590566029 ], [ 150.604658325925271, -35.051493606970986 ], [ 150.604477772694537, -35.051468614701108 ], [ 150.604154612058892, -35.051448320745209 ], [ 150.603459435776898, -35.051404656980338 ], [ 150.602902107909159, -35.051369644470306 ], [ 150.602420570451017, -35.051339391437324 ], [ 150.602535014196064, -35.051210354142377 ], [ 150.602739197621872, -35.050980123833583 ], [ 150.602891236852315, -35.050808697053007 ], [ 150.603478909337497, -35.050491846915058 ], [ 150.60405636311171, -35.050215389421389 ], [ 150.604292753929172, -35.0501022198277 ], [ 150.604437110542733, -35.050033107964047 ], [ 150.604611962474365, -35.049866879432813 ], [ 150.604786807328708, -35.049700643279138 ], [ 150.60496165999632, -35.049534415122118 ], [ 150.605136502326246, -35.04936817837681 ], [ 150.605385603275408, -35.049131350105142 ], [ 150.60548825092016, -35.04894374294522 ], [ 150.605596580823573, -35.04875162787706 ], [ 150.606357863237491, -35.048852061151329 ], [ 150.606489811567656, -35.048869468886373 ], [ 150.606819676872703, -35.048912979828131 ], [ 150.60714953130892, -35.048956500480898 ], [ 150.607479397366035, -35.049000011456279 ], [ 150.607809260512454, -35.049043522383627 ], [ 150.608139126199717, -35.049087034271963 ], [ 150.608468990071856, -35.049130546133874 ], [ 150.608336787647232, -35.049808723905265 ], [ 150.608666652610111, -35.04985222629265 ], [ 150.608996507825992, -35.049895737511868 ], [ 150.609029495339911, -35.049900084927991 ] ] ] ] } },
{ "type": "Feature", "properties": { "OBJECTID": 10, "Comments": "Downloaded from SEED Map Service 20250513", "FSource": "https://mapprod3.environment.nsw.gov.au/arcgis/rest/services/Planning/EPI_Primary_Planning_Layers/MapServer/2", "SourceDate": 20250513.0, "Supplier": "DOP", "EPI_NAME": "Shoalhaven Local Environmental Plan 2014", "LGA_NAME": "SHOALHAVEN", "PUBLISHED_DATE": "20211105000000", "COMMENCED_DATE": "20211201000000", "CURRENCY_DATE": "20240823000000", "AMENDMENT": "Standard Instrument (Local Environmental Plans) Amendment (Land Use Zones) Order 2021", "MAP_TYPE": "LZN", "MAP_NAME": "Land Zoning Map", "LAY_NAME": "Zone", "LAY_CLASS": "Environmental Living", "PCO_REF_KEY": "2014-179", "EPI_TYPE": "LEP", "SYM_CODE": "C4", "PURPOSE": null, "arcgisonline_objectid": 584919.0, "arcgisonline_type": "arcgisonline_polygon", "multi_reader_type": "ARCGISFEATURES", "SHAPE_Length": 6161.9876190476598, "SHAPE_Area": 1457481.2873315495 }, "geometry": { "type": "MultiPolygon", "coordinates": [ [ [ [ 150.53000170942164, -35.135084984367005 ], [ 150.53070217271798, -35.135094432908353 ], [ 150.530887190132006, -35.135064619051327 ], [ 150.531799221307239, -35.13491766281868 ], [ 150.532711253746555, -35.134770707772603 ], [ 150.53362328558282, -35.134623743057851 ], [ 150.534535317857973, -35.134476770498566 ], [ 150.534801072056865, -35.134433949243956 ], [ 150.53493426850099, -35.134412479991127 ], [ 150.535427412439219, -35.134426876954997 ], [ 150.535790606293176, -35.134437481435114 ], [ 150.536281268019025, -35.1345632190259 ], [ 150.536713878469385, -35.134674059502849 ], [ 150.537088870526645, -35.134924737354375 ], [ 150.537864397899341, -35.135443169318187 ], [ 150.538639936695489, -35.13596158408766 ], [ 150.539266322981064, -35.136380292325946 ], [ 150.539892709094062, -35.13679900012945 ], [ 150.540519104323124, -35.137217690559346 ], [ 150.541104149156183, -35.137608743906128 ], [ 150.541146997043171, -35.137629020944914 ], [ 150.541157314835118, -35.137633897178837 ], [ 150.541796232369137, -35.137936189835273 ], [ 150.542445458896509, -35.138243340726028 ], [ 150.54282092479383, -35.13842098972934 ], [ 150.543115652319671, -35.138443838524985 ], [ 150.543817049868665, -35.138498213497662 ], [ 150.544518464614214, -35.138552599191478 ], [ 150.545219869761183, -35.138606974329875 ], [ 150.545921292943461, -35.1386613322614 ], [ 150.546622689210238, -35.138715708132864 ], [ 150.547329167101367, -35.138770460507686 ], [ 150.547457754997993, -35.13878041938225 ], [ 150.548003707113082, -35.138953684814311 ], [ 150.548672205617208, -35.139165817703287 ], [ 150.549340686838832, -35.139377950217465 ], [ 150.550009186116284, -35.139590074958988 ], [ 150.550677683519382, -35.139802197834541 ], [ 150.55067724319963, -35.139804366816186 ], [ 150.549943358392397, -35.143412487704666 ], [ 150.549250557976819, -35.143317066820835 ], [ 150.548557740688011, -35.143221644361461 ], [ 150.54786494954368, -35.143126213084294 ], [ 150.547172131844746, -35.143030773725343 ], [ 150.546479349918229, -35.142935333856975 ], [ 150.546104950577757, -35.142883764133366 ], [ 150.545777639402047, -35.142838594028255 ], [ 150.545084642744143, -35.142742966099135 ], [ 150.544391662607836, -35.142647321042951 ], [ 150.543698681242148, -35.142551701769165 ], [ 150.543005691714399, -35.142456046839094 ], [ 150.542312721186534, -35.142360401875898 ], [ 150.541620967940332, -35.142264916504558 ], [ 150.540928328770235, -35.142169316369831 ], [ 150.540235698498009, -35.142073697155013 ], [ 150.539543022759261, -35.141978078488904 ], [ 150.53885034767211, -35.141882459505119 ], [ 150.538157671558793, -35.141786823042196 ], [ 150.53746499527216, -35.141691177230392 ], [ 150.536607373253446, -35.141572771704254 ], [ 150.535749753093995, -35.141454356575423 ], [ 150.534892237616106, -35.141335942951279 ], [ 150.534034607933393, -35.141217511052673 ], [ 150.533176976548788, -35.141099078493227 ], [ 150.532319327773109, -35.140980619712963 ], [ 150.531461661669937, -35.140862168967487 ], [ 150.530604021801082, -35.140743701002961 ], [ 150.529746383249289, -35.140625241453471 ], [ 150.528889310644786, -35.140506844207422 ], [ 150.528032112738543, -35.140388759288854 ], [ 150.526943383515089, -35.140239533928444 ], [ 150.525854663486086, -35.140090290917257 ], [ 150.52569300778211, -35.140068123035142 ], [ 150.522559617821884, -35.139638523240485 ], [ 150.52252855364668, -35.139634264002808 ], [ 150.523023338138245, -35.136948551704421 ], [ 150.523378229845292, -35.136461861410922 ], [ 150.525301408689245, -35.133824506188169 ], [ 150.526065615622798, -35.134287865224337 ], [ 150.526097760509714, -35.13429526006059 ], [ 150.527001177435949, -35.134503118936735 ], [ 150.52796375727084, -35.134724575286526 ], [ 150.528070006075723, -35.134749020168265 ], [ 150.529138828196665, -35.134994922760519 ], [ 150.52950098978107, -35.135078234269095 ], [ 150.53000170942164, -35.135084984367005 ] ] ] ] } },
{ "type": "Feature", "properties": { "OBJECTID": 667, "Comments": "Downloaded from SEED Map Service 20250513", "FSource": "https://mapprod3.environment.nsw.gov.au/arcgis/rest/services/Planning/EPI_Primary_Planning_Layers/MapServer/2", "SourceDate": 20250513.0, "Supplier": "DOP", "EPI_NAME": "Shoalhaven Local Environmental Plan 2014", "LGA_NAME": "SHOALHAVEN", "PUBLISHED_DATE": "20211105000000", "COMMENCED_DATE": "20211201000000", "CURRENCY_DATE": "20240823000000", "AMENDMENT": "Standard Instrument (Local Environmental Plans) Amendment (Land Use Zones) Order 2021", "MAP_TYPE": "LZN", "MAP_NAME": "Land Zoning Map", "LAY_NAME": "Zone", "LAY_CLASS": "Environmental Living", "PCO_REF_KEY": "2014-179", "EPI_TYPE": "LEP", "SYM_CODE": "C4", "PURPOSE": null, "arcgisonline_objectid": 587168.0, "arcgisonline_type": "arcgisonline_polygon", "multi_reader_type": "ARCGISFEATURES", "SHAPE_Length": 2520.7703916538285, "SHAPE_Area": 253251.50016179675 }, "geometry": { "type": "MultiPolygon", "coordinates": [ [ [ [ 150.566884621105032, -35.057243764488511 ], [ 150.572002354122219, -35.057884579188979 ], [ 150.574618293207834, -35.058210297241963 ], [ 150.574484067467381, -35.058930124565435 ], [ 150.574218438160955, -35.059007868423748 ], [ 150.574156514553522, -35.059025985484475 ], [ 150.573307518821736, -35.059274456705957 ], [ 150.573195872282469, -35.059894020590143 ], [ 150.572098315434346, -35.060002995216301 ], [ 150.57191554857684, -35.060021138385608 ], [ 150.569864348225337, -35.060224760967422 ], [ 150.569595132851987, -35.060206868141812 ], [ 150.56798669940207, -35.060044143474052 ], [ 150.567626276008298, -35.059833507835698 ], [ 150.566741377477797, -35.059303438892513 ], [ 150.565672988559925, -35.059292142802725 ], [ 150.564701060925074, -35.059447827133852 ], [ 150.563691635673649, -35.059165138247593 ], [ 150.563332332197433, -35.05901093924227 ], [ 150.562922311502831, -35.058834975367894 ], [ 150.563317781527957, -35.056786481654086 ], [ 150.566556825307913, -35.057201741047713 ], [ 150.566884621105032, -35.057243764488511 ] ] ] ] } }
]
}
