{
"type": "FeatureCollection",
"name": "E1_Local Centre",
"crs": { "type": "name", "properties": { "name": "urn:ogc:def:crs:OGC:1.3:CRS84" } },
"features": [
{ "type": "Feature", "properties": { "OBJECTID": 9, "Comments": "Downloaded from SEED Map Service 20250513", "FSource": "https://mapprod3.environment.nsw.gov.au/arcgis/rest/services/Planning/EPI_Primary_Planning_Layers/MapServer/2", "SourceDate": 20250513.0, "Supplier": "DOP", "EPI_NAME": "Shoalhaven Local Environmental Plan 2014", "LGA_NAME": "SHOALHAVEN", "PUBLISHED_DATE": "20230224000000", "COMMENCED_DATE": "20230426000000", "CURRENCY_DATE": "20240823000000", "AMENDMENT": "State Environmental Planning Policy Amendment (Land Use Zones) 2023", "MAP_TYPE": "LZN", "MAP_NAME": "Land Zoning Map", "LAY_NAME": "Zone", "LAY_CLASS": "Local Centre", "PCO_REF_KEY": "2014-179", "EPI_TYPE": "LEP", "SYM_CODE": "E1", "PURPOSE": null, "arcgisonline_objectid": 584915.0, "arcgisonline_type": "arcgisonline_polygon", "multi_reader_type": "ARCGISFEATURES", "SHAPE_Length": 924.01510071821065, "SHAPE_Area": 26457.274848603058 }, "geometry": { "type": "MultiPolygon", "coordinates": [ [ [ [ 150.674080045517542, -35.070069956197266 ], [ 150.674005454853585, -35.069715960037158 ], [ 150.674028071804372, -35.069712651960806 ], [ 150.674050706459184, -35.069709415436748 ], [ 150.674073348648108, -35.06970626108761 ], [ 150.674096010199747, -35.069703158490007 ], [ 150.674118688052744, -35.069700138235547 ], [ 150.674141375964325, -35.069697188485172 ], [ 150.674164082624941, -35.069694312110066 ], [ 150.674186797408225, -35.069691497187115 ], [ 150.67420952880002, -35.069688753795369 ], [ 150.674232262272454, -35.069686091572393 ], [ 150.674255022472352, -35.069683492059987 ], [ 150.674277781746611, -35.069680963742378 ], [ 150.674300559795853, -35.06967850789902 ], [ 150.674323345942526, -35.069676114408779 ], [ 150.674346149538223, -35.069673801480647 ], [ 150.674368954374785, -35.069671560690345 ], [ 150.674391265765195, -35.069669436636339 ], [ 150.674413595116334, -35.069667375124837 ], [ 150.674435924638203, -35.069665384829342 ], [ 150.674458271839626, -35.069663466987244 ], [ 150.674480618397268, -35.069661610429229 ], [ 150.674502974937752, -35.069659827078411 ], [ 150.674525339320439, -35.069658115090782 ], [ 150.674547713992922, -35.069656465498447 ], [ 150.674570097833794, -35.069654879181421 ], [ 150.674592490357242, -35.069653373258447 ], [ 150.674614881371468, -35.069651920489662 ], [ 150.674637283209051, -35.069650549958972 ], [ 150.674659692074584, -35.06964924085954 ], [ 150.674681178488754, -35.069648058298121 ], [ 150.674702684011407, -35.06964693649855 ], [ 150.67472417869547, -35.069645887507086 ], [ 150.674745683899943, -35.069644892802373 ], [ 150.6747671969473, -35.069643969461126 ], [ 150.674788711492312, -35.069643109248361 ], [ 150.674810225087612, -35.06964232113188 ], [ 150.674831746807172, -35.069641594468024 ], [ 150.674853270024556, -35.069640930932614 ], [ 150.674874801315212, -35.069640330651794 ], [ 150.674896333033416, -35.069639792577441 ], [ 150.674917864898077, -35.069639326620404 ], [ 150.674939396094516, -35.069638922848817 ], [ 150.674960927667598, -35.069638583085663 ], [ 150.674982467109658, -35.069638313784999 ], [ 150.675004008305564, -35.069638098602908 ], [ 150.675025539785054, -35.069637955349016 ], [ 150.675047080229604, -35.069637882578618 ], [ 150.675068620185186, -35.069637865686744 ], [ 150.675436861949805, -35.069645772273937 ], [ 150.675652239812848, -35.069775318692166 ], [ 150.675873033122656, -35.069898824980591 ], [ 150.675891202960287, -35.069908263858196 ], [ 150.675965344285657, -35.069948018906494 ], [ 150.675744121962282, -35.070348906101103 ], [ 150.675715769844942, -35.070491729302134 ], [ 150.675699661496424, -35.070572888959283 ], [ 150.675696811030406, -35.070587213805908 ], [ 150.675671039348344, -35.07071703033683 ], [ 150.675650108442426, -35.070822464507089 ], [ 150.675636717243918, -35.07088993589786 ], [ 150.675304475376805, -35.070873235726388 ], [ 150.674779399153749, -35.070854079978943 ], [ 150.674418114751205, -35.070866074200715 ], [ 150.674251215136223, -35.070871604823765 ], [ 150.674254522189472, -35.070514165932316 ], [ 150.673997694635801, -35.070522672962696 ], [ 150.673762908983349, -35.070530444930831 ], [ 150.673895558864359, -35.070883410679428 ], [ 150.673826509132681, -35.070885705113291 ], [ 150.673693851086171, -35.070532767084124 ], [ 150.673501886753229, -35.070631495588572 ], [ 150.673312935331381, -35.07072867336808 ], [ 150.673171303496929, -35.070801515927073 ], [ 150.673029672563473, -35.070874356528925 ], [ 150.672861965742015, -35.070960617010449 ], [ 150.67276098599649, -35.070844613389404 ], [ 150.672683645160276, -35.070755780660448 ], [ 150.672586421231728, -35.070644107594042 ], [ 150.6727345774421, -35.070560071109171 ], [ 150.672808718848728, -35.0705180206566 ], [ 150.67288272547782, -35.070476041490778 ], [ 150.673033974622655, -35.070390256535184 ], [ 150.673143980857873, -35.070327868222449 ], [ 150.673253986954109, -35.07026547890171 ], [ 150.673254820581576, -35.070265237079319 ], [ 150.673418808284481, -35.070218794180072 ], [ 150.673583512210712, -35.070172028548122 ], [ 150.673748171561442, -35.070125281665113 ], [ 150.67391411242491, -35.070097619120673 ], [ 150.674080045517542, -35.070069956197266 ] ] ] ] } },
{ "type": "Feature", "properties": { "OBJECTID": 95, "Comments": "Downloaded from SEED Map Service 20250513", "FSource": "https://mapprod3.environment.nsw.gov.au/arcgis/rest/services/Planning/EPI_Primary_Planning_Layers/MapServer/2", "SourceDate": 20250513.0, "Supplier": "DOP", "EPI_NAME": "Shoalhaven Local Environmental Plan 2014", "LGA_NAME": "SHOALHAVEN", "PUBLISHED_DATE": "20230224000000", "COMMENCED_DATE": "20230426000000", "CURRENCY_DATE": "20240823000000", "AMENDMENT": "State Environmental Planning Policy Amendment (Land Use Zones) 2023", "MAP_TYPE": "LZN", "MAP_NAME": "Land Zoning Map", "LAY_NAME": "Zone", "LAY_CLASS": "Local Centre", "PCO_REF_KEY": "2014-179", "EPI_TYPE": "LEP", "SYM_CODE": "E1", "PURPOSE": null, "arcgisonline_objectid": 585345.0, "arcgisonline_type": "arcgisonline_polygon", "multi_reader_type": "ARCGISFEATURES", "SHAPE_Length": 296.99794968121779, "SHAPE_Area": 4816.9604278349552 }, "geometry": { "type": "MultiPolygon", "coordinates": [ [ [ [ 150.650737412291477, -35.099343526090486 ], [ 150.650773241245275, -35.099164550403088 ], [ 150.650809098005936, -35.098985593266022 ], [ 150.650844936468104, -35.098806617726638 ], [ 150.651362114760389, -35.098880544283773 ], [ 150.651326285337262, -35.099059510255522 ], [ 150.651290438168985, -35.099238476766658 ], [ 150.651272509739613, -35.099327954512667 ], [ 150.651254582051479, -35.099417443086161 ], [ 150.651218734576787, -35.099596407752095 ], [ 150.651182905249499, -35.099775383569259 ], [ 150.650665725912575, -35.099701457026505 ], [ 150.650737412291477, -35.099343526090486 ] ] ] ] } },
{ "type": "Feature", "properties": { "OBJECTID": 96, "Comments": "Downloaded from SEED Map Service 20250513", "FSource": "https://mapprod3.environment.nsw.gov.au/arcgis/rest/services/Planning/EPI_Primary_Planning_Layers/MapServer/2", "SourceDate": 20250513.0, "Supplier": "DOP", "EPI_NAME": "Shoalhaven Local Environmental Plan 2014", "LGA_NAME": "SHOALHAVEN", "PUBLISHED_DATE": "20230224000000", "COMMENCED_DATE": "20230426000000", "CURRENCY_DATE": "20240823000000", "AMENDMENT": "State Environmental Planning Policy Amendment (Land Use Zones) 2023", "MAP_TYPE": "LZN", "MAP_NAME": "Land Zoning Map", "LAY_NAME": "Zone", "LAY_CLASS": "Local Centre", "PCO_REF_KEY": "2014-179", "EPI_TYPE": "LEP", "SYM_CODE": "E1", "PURPOSE": null, "arcgisonline_objectid": 585346.0, "arcgisonline_type": "arcgisonline_polygon", "multi_reader_type": "ARCGISFEATURES", "SHAPE_Length": 628.18444752154289, "SHAPE_Area": 25677.116629440869 }, "geometry": { "type": "MultiPolygon", "coordinates": [ [ [ [ 150.624816882376848, -35.105074833847127 ], [ 150.624882058726286, -35.105201333832788 ], [ 150.624947235267911, -35.105327833788984 ], [ 150.625012412862702, -35.105454341845757 ], [ 150.625018831792659, -35.105466792480492 ], [ 150.625077589788702, -35.105580841743013 ], [ 150.625142766906862, -35.105707341610767 ], [ 150.625207953014069, -35.10583384072001 ], [ 150.625272852150005, -35.105959802307829 ], [ 150.625294884271796, -35.106073439073903 ], [ 150.625321203742601, -35.106209100596153 ], [ 150.625347512376635, -35.106344760096633 ], [ 150.625373830899917, -35.106480421587356 ], [ 150.624944599705344, -35.106536625568417 ], [ 150.624845978193576, -35.106621326654626 ], [ 150.624632519083036, -35.10667585443808 ], [ 150.624205287821695, -35.106725202378662 ], [ 150.623774954970173, -35.10677488912377 ], [ 150.623749524103459, -35.106639121250197 ], [ 150.623724093072781, -35.106503361480399 ], [ 150.623698653578288, -35.106367593425297 ], [ 150.623687493434574, -35.106307973501444 ], [ 150.623639195182733, -35.106214291785115 ], [ 150.623567475995429, -35.106075161345778 ], [ 150.623495746051162, -35.105936031556659 ], [ 150.623424025110211, -35.105796901903886 ], [ 150.623352304401863, -35.105657772215423 ], [ 150.623287100256164, -35.10553128082465 ], [ 150.623301854861609, -35.105490701480342 ], [ 150.623627687328934, -35.105311636854196 ], [ 150.623971275459695, -35.105122801467878 ], [ 150.624012079398113, -35.105132831696721 ], [ 150.624203325716365, -35.105039507586291 ], [ 150.624207163830135, -35.10503490244146 ], [ 150.624222694619846, -35.10501600668006 ], [ 150.624379243571184, -35.105010239952549 ], [ 150.624779189148882, -35.105001660513928 ], [ 150.624781587928368, -35.105006317624273 ], [ 150.624816882376848, -35.105074833847127 ] ] ] ] } },
{ "type": "Feature", "properties": { "OBJECTID": 98, "Comments": "Downloaded from SEED Map Service 20250513", "FSource": "https://mapprod3.environment.nsw.gov.au/arcgis/rest/services/Planning/EPI_Primary_Planning_Layers/MapServer/2", "SourceDate": 20250513.0, "Supplier": "DOP", "EPI_NAME": "Shoalhaven Local Environmental Plan 2014", "LGA_NAME": "SHOALHAVEN", "PUBLISHED_DATE": "20230224000000", "COMMENCED_DATE": "20230426000000", "CURRENCY_DATE": "20240823000000", "AMENDMENT": "State Environmental Planning Policy Amendment (Land Use Zones) 2023", "MAP_TYPE": "LZN", "MAP_NAME": "Land Zoning Map", "LAY_NAME": "Zone", "LAY_CLASS": "Local Centre", "PCO_REF_KEY": "2014-179", "EPI_TYPE": "LEP", "SYM_CODE": "E1", "PURPOSE": null, "arcgisonline_objectid": 585348.0, "arcgisonline_type": "arcgisonline_polygon", "multi_reader_type": "ARCGISFEATURES", "SHAPE_Length": 488.51593293890136, "SHAPE_Area": 8008.6628613402199 }, "geometry": { "type": "MultiPolygon", "coordinates": [ [ [ [ 150.625394080610107, -35.105290525192117 ], [ 150.625226661486863, -35.105331176881926 ], [ 150.624961255992531, -35.10499776167476 ], [ 150.625076146645455, -35.104995296268051 ], [ 150.625145616988874, -35.104978426681484 ], [ 150.625313011294139, -35.104937774601744 ], [ 150.625480404087625, -35.10489713127177 ], [ 150.625647787069369, -35.104856480302566 ], [ 150.625815180912696, -35.10481582750807 ], [ 150.625906954356026, -35.104793543983753 ], [ 150.625970195115485, -35.104759686359301 ], [ 150.626110095349844, -35.104684487620631 ], [ 150.626204110150837, -35.104633939089076 ], [ 150.626249986823098, -35.104609279527921 ], [ 150.626389878879507, -35.104534080293519 ], [ 150.626529769587762, -35.104458880864961 ], [ 150.626669652317702, -35.104383682915305 ], [ 150.626809553459424, -35.104308484257061 ], [ 150.626949023517597, -35.104233427533018 ], [ 150.627187412253761, -35.104532170095382 ], [ 150.627047519809651, -35.104607369357971 ], [ 150.626907628210034, -35.104682568469357 ], [ 150.62676773612344, -35.104757775516624 ], [ 150.626627845090354, -35.104832975205063 ], [ 150.62648795357029, -35.104908182829391 ], [ 150.626348060937204, -35.104983382150984 ], [ 150.62620816914864, -35.105058581321366 ], [ 150.62619436585814, -35.105066003997081 ], [ 150.626091961053959, -35.105121051406428 ], [ 150.626063643371367, -35.105127926471972 ], [ 150.625896251202136, -35.105168578729561 ], [ 150.625728857808781, -35.105209229826421 ], [ 150.625561473267368, -35.10524987274836 ], [ 150.625394080610107, -35.105290525192117 ] ] ] ] } },
{ "type": "Feature", "properties": { "OBJECTID": 182, "Comments": "Downloaded from SEED Map Service 20250513", "FSource": "https://mapprod3.environment.nsw.gov.au/arcgis/rest/services/Planning/EPI_Primary_Planning_Layers/MapServer/2", "SourceDate": 20250513.0, "Supplier": "DOP", "EPI_NAME": "Shoalhaven Local Environmental Plan 2014", "LGA_NAME": "SHOALHAVEN", "PUBLISHED_DATE": "20230224000000", "COMMENCED_DATE": "20230426000000", "CURRENCY_DATE": "20240823000000", "AMENDMENT": "State Environmental Planning Policy Amendment (Land Use Zones) 2023", "MAP_TYPE": "LZN", "MAP_NAME": "Land Zoning Map", "LAY_NAME": "Zone", "LAY_CLASS": "Local Centre", "PCO_REF_KEY": "2014-179", "EPI_TYPE": "LEP", "SYM_CODE": "E1", "PURPOSE": null, "arcgisonline_objectid": 585638.0, "arcgisonline_type": "arcgisonline_polygon", "multi_reader_type": "ARCGISFEATURES", "SHAPE_Length": 163.69104221057822, "SHAPE_Area": 1530.8995335494974 }, "geometry": { "type": "MultiPolygon", "coordinates": [ [ [ [ 150.696163930843369, -35.010294363625945 ], [ 150.69608834643762, -35.010173744719033 ], [ 150.696483532163711, -35.0100060009147 ], [ 150.696489144288904, -35.010009479055462 ], [ 150.696494799823341, -35.010012894014324 ], [ 150.696500500932046, -35.010016246733834 ], [ 150.696506264681915, -35.010019553764955 ], [ 150.696512065219821, -35.010022799291377 ], [ 150.696517917927878, -35.010025981802215 ], [ 150.696523815982744, -35.010029110182799 ], [ 150.696529758516647, -35.010032176303227 ], [ 150.696535747492476, -35.010035188314198 ], [ 150.696541780130218, -35.010038128133054 ], [ 150.696547858114684, -35.010041013821656 ], [ 150.696553971539316, -35.010043846994861 ], [ 150.696560128625862, -35.010046607975951 ], [ 150.696566332154219, -35.010049314847542 ], [ 150.696572570558317, -35.010051950261662 ], [ 150.696578846617996, -35.010054532300948 ], [ 150.69658516633956, -35.010057042148091 ], [ 150.696591521551767, -35.010059497677766 ], [ 150.696597903973839, -35.010061881604422 ], [ 150.696604330849624, -35.010064204171854 ], [ 150.696610784707758, -35.010066463245337 ], [ 150.696617275404321, -35.010068659012035 ], [ 150.696623800723785, -35.010070792331327 ], [ 150.696630353253056, -35.010072854047557 ], [ 150.696636932739352, -35.010074853170856 ], [ 150.696643547968932, -35.010076788966522 ], [ 150.696650182717178, -35.010078653914597 ], [ 150.69665685124582, -35.010080447384311 ], [ 150.696663547599144, -35.010082186390981 ], [ 150.696670037127319, -35.010083798867555 ], [ 150.69667656369586, -35.0100853408292 ], [ 150.696683106017531, -35.010086829000095 ], [ 150.696689668750679, -35.010088253552262 ], [ 150.696696247691762, -35.010089608095448 ], [ 150.696702845696478, -35.010090908009225 ], [ 150.696709469815687, -35.010092136299122 ], [ 150.696716103395147, -35.01009330076235 ], [ 150.696722754024904, -35.010094404247518 ], [ 150.696729422901115, -35.010095443171309 ], [ 150.696736109947949, -35.010096420236813 ], [ 150.696742806657142, -35.010097326267555 ], [ 150.696749511756735, -35.010098167549813 ], [ 150.696756233906513, -35.010098947853976 ], [ 150.69678879272962, -35.010150904149398 ], [ 150.696774404150204, -35.010187933802804 ], [ 150.696239452713911, -35.010414875826008 ], [ 150.696163930843369, -35.010294363625945 ] ] ] ] } },
{ "type": "Feature", "properties": { "OBJECTID": 186, "Comments": "Downloaded from SEED Map Service 20250513", "FSource": "https://mapprod3.environment.nsw.gov.au/arcgis/rest/services/Planning/EPI_Primary_Planning_Layers/MapServer/2", "SourceDate": 20250513.0, "Supplier": "DOP", "EPI_NAME": "Shoalhaven Local Environmental Plan 2014", "LGA_NAME": "SHOALHAVEN", "PUBLISHED_DATE": "20230224000000", "COMMENCED_DATE": "20230426000000", "CURRENCY_DATE": "20240823000000", "AMENDMENT": "State Environmental Planning Policy Amendment (Land Use Zones) 2023", "MAP_TYPE": "LZN", "MAP_NAME": "Land Zoning Map", "LAY_NAME": "Zone", "LAY_CLASS": "Local Centre", "PCO_REF_KEY": "2014-179", "EPI_TYPE": "LEP", "SYM_CODE": "E1", "PURPOSE": null, "arcgisonline_objectid": 585690.0, "arcgisonline_type": "arcgisonline_polygon", "multi_reader_type": "ARCGISFEATURES", "SHAPE_Length": 1363.7414861333716, "SHAPE_Area": 63121.35238678335 }, "geometry": { "type": "MultiPolygon", "coordinates": [ [ [ [ 150.668429069252852, -35.039423947663018 ], [ 150.668507720847629, -35.039038809720864 ], [ 150.668586165007014, -35.038654076075836 ], [ 150.668651522225019, -35.038331479628042 ], [ 150.668706311384312, -35.038060498957741 ], [ 150.668865852891599, -35.038082245459833 ], [ 150.669017425368622, -35.038102898332937 ], [ 150.669168997932701, -35.038123551019417 ], [ 150.669472143270809, -35.03816485763447 ], [ 150.669623716070419, -35.038185510662068 ], [ 150.669926861930776, -35.038226816157376 ], [ 150.670079196129933, -35.038247567987824 ], [ 150.67008472675235, -35.038220443166132 ], [ 150.670090176863766, -35.038193335728323 ], [ 150.670115393937721, -35.03806872780207 ], [ 150.670334080323954, -35.037794806373668 ], [ 150.670405881693142, -35.037852301162609 ], [ 150.670441818407767, -35.037881093406448 ], [ 150.670393457703256, -35.037911319650235 ], [ 150.670368447716157, -35.037926487142869 ], [ 150.670349686621449, -35.037950330643184 ], [ 150.6703384362294, -35.038001676613888 ], [ 150.670506771643915, -35.038094221048425 ], [ 150.670481770586605, -35.038257212932251 ], [ 150.67042477631216, -35.038628662035563 ], [ 150.670817051999222, -35.038682114835368 ], [ 150.671143315057037, -35.038726602738379 ], [ 150.671248768133211, -35.038740980813678 ], [ 150.67141684312864, -35.038763902028123 ], [ 150.671674549530792, -35.038799040784959 ], [ 150.671696959774124, -35.038802097067041 ], [ 150.67175319133915, -35.038809761090235 ], [ 150.671901089211275, -35.038829930571005 ], [ 150.672303053839187, -35.038884744638231 ], [ 150.672398717802963, -35.038897787137806 ], [ 150.672481097418682, -35.038909010525828 ], [ 150.67261303006876, -35.038928990818718 ], [ 150.672559899201957, -35.039194800135412 ], [ 150.672352765565449, -35.040256341998742 ], [ 150.672342555040245, -35.040306647973964 ], [ 150.67201361105046, -35.040269904123413 ], [ 150.67147311718719, -35.040195638073612 ], [ 150.671436750157341, -35.040190645104857 ], [ 150.671406675518512, -35.040186512167715 ], [ 150.670859897055948, -35.040111385311647 ], [ 150.670792029528315, -35.040450636563968 ], [ 150.670724172059096, -35.040789896959176 ], [ 150.670393856342116, -35.040744063343816 ], [ 150.670439985214529, -35.040519345466741 ], [ 150.670486123914714, -35.040294618734038 ], [ 150.670526713010361, -35.040096864092291 ], [ 150.670534700196527, -35.040057959899386 ], [ 150.670545268215903, -35.040006489036621 ], [ 150.670567311486906, -35.039899118622678 ], [ 150.67013257425819, -35.039839875648845 ], [ 150.669915205771588, -35.039810258541628 ], [ 150.669697836598914, -35.039780632920639 ], [ 150.669516530540591, -35.039755927912644 ], [ 150.669226436994762, -35.039716397462421 ], [ 150.669045121631314, -35.039691683461719 ], [ 150.668827600190895, -35.039662039841282 ], [ 150.668392495609993, -35.039602743038863 ], [ 150.668429069252852, -35.039423947663018 ] ] ] ] } },
{ "type": "Feature", "properties": { "OBJECTID": 271, "Comments": "Downloaded from SEED Map Service 20250513", "FSource": "https://mapprod3.environment.nsw.gov.au/arcgis/rest/services/Planning/EPI_Primary_Planning_Layers/MapServer/2", "SourceDate": 20250513.0, "Supplier": "DOP", "EPI_NAME": "Shoalhaven Local Environmental Plan 2014", "LGA_NAME": "SHOALHAVEN", "PUBLISHED_DATE": "20230224000000", "COMMENCED_DATE": "20230426000000", "CURRENCY_DATE": "20240823000000", "AMENDMENT": "State Environmental Planning Policy Amendment (Land Use Zones) 2023", "MAP_TYPE": "LZN", "MAP_NAME": "Land Zoning Map", "LAY_NAME": "Zone", "LAY_CLASS": "Local Centre", "PCO_REF_KEY": "2014-179", "EPI_TYPE": "LEP", "SYM_CODE": "E1", "PURPOSE": null, "arcgisonline_objectid": 585949.0, "arcgisonline_type": "arcgisonline_polygon", "multi_reader_type": "ARCGISFEATURES", "SHAPE_Length": 170.66347342841328, "SHAPE_Area": 1570.8184571354077 }, "geometry": { "type": "MultiPolygon", "coordinates": [ [ [ [ 150.665970323526977, -35.034757002669807 ], [ 150.665868195926322, -35.034809522686032 ], [ 150.66561106382548, -35.034665291882305 ], [ 150.665527196999676, -35.034601826870031 ], [ 150.665664785102223, -35.034425729426722 ], [ 150.665670675143247, -35.034425227086189 ], [ 150.665594068771782, -35.034320689724723 ], [ 150.665594146828312, -35.034320681310902 ], [ 150.665594250233227, -35.034320667976111 ], [ 150.665923874542528, -35.034280725741539 ], [ 150.665925033749943, -35.034280584883234 ], [ 150.665925040942994, -35.034280678775815 ], [ 150.6659366376891, -35.034402584000709 ], [ 150.665945655082652, -35.034497459128303 ], [ 150.665970323526977, -35.034757002669807 ] ] ] ] } },
{ "type": "Feature", "properties": { "OBJECTID": 277, "Comments": "Downloaded from SEED Map Service 20250513", "FSource": "https://mapprod3.environment.nsw.gov.au/arcgis/rest/services/Planning/EPI_Primary_Planning_Layers/MapServer/2", "SourceDate": 20250513.0, "Supplier": "DOP", "EPI_NAME": "Shoalhaven Local Environmental Plan 2014", "LGA_NAME": "SHOALHAVEN", "PUBLISHED_DATE": "20230224000000", "COMMENCED_DATE": "20230426000000", "CURRENCY_DATE": "20240823000000", "AMENDMENT": "State Environmental Planning Policy Amendment (Land Use Zones) 2023", "MAP_TYPE": "LZN", "MAP_NAME": "Land Zoning Map", "LAY_NAME": "Zone", "LAY_CLASS": "Local Centre", "PCO_REF_KEY": "2014-179", "EPI_TYPE": "LEP", "SYM_CODE": "E1", "PURPOSE": null, "arcgisonline_objectid": 585995.0, "arcgisonline_type": "arcgisonline_polygon", "multi_reader_type": "ARCGISFEATURES", "SHAPE_Length": 1761.7432639817955, "SHAPE_Area": 121841.77077934028 }, "geometry": { "type": "MultiPolygon", "coordinates": [ [ [ [ 150.658186919673852, -35.077283087265549 ], [ 150.658192263174186, -35.07728313190669 ], [ 150.658197596421729, -35.077283113246253 ], [ 150.658202930324819, -35.077283033297959 ], [ 150.658208264379851, -35.077282871318147 ], [ 150.658213588130536, -35.077282647838722 ], [ 150.658218913103411, -35.077282343249927 ], [ 150.658224211615448, -35.077281966933171 ], [ 150.658229517410376, -35.077281527653618 ], [ 150.658234815376204, -35.077281017006065 ], [ 150.65824008606856, -35.077280424698621 ], [ 150.658245357673877, -35.077279762093539 ], [ 150.658250601490579, -35.077279035848115 ], [ 150.65825583505432, -35.077278246301134 ], [ 150.658261043716749, -35.077277368829769 ], [ 150.658271674772465, -35.077275655877465 ], [ 150.658281992716525, -35.077274078406667 ], [ 150.658292606498634, -35.077272509354785 ], [ 150.658303228598868, -35.077270994551164 ], [ 150.658313886508353, -35.077269569684425 ], [ 150.658324544832311, -35.077268207026513 ], [ 150.65833522024235, -35.077266898786242 ], [ 150.658345915073454, -35.077265678363283 ], [ 150.658356617913739, -35.077264523000302 ], [ 150.658367338730102, -35.077263429283938 ], [ 150.658378078051982, -35.077262417056865 ], [ 150.658388816460672, -35.077261475126228 ], [ 150.658399565122153, -35.077260596495968 ], [ 150.658410330380519, -35.077259789401886 ], [ 150.658421113563605, -35.077259045756364 ], [ 150.658431888691126, -35.077258392101768 ], [ 150.65844268231001, -35.07725778207422 ], [ 150.658453482985436, -35.077257270442786 ], [ 150.658464294403075, -35.077256804993141 ], [ 150.658475104367, -35.077256428760464 ], [ 150.658485933377506, -35.077256115096532 ], [ 150.658496751585517, -35.07725587243948 ], [ 150.658507589884664, -35.077255694174276 ], [ 150.658518409220221, -35.077255603886343 ], [ 150.65852925576371, -35.077255559196772 ], [ 150.6585400934392, -35.077255594566211 ], [ 150.658550931801642, -35.077255720996902 ], [ 150.658561768670467, -35.077255899683337 ], [ 150.658572614954068, -35.077256132639171 ], [ 150.658583452925001, -35.077256464595713 ], [ 150.658594298982962, -35.077256858909273 ], [ 150.658605127056148, -35.077257306962963 ], [ 150.6586159646358, -35.077257844445342 ], [ 150.658626802321663, -35.077258454948272 ], [ 150.658637630584678, -35.077259126568542 ], [ 150.658648459211463, -35.077259862199583 ], [ 150.658659278970646, -35.077260677889662 ], [ 150.658670080230166, -35.077261565339434 ], [ 150.658680899698311, -35.077262506326989 ], [ 150.658691702343759, -35.07726353713614 ], [ 150.658702495257472, -35.077264639874379 ], [ 150.658713268833196, -35.077265805341355 ], [ 150.658724035152488, -35.07726703286901 ], [ 150.658734810371897, -35.077268332685634 ], [ 150.658745558066414, -35.077269713102382 ], [ 150.658756305080487, -35.077271155706832 ], [ 150.658767034922903, -35.077272661983393 ], [ 150.65877776489765, -35.077274240379566 ], [ 150.658788458863, -35.077275889295798 ], [ 150.658799152935018, -35.077277611232631 ], [ 150.658809820048816, -35.077279393948132 ], [ 150.658820488107807, -35.077281258715203 ], [ 150.658831137925006, -35.077283186232243 ], [ 150.65884175963663, -35.077285176308791 ], [ 150.658852363687515, -35.077287247176031 ], [ 150.658862968154182, -35.077289380252168 ], [ 150.658873527792309, -35.077291585481042 ], [ 150.658884096614173, -35.077293853088158 ], [ 150.658894620864999, -35.077296183838222 ], [ 150.658905143920748, -35.0772985947956 ], [ 150.658915631430915, -35.077301060055525 ], [ 150.658926101280542, -35.077303606106199 ], [ 150.658936562752501, -35.077306215097444 ], [ 150.658946979421813, -35.077308895340501 ], [ 150.658957385779047, -35.077311629471993 ], [ 150.658967758035999, -35.077314444076762 ], [ 150.658978110955559, -35.077317321410455 ], [ 150.658988437961796, -35.077320261346024 ], [ 150.65899871904378, -35.077323273413292 ], [ 150.659009001380383, -35.077326356720441 ], [ 150.659019238565207, -35.077329485129937 ], [ 150.659029447968379, -35.077332703149544 ], [ 150.659039640483684, -35.077335974930655 ], [ 150.65904979610022, -35.077339310003019 ], [ 150.659059925314324, -35.077342724795933 ], [ 150.659070010447039, -35.077346185613379 ], [ 150.659080067242911, -35.077349717099274 ], [ 150.659090107732027, -35.077353320387438 ], [ 150.659100102812062, -35.07735697778778 ], [ 150.659110070599809, -35.07736070767973 ], [ 150.659120002919593, -35.077364489171451 ], [ 150.659129898895998, -35.077368352896215 ], [ 150.659139750327654, -35.077372278863187 ], [ 150.659149575239496, -35.077376250292446 ], [ 150.659159363859516, -35.077380302152818 ], [ 150.659169107353762, -35.077384398214704 ], [ 150.659178825464636, -35.077388576721305 ], [ 150.659188487515593, -35.077392798316829 ], [ 150.659198124234678, -35.077397100555153 ], [ 150.659208128290487, -35.077401403576296 ], [ 150.659217612275796, -35.077405831774513 ], [ 150.659227042110075, -35.077410313014745 ], [ 150.659236418322848, -35.077414867139709 ], [ 150.659245767809921, -35.077419473934903 ], [ 150.65925506306877, -35.077424136475095 ], [ 150.659263964233304, -35.077428698552204 ], [ 150.65927013247628, -35.077431925053496 ], [ 150.659276253930585, -35.077435215557166 ], [ 150.659282323682675, -35.077438550135852 ], [ 150.659288347278732, -35.077441964955689 ], [ 150.659294317186607, -35.077445416600426 ], [ 150.659300251317205, -35.077448930657233 ], [ 150.659306123083638, -35.077452516528929 ], [ 150.659311940117419, -35.077456137402443 ], [ 150.659317713676302, -35.077459821440861 ], [ 150.659323414168625, -35.07746356807278 ], [ 150.659329088979263, -35.077467369198494 ], [ 150.659334690955063, -35.077471224808932 ], [ 150.659340248926384, -35.077475123741628 ], [ 150.659345743695042, -35.077479085458336 ], [ 150.659351166467388, -35.077483110690743 ], [ 150.65935656328594, -35.077487161564498 ], [ 150.659361879057116, -35.077491285695388 ], [ 150.659367140934165, -35.077495453859107 ], [ 150.659372348659645, -35.077499675065425 ], [ 150.659377493388433, -35.077503951847973 ], [ 150.659382576551167, -35.07750827251521 ], [ 150.659387597051904, -35.077512637045984 ], [ 150.659392563349599, -35.077517056421335 ], [ 150.659397465606048, -35.077521529549827 ], [ 150.65940229859882, -35.077526047315871 ], [ 150.659407065590102, -35.077530610683951 ], [ 150.659411782000973, -35.077535217247416 ], [ 150.659416424712674, -35.077539870165772 ], [ 150.659420987781886, -35.077544585550768 ], [ 150.659425505143759, -35.077549327097273 ], [ 150.659429951888455, -35.077554122269966 ], [ 150.659434335055352, -35.077558954978279 ], [ 150.659438637792618, -35.077563839320383 ], [ 150.659442886815981, -35.077568761388562 ], [ 150.659447055615686, -35.077573727882729 ], [ 150.659451160076173, -35.077578720178657 ], [ 150.659455193893763, -35.077583767001798 ], [ 150.65945916502352, -35.077588858589557 ], [ 150.659463064954934, -35.077593985762874 ], [ 150.659466883824138, -35.077599148331267 ], [ 150.659470639115426, -35.077604348435322 ], [ 150.659474314183001, -35.077609592965409 ], [ 150.659477927129075, -35.077614862438615 ], [ 150.659480644128138, -35.077618636192128 ], [ 150.659397591838314, -35.077649168249664 ], [ 150.658372601899629, -35.078026012879725 ], [ 150.657242527502149, -35.077943553587787 ], [ 150.657015818060302, -35.077952597176242 ], [ 150.657012519588136, -35.077952517190312 ], [ 150.655079006280147, -35.076815030003687 ], [ 150.65470101117711, -35.076338558987075 ], [ 150.654499462946205, -35.07591784356697 ], [ 150.654459975614287, -35.075695938810938 ], [ 150.654515902711665, -35.07553588698751 ], [ 150.654985257395026, -35.075259322399489 ], [ 150.655043487546777, -35.075225017357447 ], [ 150.655343654843534, -35.075048157206581 ], [ 150.655411127856951, -35.075008401958137 ], [ 150.655888827667127, -35.074551803857815 ], [ 150.656259400182449, -35.0741975926544 ], [ 150.657294651404442, -35.073208076430419 ], [ 150.657606409102328, -35.072681084090306 ], [ 150.657647482898312, -35.072752303746938 ], [ 150.657809490153738, -35.07303319858616 ], [ 150.657993656848333, -35.073352505024438 ], [ 150.658022690502634, -35.073402847247273 ], [ 150.65815415774324, -35.073650539822367 ], [ 150.658173779606017, -35.07368750708703 ], [ 150.658249329516195, -35.073837680329873 ], [ 150.658268081699532, -35.073874961620355 ], [ 150.658356100597274, -35.074064424891937 ], [ 150.658493321186342, -35.074363489755719 ], [ 150.658495840673083, -35.074369066271281 ], [ 150.658498278261874, -35.074374669150522 ], [ 150.658500636144652, -35.074380298435763 ], [ 150.658502922507978, -35.074385936255695 ], [ 150.658505109412459, -35.074391601001551 ], [ 150.658507224230988, -35.074397294103584 ], [ 150.658509250833333, -35.074403004432526 ], [ 150.658511204820257, -35.074408723274949 ], [ 150.658513060444164, -35.074414469064521 ], [ 150.65851484454862, -35.074420223388763 ], [ 150.658516548082673, -35.074425995989081 ], [ 150.658518151551107, -35.074431778375626 ], [ 150.658519685176827, -35.07443758735873 ], [ 150.658521136349265, -35.074443403763873 ], [ 150.65852249046057, -35.074449239929493 ], [ 150.658523763446254, -35.074455075429498 ], [ 150.658524956118981, -35.074460920195818 ], [ 150.658526058383472, -35.074466782146722 ], [ 150.658527080309227, -35.074472654264916 ], [ 150.658528021973467, -35.074478533847476 ], [ 150.658528873435415, -35.074484423406794 ], [ 150.658529653411676, -35.074490205211148 ], [ 150.658530334384011, -35.074496113112581 ], [ 150.658530916437911, -35.074502029019463 ], [ 150.658531428299739, -35.074507945373426 ], [ 150.658531848914748, -35.074513869881038 ], [ 150.658532171655708, -35.074519804217211 ], [ 150.658532423134318, -35.0745257380783 ], [ 150.658532583829611, -35.074531663875447 ], [ 150.658532656565797, -35.074537597889744 ], [ 150.6585326380293, -35.074543540958672 ], [ 150.658532521901947, -35.074549483945404 ], [ 150.658532314759384, -35.074555426976978 ], [ 150.658532037682079, -35.074561361445845 ], [ 150.658531670453726, -35.074567304089513 ], [ 150.658531213512106, -35.074573239591381 ], [ 150.658530665864163, -35.074579164326316 ], [ 150.658529805622493, -35.074585321913979 ], [ 150.658529053226658, -35.074591274245506 ], [ 150.658528219704749, -35.074597225911411 ], [ 150.658527287727594, -35.074603169365147 ], [ 150.658526283649451, -35.074609103312831 ], [ 150.658525171484229, -35.074615020749022 ], [ 150.658523988107902, -35.07462093590815 ], [ 150.658522715301388, -35.07462683401468 ], [ 150.658521353645511, -35.07463273310934 ], [ 150.658519900419009, -35.074638613307094 ], [ 150.658518376444874, -35.074644475010174 ], [ 150.658516753989574, -35.07465032940204 ], [ 150.658515060554862, -35.074656173408023 ], [ 150.658513266987825, -35.074661991139898 ], [ 150.658511393879735, -35.074667791108709 ], [ 150.658509439645343, -35.074673590411848 ], [ 150.658507396238122, -35.074679363652578 ], [ 150.65850527112363, -35.074685118186899 ], [ 150.658503056836253, -35.074690846658804 ], [ 150.658500762775986, -35.074696565476408 ], [ 150.658498387240201, -35.074702257478791 ], [ 150.658495922557222, -35.074707922517746 ], [ 150.658493375857887, -35.074713579662003 ], [ 150.658490749087974, -35.074719199200466 ], [ 150.658488051518702, -35.074724802046141 ], [ 150.658485264827931, -35.074730377027421 ], [ 150.658482386772249, -35.074735925903873 ], [ 150.658479437104489, -35.074741448155585 ], [ 150.658476407057066, -35.074746943613214 ], [ 150.658473306519227, -35.074752411566287 ], [ 150.658470114642171, -35.074757852513557 ], [ 150.658466843738864, -35.074763257678086 ], [ 150.658463490289705, -35.074768635105194 ], [ 150.658460075323717, -35.074773977989246 ], [ 150.658456569856895, -35.07477930289842 ], [ 150.658452993576219, -35.074784573252487 ], [ 150.658449326768931, -35.074789826532637 ], [ 150.658445598496314, -35.074795043467766 ], [ 150.658441787909538, -35.074800224556618 ], [ 150.658437907321542, -35.074805361022271 ], [ 150.658433954051134, -35.074810469940957 ], [ 150.658429929657814, -35.074815535116244 ], [ 150.658425823788718, -35.074820573476174 ], [ 150.65842164575227, -35.074825566269531 ], [ 150.658417397714572, -35.074830514439689 ], [ 150.658413077251936, -35.074835426053056 ], [ 150.658408684338667, -35.074840302010621 ], [ 150.658404229327573, -35.074845125384321 ], [ 150.65839970272998, -35.074849921232158 ], [ 150.6583951041967, -35.074854663404622 ], [ 150.658390434334507, -35.074859369041441 ], [ 150.65838570104674, -35.074864030181978 ], [ 150.658380895797563, -35.074868638548111 ], [ 150.658376028012754, -35.07487320964696 ], [ 150.658371089130725, -35.074877736101321 ], [ 150.658366095848294, -35.074882209218977 ], [ 150.658361032564585, -35.07488663771332 ], [ 150.65835590366342, -35.074891021669032 ], [ 150.658350723701176, -35.074895350549561 ], [ 150.658345461656467, -35.074899635474843 ], [ 150.658340155358189, -35.074903857343195 ], [ 150.658334776609195, -35.074908043555595 ], [ 150.658329344555739, -35.074912176452422 ], [ 150.657721764668992, -35.075369616493141 ], [ 150.657717452893877, -35.075372879449887 ], [ 150.657713203770641, -35.075376213932181 ], [ 150.657708999930236, -35.075379575432123 ], [ 150.657704866645162, -35.075383000497062 ], [ 150.657700797648886, -35.075386478188236 ], [ 150.657696781349557, -35.075389992055094 ], [ 150.657692838106641, -35.075393558717622 ], [ 150.657688946413202, -35.075397163336611 ], [ 150.657685128640281, -35.075400828881236 ], [ 150.65768137233195, -35.07540453077101 ], [ 150.657677680260889, -35.075408287088997 ], [ 150.657674057351898, -35.075412078999399 ], [ 150.657670500059481, -35.07541591544846 ], [ 150.657667003974069, -35.075419797252437 ], [ 150.657663588036115, -35.075423713959658 ], [ 150.657660236335374, -35.075427685095129 ], [ 150.657656945260925, -35.075431683544814 ], [ 150.657653736268259, -35.075435725949873 ], [ 150.657650590700257, -35.075439812851265 ], [ 150.657647515596437, -35.075443928158499 ], [ 150.657644512453089, -35.075448096240294 ], [ 150.657641582275033, -35.07545228195854 ], [ 150.657638730839324, -35.075456513370632 ], [ 150.657635943085978, -35.07546078026931 ], [ 150.657633235711984, -35.075465073962469 ], [ 150.657630609298025, -35.075469412490882 ], [ 150.657628045702353, -35.07547377837593 ], [ 150.657625562254225, -35.075478179164257 ], [ 150.657623142720325, -35.075482607330422 ], [ 150.657620812050084, -35.075487072371295 ], [ 150.65761855330075, -35.07549155322554 ], [ 150.657616384253458, -35.075496079985449 ], [ 150.657614276347772, -35.075500616040117 ], [ 150.657612251851816, -35.075505187962634 ], [ 150.657610305569165, -35.075509785736372 ], [ 150.657608433038632, -35.07551441197954 ], [ 150.657606648842716, -35.075519055254773 ], [ 150.657604936258593, -35.075523725155122 ], [ 150.657603306245875, -35.075528421892415 ], [ 150.657601754652603, -35.075533137273105 ], [ 150.657600284792437, -35.075537870459783 ], [ 150.657598885448152, -35.075542630250425 ], [ 150.657597577958256, -35.075547399027897 ], [ 150.657596348630278, -35.075552195458563 ], [ 150.657595202182875, -35.075557007914448 ], [ 150.657594125619198, -35.075561830735559 ], [ 150.657593139530633, -35.075566672433055 ], [ 150.657592235226758, -35.075571530134603 ], [ 150.657591409574337, -35.075576398370806 ], [ 150.657590674474307, -35.075581282780476 ], [ 150.65759001170764, -35.075586168587968 ], [ 150.657589438345894, -35.07559107234971 ], [ 150.657588935783622, -35.075595992804708 ], [ 150.657588524211775, -35.075600914116571 ], [ 150.657588192438908, -35.07560584418232 ], [ 150.657587940722664, -35.075610773992203 ], [ 150.657587779455923, -35.075615723579467 ], [ 150.657586910309391, -35.075648190533848 ], [ 150.657602641965553, -35.075761656699051 ], [ 150.657624900898298, -35.075912843208556 ], [ 150.657586946812359, -35.076128964069582 ], [ 150.657582420645355, -35.076153221834467 ], [ 150.657543293507189, -35.076191004656764 ], [ 150.657657996484033, -35.076271303412511 ], [ 150.657618895789426, -35.076309042596932 ], [ 150.657686798246118, -35.076356587808654 ], [ 150.657691342566409, -35.076359805544179 ], [ 150.657695843179198, -35.076363094552931 ], [ 150.657700262421059, -35.076366429767276 ], [ 150.657704654097643, -35.076369808621081 ], [ 150.657708975105351, -35.076373242902058 ], [ 150.657713232935691, -35.076376739065289 ], [ 150.657717428619122, -35.076380261071726 ], [ 150.657721578609255, -35.076383847101233 ], [ 150.657725657169379, -35.076387476824074 ], [ 150.657729681783707, -35.076391152381035 ], [ 150.657733626174519, -35.076394872362911 ], [ 150.657737525155369, -35.076398646457108 ], [ 150.65774135293816, -35.076402456135888 ], [ 150.657745127639146, -35.076406319778769 ], [ 150.657748811672178, -35.07641020961524 ], [ 150.657752441269821, -35.076414162404454 ], [ 150.657756000158884, -35.076418133659658 ], [ 150.657759505966112, -35.076422158879033 ], [ 150.657762920821995, -35.076426220202748 ], [ 150.657766282066831, -35.076430315647954 ], [ 150.657766407927767, -35.07643047764109 ], [ 150.657769562753288, -35.076434467230811 ], [ 150.657772772808357, -35.076438634576768 ], [ 150.657775918796119, -35.076442856576101 ], [ 150.657778976024417, -35.076447114722178 ], [ 150.657781979009371, -35.076451390750982 ], [ 150.657784900674812, -35.076455711183606 ], [ 150.657787751116359, -35.076460068101809 ], [ 150.657790520521729, -35.076464459513083 ], [ 150.657793219192627, -35.076468870291407 ], [ 150.657795845595132, -35.076473315732208 ], [ 150.657798392005844, -35.076477797489218 ], [ 150.65780085623291, -35.076482315520074 ], [ 150.657803249751197, -35.076486852017027 ], [ 150.657805562722729, -35.076491405888476 ], [ 150.657807794632248, -35.076495995154012 ], [ 150.657809945711591, -35.076500611704816 ], [ 150.657812017082534, -35.076505254661086 ], [ 150.657814015552702, -35.076509916041132 ], [ 150.657815934288664, -35.076514604727635 ], [ 150.657817762614002, -35.076519310598059 ], [ 150.657819520230504, -35.076524034934607 ], [ 150.657821187410605, -35.076528777356089 ], [ 150.657822782605507, -35.076533544529347 ], [ 150.657824288408477, -35.076538331610671 ], [ 150.657825713638772, -35.076543136967523 ], [ 150.657827058322141, -35.076547959698928 ], [ 150.657828321877844, -35.076552781764178 ], [ 150.657829496905634, -35.076557631867459 ], [ 150.657830590290473, -35.076562499324126 ], [ 150.657831593754025, -35.076567366846199 ], [ 150.657832526534349, -35.076572251933442 ], [ 150.657833368878158, -35.076577155105625 ], [ 150.657834121532488, -35.076582050234393 ], [ 150.657834687203717, -35.076587041813852 ], [ 150.657835304718418, -35.076591946050513 ], [ 150.657835843322999, -35.076596848762406 ], [ 150.657836281859062, -35.076601761259852 ], [ 150.657836649943647, -35.076606683213683 ], [ 150.65786215308475, -35.077026187857584 ], [ 150.657862449361573, -35.077030553115058 ], [ 150.657862825928362, -35.077034910007733 ], [ 150.657863301210739, -35.077039266103419 ], [ 150.657863857040667, -35.077043604824546 ], [ 150.657864501954208, -35.07704793444929 ], [ 150.657865228021905, -35.077052263839207 ], [ 150.657866053011304, -35.077056585224341 ], [ 150.657866948993643, -35.077060878232558 ], [ 150.657867944478511, -35.077065181276701 ], [ 150.657869011188154, -35.077069447835164 ], [ 150.657870176304385, -35.077073724408343 ], [ 150.657871413483804, -35.077077973526798 ], [ 150.657872749868375, -35.077082204729692 ], [ 150.657874165730476, -35.077086417635833 ], [ 150.657875661908463, -35.077090621276184 ], [ 150.657877249851595, -35.077094798743943 ], [ 150.65787890766606, -35.077098948714578 ], [ 150.657880574445443, -35.077102785145165 ], [ 150.657882394966634, -35.077106882368227 ], [ 150.657884303759033, -35.077110960562969 ], [ 150.657886275821141, -35.077115012034497 ], [ 150.657888355249838, -35.077119028620132 ], [ 150.657890498812378, -35.077123026612497 ], [ 150.657892721852562, -35.077127006308103 ], [ 150.657895033885268, -35.077130941748003 ], [ 150.657897409471104, -35.077134840553917 ], [ 150.657899211053433, -35.077137682557755 ], [ 150.657899865604804, -35.0771387219852 ], [ 150.657902411852803, -35.077142558280975 ], [ 150.657905019152878, -35.077146368712121 ], [ 150.657907717173799, -35.077150151147485 ], [ 150.657910478953966, -35.077153889741041 ], [ 150.657913311984913, -35.077157590947834 ], [ 150.657916224957262, -35.077161257640221 ], [ 150.657919200618664, -35.077164879568649 ], [ 150.657922266743356, -35.07716848251102 ], [ 150.657925394950553, -35.077172023549643 ], [ 150.657928576821348, -35.077175528664633 ], [ 150.657931848548884, -35.077178997653832 ], [ 150.657935192855149, -35.077182421168615 ], [ 150.657938589354302, -35.077185783490037 ], [ 150.65794205878106, -35.077189126486552 ], [ 150.657945591128737, -35.077192416610238 ], [ 150.65794919521673, -35.077195652228568 ], [ 150.657952860897808, -35.077198843061659 ], [ 150.657956589525554, -35.077201980120954 ], [ 150.657960381655016, -35.077205082348108 ], [ 150.657964218099437, -35.077208130441441 ], [ 150.657968136148014, -35.07721112421995 ], [ 150.6579720984858, -35.077214064765599 ], [ 150.657976140003967, -35.077216959062859 ], [ 150.657980218603115, -35.077219783761436 ], [ 150.657984359659508, -35.077222571804711 ], [ 150.657988546965242, -35.077225314766252 ], [ 150.657992794702466, -35.077227976861067 ], [ 150.657997079921159, -35.077230593704719 ], [ 150.658001436828641, -35.077233157844901 ], [ 150.658005838308696, -35.077235658841403 ], [ 150.658010284361268, -35.077238096694252 ], [ 150.658014784566859, -35.077240481504766 ], [ 150.658019329113188, -35.077242811280399 ], [ 150.658023909412634, -35.077245079544909 ], [ 150.65802855378044, -35.0772472931557 ], [ 150.658033232224625, -35.077249427193443 ], [ 150.65803794731184, -35.07725150694904 ], [ 150.658042697946115, -35.077253532401301 ], [ 150.658047494223098, -35.077255495632016 ], [ 150.658052334208378, -35.07725738758905 ], [ 150.658057202609768, -35.077259206173991 ], [ 150.658062105410664, -35.077260972236346 ], [ 150.658067044803033, -35.077262685818468 ], [ 150.658072019470694, -35.077264316244808 ], [ 150.658077021097796, -35.077265885891514 ], [ 150.658082059651178, -35.077267391345281 ], [ 150.658087114487472, -35.077268825896923 ], [ 150.658092207088458, -35.07727020528656 ], [ 150.658097593830433, -35.077271729186201 ], [ 150.658102712936483, -35.07727294862498 ], [ 150.658107875493187, -35.077274105799788 ], [ 150.658113047834092, -35.077275189242478 ], [ 150.658118228502644, -35.077276211545552 ], [ 150.658123445233286, -35.077277161525686 ], [ 150.658128680438665, -35.077278040646007 ], [ 150.658133915512849, -35.077278847645594 ], [ 150.658139177881225, -35.077279582152819 ], [ 150.658144458209165, -35.077280263819773 ], [ 150.65814973759322, -35.077280863434062 ], [ 150.658155026915978, -35.077281383910332 ], [ 150.658160342153479, -35.077281841783822 ], [ 150.658165639749768, -35.077282226296781 ], [ 150.658170956375784, -35.077282558891611 ], [ 150.658176279987288, -35.077282800572206 ], [ 150.658181595512303, -35.077282979894569 ], [ 150.658186919673852, -35.077283087265549 ] ] ] ] } },
{ "type": "Feature", "properties": { "OBJECTID": 332, "Comments": "Downloaded from SEED Map Service 20250513", "FSource": "https://mapprod3.environment.nsw.gov.au/arcgis/rest/services/Planning/EPI_Primary_Planning_Layers/MapServer/2", "SourceDate": 20250513.0, "Supplier": "DOP", "EPI_NAME": "Shoalhaven Local Environmental Plan 2014", "LGA_NAME": "SHOALHAVEN", "PUBLISHED_DATE": "20230224000000", "COMMENCED_DATE": "20230426000000", "CURRENCY_DATE": "20240823000000", "AMENDMENT": "State Environmental Planning Policy Amendment (Land Use Zones) 2023", "MAP_TYPE": "LZN", "MAP_NAME": "Land Zoning Map", "LAY_NAME": "Zone", "LAY_CLASS": "Local Centre", "PCO_REF_KEY": "2014-179", "EPI_TYPE": "LEP", "SYM_CODE": "E1", "PURPOSE": null, "arcgisonline_objectid": 586400.0, "arcgisonline_type": "arcgisonline_polygon", "multi_reader_type": "ARCGISFEATURES", "SHAPE_Length": 542.72665901029075, "SHAPE_Area": 17569.814368525567 }, "geometry": { "type": "MultiPolygon", "coordinates": [ [ [ [ 150.553669771843033, -34.890711312947772 ], [ 150.553382265959925, -34.892094424368082 ], [ 150.552193428413233, -34.892070215465651 ], [ 150.552504172630307, -34.890556537193362 ], [ 150.553669771843033, -34.890711312947772 ] ] ] ] } },
{ "type": "Feature", "properties": { "OBJECTID": 593, "Comments": "Downloaded from SEED Map Service 20250513", "FSource": "https://mapprod3.environment.nsw.gov.au/arcgis/rest/services/Planning/EPI_Primary_Planning_Layers/MapServer/2", "SourceDate": 20250513.0, "Supplier": "DOP", "EPI_NAME": "Shoalhaven Local Environmental Plan 2014", "LGA_NAME": "SHOALHAVEN", "PUBLISHED_DATE": "20230224000000", "COMMENCED_DATE": "20230426000000", "CURRENCY_DATE": "20240823000000", "AMENDMENT": "State Environmental Planning Policy Amendment (Land Use Zones) 2023", "MAP_TYPE": "LZN", "MAP_NAME": "Land Zoning Map", "LAY_NAME": "Zone", "LAY_CLASS": "Local Centre", "PCO_REF_KEY": "2014-179", "EPI_TYPE": "LEP", "SYM_CODE": "E1", "PURPOSE": null, "arcgisonline_objectid": 586985.0, "arcgisonline_type": "arcgisonline_polygon", "multi_reader_type": "ARCGISFEATURES", "SHAPE_Length": 219.4706261742632, "SHAPE_Area": 2203.3147823780696 }, "geometry": { "type": "MultiPolygon", "coordinates": [ [ [ [ 150.590827239095432, -35.090171522133296 ], [ 150.59071129031031, -35.090156462316941 ], [ 150.59058049596544, -35.090139467483127 ], [ 150.590645225816473, -35.089819326826408 ], [ 150.590415300174527, -35.089743706994597 ], [ 150.590452752274672, -35.089547924723178 ], [ 150.590730141875156, -35.089516246372057 ], [ 150.59094806493971, -35.089544625866253 ], [ 150.590827239095432, -35.090171522133296 ] ] ] ] } },
{ "type": "Feature", "properties": { "OBJECTID": 612, "Comments": "Downloaded from SEED Map Service 20250513", "FSource": "https://mapprod3.environment.nsw.gov.au/arcgis/rest/services/Planning/EPI_Primary_Planning_Layers/MapServer/2", "SourceDate": 20250513.0, "Supplier": "DOP", "EPI_NAME": "Shoalhaven Local Environmental Plan 2014", "LGA_NAME": "SHOALHAVEN", "PUBLISHED_DATE": "20230224000000", "COMMENCED_DATE": "20230426000000", "CURRENCY_DATE": "20240823000000", "AMENDMENT": "State Environmental Planning Policy Amendment (Land Use Zones) 2023", "MAP_TYPE": "LZN", "MAP_NAME": "Land Zoning Map", "LAY_NAME": "Zone", "LAY_CLASS": "Local Centre", "PCO_REF_KEY": "2014-179", "EPI_TYPE": "LEP", "SYM_CODE": "E1", "PURPOSE": null, "arcgisonline_objectid": 587023.0, "arcgisonline_type": "arcgisonline_polygon", "multi_reader_type": "ARCGISFEATURES", "SHAPE_Length": 295.81200285911524, "SHAPE_Area": 4835.5232681088764 }, "geometry": { "type": "MultiPolygon", "coordinates": [ [ [ [ 150.563391297466154, -35.0913098131971 ], [ 150.56336174401514, -35.091296044252232 ], [ 150.563188631420189, -35.091215394580445 ], [ 150.563079261360144, -35.091164434849844 ], [ 150.56299451568907, -35.091146891241834 ], [ 150.562980595280976, -35.091143996191228 ], [ 150.562701725075215, -35.09108622347609 ], [ 150.562700935554432, -35.09108607147779 ], [ 150.56240914035331, -35.091025617745956 ], [ 150.562447022147268, -35.09083844955974 ], [ 150.562499963291884, -35.090576790796909 ], [ 150.562791776480879, -35.090637252756338 ], [ 150.563084576790402, -35.090697912357768 ], [ 150.563286428220437, -35.090739729445652 ], [ 150.563298241950633, -35.090745233270802 ], [ 150.563500891898428, -35.090839643251584 ], [ 150.563391297466154, -35.0913098131971 ] ] ] ] } }
]
}
