{
"type": "FeatureCollection",
"name": "R3_Medium Density Residential",
"crs": { "type": "name", "properties": { "name": "urn:ogc:def:crs:OGC:1.3:CRS84" } },
"features": [
{ "type": "Feature", "properties": { "OBJECTID": 27, "Comments": "Downloaded from SEED Map Service 20250513", "FSource": "https://mapprod3.environment.nsw.gov.au/arcgis/rest/services/Planning/EPI_Primary_Planning_Layers/MapServer/2", "SourceDate": 20250513.0, "Supplier": "DOP", "EPI_NAME": "Shoalhaven Local Environmental Plan 2014", "LGA_NAME": "SHOALHAVEN", "PUBLISHED_DATE": "20140408000000", "COMMENCED_DATE": "20140422000000", "CURRENCY_DATE": "20240823000000", "AMENDMENT": null, "MAP_TYPE": "LZN", "MAP_NAME": "Land Zoning Map", "LAY_NAME": "Zone", "LAY_CLASS": "Medium Density Residential", "PCO_REF_KEY": "2014-179", "EPI_TYPE": "LEP", "SYM_CODE": "R3", "PURPOSE": null, "arcgisonline_objectid": 584979.0, "arcgisonline_type": "arcgisonline_polygon", "multi_reader_type": "ARCGISFEATURES", "SHAPE_Length": 2138.8867466876154, "SHAPE_Area": 165557.13669569656 }, "geometry": { "type": "MultiPolygon", "coordinates": [ [ [ [ 150.674619358434342, -35.044093223090712 ], [ 150.674582080640363, -35.044269088846725 ], [ 150.674256683384215, -35.044220279424707 ], [ 150.673707727309221, -35.044148379273281 ], [ 150.673445868118364, -35.045401319978183 ], [ 150.673385145977619, -35.045392858323531 ], [ 150.672842785268642, -35.045317246661476 ], [ 150.672516711384418, -35.045271781148443 ], [ 150.671969151962116, -35.045195443795897 ], [ 150.671902487156956, -35.045186156944716 ], [ 150.671375106096264, -35.045112634727197 ], [ 150.671320604581126, -35.045379178544096 ], [ 150.671040353340857, -35.045340427932217 ], [ 150.670749380525223, -35.045300644972507 ], [ 150.670768276910678, -35.045323198818508 ], [ 150.670735979342282, -35.045483762442537 ], [ 150.67070612904314, -35.04563214175927 ], [ 150.670673285090487, -35.045795375865545 ], [ 150.670643254951898, -35.045944636054664 ], [ 150.670610222076363, -35.046108838299716 ], [ 150.670608536485986, -35.046117201416976 ], [ 150.670579098824533, -35.046263538638087 ], [ 150.670559880904136, -35.046359121341702 ], [ 150.670545376032862, -35.046431102746212 ], [ 150.670513293964149, -35.046590643621414 ], [ 150.670481892278957, -35.0467466799726 ], [ 150.670017780514542, -35.046686907653729 ], [ 150.669531750923227, -35.046622366289462 ], [ 150.669568539574158, -35.046439376689293 ], [ 150.66960371403232, -35.046264426108436 ], [ 150.66964011781667, -35.046083317677947 ], [ 150.669676440532442, -35.045902702584094 ], [ 150.669713623249066, -35.045717739025719 ], [ 150.669748386191912, -35.045544824123205 ], [ 150.669785461406889, -35.045360390335361 ], [ 150.669815678776075, -35.045210063913274 ], [ 150.669895146410369, -35.04488068234658 ], [ 150.66992599112379, -35.044727550804417 ], [ 150.669961776268764, -35.044549911845529 ], [ 150.669982482950104, -35.044447112617114 ], [ 150.669996942763021, -35.04437532962487 ], [ 150.670024865411875, -35.044236719752384 ], [ 150.670032475648696, -35.044198918108656 ], [ 150.670070044220097, -35.044012385989866 ], [ 150.670105228925422, -35.043837722932146 ], [ 150.670250427971496, -35.043116858065304 ], [ 150.670312871896272, -35.042849640615053 ], [ 150.670340714262721, -35.042711846721261 ], [ 150.670352699918652, -35.042652549427828 ], [ 150.670384621091955, -35.042494523488671 ], [ 150.670410464234749, -35.042366634506159 ], [ 150.670415672774141, -35.042340862935433 ], [ 150.670434792255804, -35.042246239275023 ], [ 150.67045750753411, -35.042133803790684 ], [ 150.670460618603386, -35.042118395025767 ], [ 150.670493803339042, -35.041954147843761 ], [ 150.670531694760967, -35.041766584980039 ], [ 150.670566932678071, -35.041592208487188 ], [ 150.670603936324966, -35.041409029567028 ], [ 150.670633527325379, -35.041262577057537 ], [ 150.670675147766758, -35.041056574712591 ], [ 150.670724172059096, -35.040789896959176 ], [ 150.671272894987823, -35.040866027336811 ], [ 150.671301194550637, -35.040869954041632 ], [ 150.67133836817078, -35.040875116698722 ], [ 150.671878218246945, -35.040950011123016 ], [ 150.672204185026601, -35.040988206422064 ], [ 150.672743739488254, -35.041061756245973 ], [ 150.67280907779454, -35.04107066644108 ], [ 150.673352987959646, -35.04114480649713 ], [ 150.6736792790214, -35.041189285606613 ], [ 150.673625144737741, -35.04145791036035 ], [ 150.673552749614828, -35.04182203669879 ], [ 150.673529712836626, -35.041937922070346 ], [ 150.673508495073975, -35.042044665238812 ], [ 150.673481601907383, -35.042179914378664 ], [ 150.673451007952679, -35.042333834330051 ], [ 150.673427540877782, -35.042451855138346 ], [ 150.673408823675203, -35.042546057047623 ], [ 150.673371648665579, -35.04273300091895 ], [ 150.673337380037424, -35.042905351443622 ], [ 150.673267360283745, -35.043257510809596 ], [ 150.673548150053847, -35.043295231585894 ], [ 150.673810276455441, -35.043330468003056 ], [ 150.673876260277268, -35.043339334148726 ], [ 150.674069300286135, -35.043365266625955 ], [ 150.674387631442073, -35.043408051586248 ], [ 150.674665054794986, -35.043441796400636 ], [ 150.674659814927622, -35.043468639437755 ], [ 150.674750856858964, -35.043481367984789 ], [ 150.674691823867931, -35.043751363244141 ], [ 150.674619358434342, -35.044093223090712 ] ] ] ] } },
{ "type": "Feature", "properties": { "OBJECTID": 116, "Comments": "Downloaded from SEED Map Service 20250513", "FSource": "https://mapprod3.environment.nsw.gov.au/arcgis/rest/services/Planning/EPI_Primary_Planning_Layers/MapServer/2", "SourceDate": 20250513.0, "Supplier": "DOP", "EPI_NAME": "Shoalhaven Local Environmental Plan 2014", "LGA_NAME": "SHOALHAVEN", "PUBLISHED_DATE": "20140408000000", "COMMENCED_DATE": "20140422000000", "CURRENCY_DATE": "20240823000000", "AMENDMENT": null, "MAP_TYPE": "LZN", "MAP_NAME": "Land Zoning Map", "LAY_NAME": "Zone", "LAY_CLASS": "Medium Density Residential", "PCO_REF_KEY": "2014-179", "EPI_TYPE": "LEP", "SYM_CODE": "R3", "PURPOSE": null, "arcgisonline_objectid": 585474.0, "arcgisonline_type": "arcgisonline_polygon", "multi_reader_type": "ARCGISFEATURES", "SHAPE_Length": 325.75745579973113, "SHAPE_Area": 4203.0893872993911 }, "geometry": { "type": "MultiPolygon", "coordinates": [ [ [ [ 150.634632485335686, -35.112611776641657 ], [ 150.63466566049857, -35.112444104512377 ], [ 150.634667417534359, -35.112435203489966 ], [ 150.63469908786837, -35.112275178845437 ], [ 150.634728381436105, -35.112127120715037 ], [ 150.634778929006387, -35.112096732007338 ], [ 150.634900552591887, -35.112112966306142 ], [ 150.635065571389333, -35.112134999297602 ], [ 150.635329596524031, -35.112170255308932 ], [ 150.635118270575703, -35.112676649429012 ], [ 150.63496251278201, -35.112655842969055 ], [ 150.634947407524606, -35.112653827207588 ], [ 150.63464712466012, -35.113198954238065 ], [ 150.63452526802655, -35.113153659076815 ], [ 150.634632485335686, -35.112611776641657 ] ] ] ] } },
{ "type": "Feature", "properties": { "OBJECTID": 117, "Comments": "Downloaded from SEED Map Service 20250513", "FSource": "https://mapprod3.environment.nsw.gov.au/arcgis/rest/services/Planning/EPI_Primary_Planning_Layers/MapServer/2", "SourceDate": 20250513.0, "Supplier": "DOP", "EPI_NAME": "Shoalhaven Local Environmental Plan 2014", "LGA_NAME": "SHOALHAVEN", "PUBLISHED_DATE": "20140408000000", "COMMENCED_DATE": "20140422000000", "CURRENCY_DATE": "20240823000000", "AMENDMENT": null, "MAP_TYPE": "LZN", "MAP_NAME": "Land Zoning Map", "LAY_NAME": "Zone", "LAY_CLASS": "Medium Density Residential", "PCO_REF_KEY": "2014-179", "EPI_TYPE": "LEP", "SYM_CODE": "R3", "PURPOSE": null, "arcgisonline_objectid": 585475.0, "arcgisonline_type": "arcgisonline_polygon", "multi_reader_type": "ARCGISFEATURES", "SHAPE_Length": 732.97814906492977, "SHAPE_Area": 26817.82240729803 }, "geometry": { "type": "MultiPolygon", "coordinates": [ [ [ [ 150.624138197248556, -35.111820953176554 ], [ 150.624319879505322, -35.111844421902283 ], [ 150.624494820588126, -35.111867019885686 ], [ 150.624844684657575, -35.111912207532534 ], [ 150.625019616180083, -35.111934805476537 ], [ 150.625187959531246, -35.11195655196164 ], [ 150.625356294449404, -35.111978289935742 ], [ 150.625524637980362, -35.112000036860714 ], [ 150.625683219504651, -35.112020518603707 ], [ 150.625861315744942, -35.112043520816101 ], [ 150.626029650787331, -35.112065267778497 ], [ 150.626198343444628, -35.112086413928587 ], [ 150.62636633788884, -35.112108752324367 ], [ 150.626501666170526, -35.112126231701922 ], [ 150.62652950823508, -35.112157613500408 ], [ 150.626449648032519, -35.112576878343113 ], [ 150.626364391926472, -35.113024448802236 ], [ 150.626196030003172, -35.113002800901313 ], [ 150.625859307037956, -35.112959522448115 ], [ 150.625522584692192, -35.112916235864773 ], [ 150.625354223255727, -35.112894587711679 ], [ 150.625185861660327, -35.112872948337468 ], [ 150.625017510009229, -35.112851309827029 ], [ 150.625012650722994, -35.112850681806663 ], [ 150.624849147757942, -35.112829661861532 ], [ 150.624761820359481, -35.11281842048205 ], [ 150.624674190063871, -35.112807108196158 ], [ 150.624499293122312, -35.112784581613148 ], [ 150.624324495857678, -35.112762063945333 ], [ 150.624149545883739, -35.112739519594093 ], [ 150.623967235759437, -35.112716034657012 ], [ 150.623472111581037, -35.112652174480004 ], [ 150.623500598062265, -35.112502995759186 ], [ 150.623529095388108, -35.112353817239217 ], [ 150.62355759173343, -35.112204630575 ], [ 150.623586088846196, -35.112055451125677 ], [ 150.623614584716734, -35.111906272541603 ], [ 150.623643072766498, -35.111757094693715 ], [ 150.624138197248556, -35.111820953176554 ] ] ] ] } },
{ "type": "Feature", "properties": { "OBJECTID": 118, "Comments": "Downloaded from SEED Map Service 20250513", "FSource": "https://mapprod3.environment.nsw.gov.au/arcgis/rest/services/Planning/EPI_Primary_Planning_Layers/MapServer/2", "SourceDate": 20250513.0, "Supplier": "DOP", "EPI_NAME": "Shoalhaven Local Environmental Plan 2014", "LGA_NAME": "SHOALHAVEN", "PUBLISHED_DATE": "20140408000000", "COMMENCED_DATE": "20140422000000", "CURRENCY_DATE": "20240823000000", "AMENDMENT": null, "MAP_TYPE": "LZN", "MAP_NAME": "Land Zoning Map", "LAY_NAME": "Zone", "LAY_CLASS": "Medium Density Residential", "PCO_REF_KEY": "2014-179", "EPI_TYPE": "LEP", "SYM_CODE": "R3", "PURPOSE": null, "arcgisonline_objectid": 585476.0, "arcgisonline_type": "arcgisonline_polygon", "multi_reader_type": "ARCGISFEATURES", "SHAPE_Length": 405.48094309546491, "SHAPE_Area": 7668.0579650192385 }, "geometry": { "type": "MultiPolygon", "coordinates": [ [ [ [ 150.625587861633676, -35.110434557556914 ], [ 150.625533898030824, -35.110717317693691 ], [ 150.625368737011598, -35.110696037963322 ], [ 150.625299257709429, -35.110687083166553 ], [ 150.625203584888681, -35.110674757281998 ], [ 150.625038424067242, -35.110653477107782 ], [ 150.624867480606611, -35.110631451424112 ], [ 150.624688254890117, -35.110608360762782 ], [ 150.624534164764327, -35.11058850580752 ], [ 150.624377788322931, -35.110568355221638 ], [ 150.623882323198075, -35.110504503797841 ], [ 150.623910791571461, -35.11035520916392 ], [ 150.623967740307535, -35.110056610179591 ], [ 150.624463196585594, -35.110120487172992 ], [ 150.624623365897179, -35.110141122159405 ], [ 150.624792381269003, -35.11016290483569 ], [ 150.624963862529029, -35.1101850006456 ], [ 150.625123895499996, -35.110205617878044 ], [ 150.625289056522973, -35.110226898824472 ], [ 150.625454208899868, -35.11024817847612 ], [ 150.625619368998116, -35.110269459858166 ], [ 150.625587861633676, -35.110434557556914 ] ] ] ] } },
{ "type": "Feature", "properties": { "OBJECTID": 156, "Comments": "Downloaded from SEED Map Service 20250513", "FSource": "https://mapprod3.environment.nsw.gov.au/arcgis/rest/services/Planning/EPI_Primary_Planning_Layers/MapServer/2", "SourceDate": 20250513.0, "Supplier": "DOP", "EPI_NAME": "Shoalhaven Local Environmental Plan 2014", "LGA_NAME": "SHOALHAVEN", "PUBLISHED_DATE": "20140408000000", "COMMENCED_DATE": "20140422000000", "CURRENCY_DATE": "20240823000000", "AMENDMENT": null, "MAP_TYPE": "LZN", "MAP_NAME": "Land Zoning Map", "LAY_NAME": "Zone", "LAY_CLASS": "Medium Density Residential", "PCO_REF_KEY": "2014-179", "EPI_TYPE": "LEP", "SYM_CODE": "R3", "PURPOSE": null, "arcgisonline_objectid": 585574.0, "arcgisonline_type": "arcgisonline_polygon", "multi_reader_type": "ARCGISFEATURES", "SHAPE_Length": 699.02206178827896, "SHAPE_Area": 12279.848507639526 }, "geometry": { "type": "MultiPolygon", "coordinates": [ [ [ [ 150.625353322573289, -35.104739267110034 ], [ 150.625176964426089, -35.104781998130854 ], [ 150.625054050790595, -35.104439431414221 ], [ 150.62523040717204, -35.104396699620935 ], [ 150.625406765549513, -35.104353968507127 ], [ 150.625583121563864, -35.104311237085909 ], [ 150.625630648481945, -35.104299718290648 ], [ 150.625679960309924, -35.104273221463956 ], [ 150.625757938068546, -35.104231314169581 ], [ 150.625819842156545, -35.104198030797448 ], [ 150.625959734427056, -35.10412285008357 ], [ 150.626099616578955, -35.104047669003684 ], [ 150.626193165391101, -35.10399738988464 ], [ 150.626239508372095, -35.103972487043507 ], [ 150.62637939025575, -35.103897297509725 ], [ 150.626519264813226, -35.103822124792536 ], [ 150.626659147028391, -35.103746943944458 ], [ 150.626799030088137, -35.103671762945183 ], [ 150.626938912034944, -35.103596573643209 ], [ 150.627078804457994, -35.103521392491857 ], [ 150.62721868676249, -35.103446210974603 ], [ 150.627358570146697, -35.103371021197582 ], [ 150.627498451921639, -35.10329584023598 ], [ 150.627638334828447, -35.103220649212702 ], [ 150.627778225966608, -35.103145468098951 ], [ 150.627918108317658, -35.103070278532265 ], [ 150.628155977286468, -35.103369182142437 ], [ 150.628016093775386, -35.103444362937871 ], [ 150.627876211917908, -35.103519553514069 ], [ 150.627736328973526, -35.10359473488662 ], [ 150.627596436745705, -35.103669924924333 ], [ 150.627456563164685, -35.10374510614475 ], [ 150.627316671790879, -35.103820286849064 ], [ 150.627176788674603, -35.103895476561981 ], [ 150.627036906664131, -35.103970657114168 ], [ 150.626897014482864, -35.104045839102376 ], [ 150.626757132777811, -35.104121029241213 ], [ 150.626617060894148, -35.104196300224864 ], [ 150.626477170176031, -35.104271480836807 ], [ 150.626337278371182, -35.104346652245063 ], [ 150.626197387123455, -35.104421833412609 ], [ 150.626185894879512, -35.104428019483279 ], [ 150.626057494527657, -35.104497014385984 ], [ 150.625917602750263, -35.104572196109103 ], [ 150.625812976028271, -35.104627279990225 ], [ 150.625706035328733, -35.104653795201109 ], [ 150.625529679453706, -35.104696535803285 ], [ 150.625353322573289, -35.104739267110034 ] ] ] ] } },
{ "type": "Feature", "properties": { "OBJECTID": 159, "Comments": "Downloaded from SEED Map Service 20250513", "FSource": "https://mapprod3.environment.nsw.gov.au/arcgis/rest/services/Planning/EPI_Primary_Planning_Layers/MapServer/2", "SourceDate": 20250513.0, "Supplier": "DOP", "EPI_NAME": "Shoalhaven Local Environmental Plan 2014", "LGA_NAME": "SHOALHAVEN", "PUBLISHED_DATE": "20140408000000", "COMMENCED_DATE": "20140422000000", "CURRENCY_DATE": "20240823000000", "AMENDMENT": null, "MAP_TYPE": "LZN", "MAP_NAME": "Land Zoning Map", "LAY_NAME": "Zone", "LAY_CLASS": "Medium Density Residential", "PCO_REF_KEY": "2014-179", "EPI_TYPE": "LEP", "SYM_CODE": "R3", "PURPOSE": null, "arcgisonline_objectid": 585579.0, "arcgisonline_type": "arcgisonline_polygon", "multi_reader_type": "ARCGISFEATURES", "SHAPE_Length": 304.84689246744318, "SHAPE_Area": 4469.9745279923236 }, "geometry": { "type": "MultiPolygon", "coordinates": [ [ [ [ 150.628653951905932, -35.103101526266911 ], [ 150.628211930223671, -35.103339108325798 ], [ 150.627974053215752, -35.103040212777898 ], [ 150.628416073871477, -35.102802631539831 ], [ 150.628564347757049, -35.102722932243623 ], [ 150.628712621098742, -35.102643241763005 ], [ 150.628787076008592, -35.102603217879292 ], [ 150.628860893270087, -35.102563543859297 ], [ 150.629009219738606, -35.102483817081229 ], [ 150.629247096905686, -35.102782712465867 ], [ 150.629098761348388, -35.102862438446799 ], [ 150.62904339951362, -35.102892198825934 ], [ 150.628950496767885, -35.102942127766454 ], [ 150.62880222503955, -35.103021826673924 ], [ 150.628653951905932, -35.103101526266911 ] ] ] ] } },
{ "type": "Feature", "properties": { "OBJECTID": 160, "Comments": "Downloaded from SEED Map Service 20250513", "FSource": "https://mapprod3.environment.nsw.gov.au/arcgis/rest/services/Planning/EPI_Primary_Planning_Layers/MapServer/2", "SourceDate": 20250513.0, "Supplier": "DOP", "EPI_NAME": "Shoalhaven Local Environmental Plan 2014", "LGA_NAME": "SHOALHAVEN", "PUBLISHED_DATE": "20140408000000", "COMMENCED_DATE": "20140422000000", "CURRENCY_DATE": "20240823000000", "AMENDMENT": null, "MAP_TYPE": "LZN", "MAP_NAME": "Land Zoning Map", "LAY_NAME": "Zone", "LAY_CLASS": "Medium Density Residential", "PCO_REF_KEY": "2014-179", "EPI_TYPE": "LEP", "SYM_CODE": "R3", "PURPOSE": null, "arcgisonline_objectid": 585580.0, "arcgisonline_type": "arcgisonline_polygon", "multi_reader_type": "ARCGISFEATURES", "SHAPE_Length": 591.85961890296039, "SHAPE_Area": 19065.475761720783 }, "geometry": { "type": "MultiPolygon", "coordinates": [ [ [ [ 150.668392495609993, -35.039602743038863 ], [ 150.668827600190895, -35.039662039841282 ], [ 150.669045121631314, -35.039691683461719 ], [ 150.669226436994762, -35.039716397462421 ], [ 150.669516530540591, -35.039755927912644 ], [ 150.669697836598914, -35.039780632920639 ], [ 150.669915205771588, -35.039810258541628 ], [ 150.67013257425819, -35.039839875648845 ], [ 150.670567311486906, -35.039899118622678 ], [ 150.670545268215903, -35.040006489036621 ], [ 150.670534700196527, -35.040057959899386 ], [ 150.670526713010361, -35.040096864092291 ], [ 150.670486123914714, -35.040294618734038 ], [ 150.670439985214529, -35.040519345466741 ], [ 150.670393856342116, -35.040744063343816 ], [ 150.669956502129907, -35.040683377495739 ], [ 150.669738389118322, -35.040653115589791 ], [ 150.669520276545796, -35.04062284428759 ], [ 150.669357785452945, -35.040600299945453 ], [ 150.669032795038618, -35.040555202340549 ], [ 150.668870304250675, -35.040532657355122 ], [ 150.668653804930614, -35.040502610235833 ], [ 150.668220761865228, -35.04044251579365 ], [ 150.668251266924841, -35.040293346405242 ], [ 150.668278948069371, -35.040157990200072 ], [ 150.668306629109878, -35.040022633982211 ], [ 150.668310160334244, -35.040005333930978 ], [ 150.668334310302555, -35.039887268741779 ], [ 150.66835457811527, -35.039788127631283 ], [ 150.668361991135072, -35.039751912498559 ], [ 150.668392495609993, -35.039602743038863 ] ] ] ] } },
{ "type": "Feature", "properties": { "OBJECTID": 161, "Comments": "Downloaded from SEED Map Service 20250513", "FSource": "https://mapprod3.environment.nsw.gov.au/arcgis/rest/services/Planning/EPI_Primary_Planning_Layers/MapServer/2", "SourceDate": 20250513.0, "Supplier": "DOP", "EPI_NAME": "Shoalhaven Local Environmental Plan 2014", "LGA_NAME": "SHOALHAVEN", "PUBLISHED_DATE": "20140408000000", "COMMENCED_DATE": "20140422000000", "CURRENCY_DATE": "20240823000000", "AMENDMENT": null, "MAP_TYPE": "LZN", "MAP_NAME": "Land Zoning Map", "LAY_NAME": "Zone", "LAY_CLASS": "Medium Density Residential", "PCO_REF_KEY": "2014-179", "EPI_TYPE": "LEP", "SYM_CODE": "R3", "PURPOSE": null, "arcgisonline_objectid": 585581.0, "arcgisonline_type": "arcgisonline_polygon", "multi_reader_type": "ARCGISFEATURES", "SHAPE_Length": 491.83696659144073, "SHAPE_Area": 11583.496957309449 }, "geometry": { "type": "MultiPolygon", "coordinates": [ [ [ [ 150.669471314427625, -35.035569362901555 ], [ 150.668813981729357, -35.035758593681692 ], [ 150.668742933144642, -35.035758718089447 ], [ 150.668572293427104, -35.035882179880389 ], [ 150.668223969066474, -35.036134201254718 ], [ 150.668078509714547, -35.036059604018483 ], [ 150.667696345623341, -35.0358636414649 ], [ 150.667997681140974, -35.035618100304312 ], [ 150.66828856545348, -35.03538107564443 ], [ 150.668273262548041, -35.035373097184852 ], [ 150.668911601002804, -35.034860384009477 ], [ 150.669067798959532, -35.034880087109791 ], [ 150.669403296090593, -35.034731588979497 ], [ 150.669403834261743, -35.034733633066615 ], [ 150.669421897688238, -35.034801274975365 ], [ 150.669439000652119, -35.034950651182946 ], [ 150.669429193027696, -35.035038713353892 ], [ 150.669415737986668, -35.035159449081547 ], [ 150.669445892269039, -35.035372998421664 ], [ 150.669451073557525, -35.035454552353229 ], [ 150.669471314427625, -35.035569362901555 ] ] ] ] } },
{ "type": "Feature", "properties": { "OBJECTID": 337, "Comments": "Downloaded from SEED Map Service 20250513", "FSource": "https://mapprod3.environment.nsw.gov.au/arcgis/rest/services/Planning/EPI_Primary_Planning_Layers/MapServer/2", "SourceDate": 20250513.0, "Supplier": "DOP", "EPI_NAME": "Shoalhaven Local Environmental Plan 2014", "LGA_NAME": "SHOALHAVEN", "PUBLISHED_DATE": "20140408000000", "COMMENCED_DATE": "20140422000000", "CURRENCY_DATE": "20240823000000", "AMENDMENT": null, "MAP_TYPE": "LZN", "MAP_NAME": "Land Zoning Map", "LAY_NAME": "Zone", "LAY_CLASS": "Medium Density Residential", "PCO_REF_KEY": "2014-179", "EPI_TYPE": "LEP", "SYM_CODE": "R3", "PURPOSE": null, "arcgisonline_objectid": 586406.0, "arcgisonline_type": "arcgisonline_polygon", "multi_reader_type": "ARCGISFEATURES", "SHAPE_Length": 187.37315037214279, "SHAPE_Area": 2011.6300653332362 }, "geometry": { "type": "MultiPolygon", "coordinates": [ [ [ [ 150.590263344183001, -34.893631816955924 ], [ 150.590218013616038, -34.89385739539145 ], [ 150.590192610428204, -34.893983768814195 ], [ 150.589933981597852, -34.893948494661039 ], [ 150.589696078342484, -34.893916049832484 ], [ 150.589710957752573, -34.89377818839511 ], [ 150.589729442551317, -34.893606958001214 ], [ 150.58973803795422, -34.893527250899915 ], [ 150.589745819391823, -34.893526686797898 ], [ 150.589754433264318, -34.89352571731667 ], [ 150.589762976329411, -34.893524400260908 ], [ 150.589771411987869, -34.893522715071903 ], [ 150.589779712086198, -34.893520689137112 ], [ 150.589787878811364, -34.893518322499922 ], [ 150.589795865380381, -34.89351560611891 ], [ 150.589803654311424, -34.893512576608032 ], [ 150.589811238213343, -34.893509224805889 ], [ 150.589818571989952, -34.893505558832693 ], [ 150.589825661965136, -34.893501586927265 ], [ 150.589832457206739, -34.893497329714805 ], [ 150.589838990361272, -34.893492793251909 ], [ 150.589845185872974, -34.893487979645649 ], [ 150.589851065704579, -34.893482923588095 ], [ 150.589856596998942, -34.893477626230414 ], [ 150.589861759836339, -34.893472095290825 ], [ 150.589866555324392, -34.893466367752104 ], [ 150.589945635258147, -34.893574634176602 ], [ 150.589956876414391, -34.893590016500305 ], [ 150.590142941390411, -34.893615394412258 ], [ 150.590263344183001, -34.893631816955924 ] ] ] ] } },
{ "type": "Feature", "properties": { "OBJECTID": 338, "Comments": "Downloaded from SEED Map Service 20250513", "FSource": "https://mapprod3.environment.nsw.gov.au/arcgis/rest/services/Planning/EPI_Primary_Planning_Layers/MapServer/2", "SourceDate": 20250513.0, "Supplier": "DOP", "EPI_NAME": "Shoalhaven Local Environmental Plan 2014", "LGA_NAME": "SHOALHAVEN", "PUBLISHED_DATE": "20140408000000", "COMMENCED_DATE": "20140422000000", "CURRENCY_DATE": "20240823000000", "AMENDMENT": null, "MAP_TYPE": "LZN", "MAP_NAME": "Land Zoning Map", "LAY_NAME": "Zone", "LAY_CLASS": "Medium Density Residential", "PCO_REF_KEY": "2014-179", "EPI_TYPE": "LEP", "SYM_CODE": "R3", "PURPOSE": null, "arcgisonline_objectid": 586411.0, "arcgisonline_type": "arcgisonline_polygon", "multi_reader_type": "ARCGISFEATURES", "SHAPE_Length": 219.02441198505244, "SHAPE_Area": 2685.6596715801447 }, "geometry": { "type": "MultiPolygon", "coordinates": [ [ [ [ 150.603301555513411, -34.889538833801168 ], [ 150.60323629781206, -34.889850485520093 ], [ 150.60302810895277, -34.88982638969641 ], [ 150.602829889742054, -34.889803449406429 ], [ 150.602433520333733, -34.889757578238033 ], [ 150.602497668819382, -34.889451592593353 ], [ 150.602536338267015, -34.889428868356333 ], [ 150.603301555513411, -34.889538833801168 ] ] ] ] } },
{ "type": "Feature", "properties": { "OBJECTID": 351, "Comments": "Downloaded from SEED Map Service 20250513", "FSource": "https://mapprod3.environment.nsw.gov.au/arcgis/rest/services/Planning/EPI_Primary_Planning_Layers/MapServer/2", "SourceDate": 20250513.0, "Supplier": "DOP", "EPI_NAME": "Shoalhaven Local Environmental Plan 2014", "LGA_NAME": "SHOALHAVEN", "PUBLISHED_DATE": "20140408000000", "COMMENCED_DATE": "20140422000000", "CURRENCY_DATE": "20240823000000", "AMENDMENT": null, "MAP_TYPE": "LZN", "MAP_NAME": "Land Zoning Map", "LAY_NAME": "Zone", "LAY_CLASS": "Medium Density Residential", "PCO_REF_KEY": "2014-179", "EPI_TYPE": "LEP", "SYM_CODE": "R3", "PURPOSE": null, "arcgisonline_objectid": 586429.0, "arcgisonline_type": "arcgisonline_polygon", "multi_reader_type": "ARCGISFEATURES", "SHAPE_Length": 197.91358567316968, "SHAPE_Area": 2044.6226325958714 }, "geometry": { "type": "MultiPolygon", "coordinates": [ [ [ [ 150.625217133182929, -34.898061416347922 ], [ 150.625182182020581, -34.898087007929284 ], [ 150.625069935200003, -34.89816920747753 ], [ 150.624902747796995, -34.898170526621179 ], [ 150.62475721822284, -34.898171674909001 ], [ 150.624625581423231, -34.898172714241319 ], [ 150.624336823879929, -34.89817499278297 ], [ 150.62442926958397, -34.898061848934248 ], [ 150.624535779798492, -34.897931494731552 ], [ 150.624637420888945, -34.897807092412855 ], [ 150.624660530391992, -34.897778819203587 ], [ 150.624729338798318, -34.897806526837755 ], [ 150.624870638224991, -34.897869103305183 ], [ 150.625007769154593, -34.897937677764716 ], [ 150.625056237664126, -34.897963914800329 ], [ 150.625154376054155, -34.898021256906041 ], [ 150.625217133182929, -34.898061416347922 ] ] ] ] } },
{ "type": "Feature", "properties": { "OBJECTID": 354, "Comments": "Downloaded from SEED Map Service 20250513", "FSource": "https://mapprod3.environment.nsw.gov.au/arcgis/rest/services/Planning/EPI_Primary_Planning_Layers/MapServer/2", "SourceDate": 20250513.0, "Supplier": "DOP", "EPI_NAME": "Shoalhaven Local Environmental Plan 2014", "LGA_NAME": "SHOALHAVEN", "PUBLISHED_DATE": "20140408000000", "COMMENCED_DATE": "20140422000000", "CURRENCY_DATE": "20240823000000", "AMENDMENT": null, "MAP_TYPE": "LZN", "MAP_NAME": "Land Zoning Map", "LAY_NAME": "Zone", "LAY_CLASS": "Medium Density Residential", "PCO_REF_KEY": "2014-179", "EPI_TYPE": "LEP", "SYM_CODE": "R3", "PURPOSE": null, "arcgisonline_objectid": 586434.0, "arcgisonline_type": "arcgisonline_polygon", "multi_reader_type": "ARCGISFEATURES", "SHAPE_Length": 175.67377466421047, "SHAPE_Area": 1908.2813094424741 }, "geometry": { "type": "MultiPolygon", "coordinates": [ [ [ [ 150.62806491968098, -34.896621403699704 ], [ 150.627958840725995, -34.896675242067367 ], [ 150.627854588668868, -34.896613489939618 ], [ 150.627739015470013, -34.896545041250839 ], [ 150.627596855116138, -34.896460852493888 ], [ 150.627622071111318, -34.896340098052079 ], [ 150.627641871813438, -34.896245214301622 ], [ 150.627662327552684, -34.896147184514312 ], [ 150.6278022556275, -34.896167003742661 ], [ 150.627929760046044, -34.89618505581425 ], [ 150.62806733878881, -34.896204543095131 ], [ 150.628094608284016, -34.896208397501667 ], [ 150.628083824325586, -34.89626009298027 ], [ 150.628074125722151, -34.896306616160743 ], [ 150.628072995992738, -34.896312227518294 ], [ 150.628072135013099, -34.896316673988196 ], [ 150.628071319496058, -34.896321137572535 ], [ 150.628070539231658, -34.896325592830244 ], [ 150.628069795914712, -34.896330056922729 ], [ 150.628069087617234, -34.896334520797438 ], [ 150.628068424756464, -34.896339002687583 ], [ 150.628067787306406, -34.896343476058945 ], [ 150.628067214168482, -34.896347957897866 ], [ 150.628066667016583, -34.896352449259041 ], [ 150.628066156262832, -34.896356930513001 ], [ 150.628065681337063, -34.896361421481345 ], [ 150.628065251272716, -34.896365912424109 ], [ 150.628064659982897, -34.8963728513719 ], [ 150.628064337164261, -34.89637734170406 ], [ 150.628064041166084, -34.896381850589677 ], [ 150.628063790288564, -34.896386350439847 ], [ 150.628063575239111, -34.896390860004438 ], [ 150.628063386745794, -34.896395359269633 ], [ 150.628063261419356, -34.896399868783028 ], [ 150.628063153900683, -34.896404367826207 ], [ 150.628063099966056, -34.896408867915589 ], [ 150.628063073137014, -34.896413376647594 ], [ 150.62806309991791, -34.896417885524798 ], [ 150.628063154037619, -34.896422394935769 ], [ 150.628063243176911, -34.896426904129001 ], [ 150.628063387045671, -34.896431412587802 ], [ 150.628063565908093, -34.896435921729818 ], [ 150.628063772394427, -34.896440421494781 ], [ 150.628064032490727, -34.896444921404949 ], [ 150.628064327606694, -34.896449421097351 ], [ 150.628064659903487, -34.896453921515686 ], [ 150.62806502750496, -34.89645841180544 ], [ 150.628065439682956, -34.896462911980414 ], [ 150.628065888233323, -34.896467402949149 ], [ 150.628066371803328, -34.896471893700124 ], [ 150.628066891719811, -34.896476376145813 ], [ 150.628067456523809, -34.896480857664919 ], [ 150.628068066163564, -34.896485340059428 ], [ 150.628068702333707, -34.896489813055503 ], [ 150.628069383365499, -34.896494286025991 ], [ 150.628070110352525, -34.896498758992216 ], [ 150.628070862776383, -34.896503222538691 ], [ 150.62807167013716, -34.896507678142839 ], [ 150.628072503769232, -34.896512133358428 ], [ 150.628073372680149, -34.896516579346411 ], [ 150.628074287287177, -34.896521034339983 ], [ 150.628075237691348, -34.896525462086252 ], [ 150.628076223923728, -34.896529899546948 ], [ 150.628077254183438, -34.896534327950839 ], [ 150.628078329564005, -34.896538747319269 ], [ 150.628079441317055, -34.896543157481446 ], [ 150.628080589183384, -34.8965475674472 ], [ 150.628081763554263, -34.89655196891551 ], [ 150.628082982786907, -34.896556370358219 ], [ 150.628084237557601, -34.89656075356347 ], [ 150.628085528674887, -34.896565128463436 ], [ 150.628086872334706, -34.89656950258626 ], [ 150.628088243851806, -34.896573859223146 ], [ 150.628089651482242, -34.89657821566361 ], [ 150.628091085643206, -34.896582562705653 ], [ 150.628092583489632, -34.896586901976171 ], [ 150.628094098050497, -34.896591230755128 ], [ 150.628095666454783, -34.8965955515704 ], [ 150.628097262483209, -34.896599863008603 ], [ 150.628098902772223, -34.896604157281097 ], [ 150.62806491968098, -34.896621403699704 ] ] ] ] } },
{ "type": "Feature", "properties": { "OBJECTID": 373, "Comments": "Downloaded from SEED Map Service 20250513", "FSource": "https://mapprod3.environment.nsw.gov.au/arcgis/rest/services/Planning/EPI_Primary_Planning_Layers/MapServer/2", "SourceDate": 20250513.0, "Supplier": "DOP", "EPI_NAME": "Shoalhaven Local Environmental Plan 2014", "LGA_NAME": "SHOALHAVEN", "PUBLISHED_DATE": "20140408000000", "COMMENCED_DATE": "20140422000000", "CURRENCY_DATE": "20240823000000", "AMENDMENT": null, "MAP_TYPE": "LZN", "MAP_NAME": "Land Zoning Map", "LAY_NAME": "Zone", "LAY_CLASS": "Medium Density Residential", "PCO_REF_KEY": "2014-179", "EPI_TYPE": "LEP", "SYM_CODE": "R3", "PURPOSE": null, "arcgisonline_objectid": 586455.0, "arcgisonline_type": "arcgisonline_polygon", "multi_reader_type": "ARCGISFEATURES", "SHAPE_Length": 455.31777876930215, "SHAPE_Area": 11794.919131614812 }, "geometry": { "type": "MultiPolygon", "coordinates": [ [ [ [ 150.60082770080885, -34.891275956018383 ], [ 150.60083999043357, -34.891349389371975 ], [ 150.600657144340147, -34.891323150321952 ], [ 150.600463136061677, -34.891295307662404 ], [ 150.600269138866963, -34.891267464914051 ], [ 150.600075130886665, -34.891239621644964 ], [ 150.60002560583132, -34.891232514136739 ], [ 150.599881124122703, -34.891211778993686 ], [ 150.599662009088775, -34.891180332553134 ], [ 150.599662198277912, -34.89117349312032 ], [ 150.599662296657357, -34.891166653696352 ], [ 150.599662314068269, -34.891159814475628 ], [ 150.599662251630349, -34.891152974578809 ], [ 150.599662099450029, -34.891146135613404 ], [ 150.599661866353642, -34.891139295049314 ], [ 150.599661543226517, -34.891132465327274 ], [ 150.599661140250618, -34.891125634929111 ], [ 150.599660656332532, -34.891118803833265 ], [ 150.59966008240994, -34.891111982678474 ], [ 150.59965942863866, -34.891105160847587 ], [ 150.599658693636854, -34.89109834822964 ], [ 150.599657867563337, -34.891091544630186 ], [ 150.599656953987022, -34.891084740203404 ], [ 150.599655967613273, -34.891077955973969 ], [ 150.599654891575966, -34.891071169973046 ], [ 150.59965373652139, -34.891064392327273 ], [ 150.59965249010682, -34.891057633610636 ], [ 150.599651172329231, -34.891050883400389 ], [ 150.599649755799675, -34.891044142958364 ], [ 150.599648267880895, -34.891037411923683 ], [ 150.599646699589243, -34.891030698232242 ], [ 150.599645040278574, -34.891023991757329 ], [ 150.599643301636121, -34.891017304449178 ], [ 150.599641482568444, -34.891010636286168 ], [ 150.599639572455573, -34.891003976240661 ], [ 150.599637590717606, -34.890997333711198 ], [ 150.599635520926455, -34.890990709274675 ], [ 150.599633378390621, -34.890984103233535 ], [ 150.599631145640927, -34.890977514341166 ], [ 150.599628833585768, -34.890970943714557 ], [ 150.599626440038293, -34.890964391310511 ], [ 150.599623965855955, -34.890957865259303 ], [ 150.599621420048635, -34.890951356724123 ], [ 150.5996187850686, -34.890944867161203 ], [ 150.599616069453816, -34.890938403951125 ], [ 150.599613281094378, -34.890931959136431 ], [ 150.599610413193687, -34.890925540696131 ], [ 150.59960745476468, -34.890919150216185 ], [ 150.599604434342126, -34.890912784654383 ], [ 150.599601323627326, -34.890906438944207 ], [ 150.599611282634982, -34.890876866879331 ], [ 150.59956408699054, -34.890810139540861 ], [ 150.599523328025583, -34.890752205334834 ], [ 150.599556943733319, -34.890736302927877 ], [ 150.599591767970281, -34.890722257107413 ], [ 150.599609176149727, -34.890715632571776 ], [ 150.599627354526291, -34.890709573156279 ], [ 150.599659974143918, -34.890699362847535 ], [ 150.599696798604043, -34.890689368121869 ], [ 150.599715712391657, -34.89068461775431 ], [ 150.599734150253653, -34.890680807244685 ], [ 150.599771961004393, -34.890673726649098 ], [ 150.59979104520616, -34.89067052658428 ], [ 150.599810129429159, -34.890668115316082 ], [ 150.599804822067028, -34.890618634337805 ], [ 150.599768851019178, -34.890283176229225 ], [ 150.599822329352037, -34.890290814475399 ], [ 150.599839503829003, -34.890293270451764 ], [ 150.599999743886485, -34.890316156836498 ], [ 150.600177158833446, -34.890341489032082 ], [ 150.600354923512867, -34.890366875656646 ], [ 150.6005319964394, -34.890392163621364 ], [ 150.600728720426048, -34.890420266200294 ], [ 150.600925451545351, -34.890448354179895 ], [ 150.60095895098064, -34.890453138162989 ], [ 150.600977389696737, -34.890794808123232 ], [ 150.600988208625324, -34.890948414849738 ], [ 150.60099902869672, -34.891102020694021 ], [ 150.601009821447491, -34.891255250076227 ], [ 150.60082770080885, -34.891275956018383 ] ] ] ] } },
{ "type": "Feature", "properties": { "OBJECTID": 395, "Comments": "Downloaded from SEED Map Service 20250513", "FSource": "https://mapprod3.environment.nsw.gov.au/arcgis/rest/services/Planning/EPI_Primary_Planning_Layers/MapServer/2", "SourceDate": 20250513.0, "Supplier": "DOP", "EPI_NAME": "Shoalhaven Local Environmental Plan 2014", "LGA_NAME": "SHOALHAVEN", "PUBLISHED_DATE": "20140408000000", "COMMENCED_DATE": "20140422000000", "CURRENCY_DATE": "20240823000000", "AMENDMENT": null, "MAP_TYPE": "LZN", "MAP_NAME": "Land Zoning Map", "LAY_NAME": "Zone", "LAY_CLASS": "Medium Density Residential", "PCO_REF_KEY": "2014-179", "EPI_TYPE": "LEP", "SYM_CODE": "R3", "PURPOSE": null, "arcgisonline_objectid": 586521.0, "arcgisonline_type": "arcgisonline_polygon", "multi_reader_type": "ARCGISFEATURES", "SHAPE_Length": 177.21022048115546, "SHAPE_Area": 1804.5708692569626 }, "geometry": { "type": "MultiPolygon", "coordinates": [ [ [ [ 150.614730602155248, -34.892605481820709 ], [ 150.614656453470303, -34.892976554200047 ], [ 150.614457264078965, -34.892950487289632 ], [ 150.614450694381816, -34.892949411727166 ], [ 150.614444239088954, -34.892948201384606 ], [ 150.614438574477902, -34.892946776687921 ], [ 150.614432972616299, -34.892945225211832 ], [ 150.61442816742013, -34.892943630781986 ], [ 150.61442342497341, -34.892941909572805 ], [ 150.614418799848721, -34.892939990536853 ], [ 150.614414237160815, -34.892937955533306 ], [ 150.61441043567217, -34.892936082419034 ], [ 150.61440670758131, -34.892934092650982 ], [ 150.614402493757439, -34.89293160924592 ], [ 150.614398362391057, -34.892929036409583 ], [ 150.614394947466735, -34.892926697604302 ], [ 150.614390545297397, -34.892923425304524 ], [ 150.614387371859721, -34.892920870376372 ], [ 150.61438431503845, -34.892918217672872 ], [ 150.614381384205899, -34.892915483604895 ], [ 150.614378542417853, -34.892912659333568 ], [ 150.614375844062323, -34.892909755843263 ], [ 150.61437328104185, -34.892906788300273 ], [ 150.614370816048336, -34.892903722616964 ], [ 150.61436848472303, -34.892900612680997 ], [ 150.614366324532455, -34.892897411449219 ], [ 150.614364262444923, -34.892894185099131 ], [ 150.614362370633103, -34.892890859323018 ], [ 150.614360614753593, -34.892887524496736 ], [ 150.614358992230564, -34.892884118367071 ], [ 150.614357530427412, -34.892880640569864 ], [ 150.614356212471563, -34.892877144863043 ], [ 150.614355047658222, -34.89287361249793 ], [ 150.614354177546346, -34.89287086119927 ], [ 150.614353470183886, -34.892868081544357 ], [ 150.614352913698696, -34.892865267891118 ], [ 150.614352322820025, -34.892862470690794 ], [ 150.614351901199541, -34.892859647064981 ], [ 150.614351623686844, -34.892856796519844 ], [ 150.614351282990214, -34.89285378517063 ], [ 150.61435112144531, -34.892850745787243 ], [ 150.614351103747538, -34.892847688494292 ], [ 150.614351256114702, -34.892844614708061 ], [ 150.614351237758058, -34.892841844976807 ], [ 150.614351390714148, -34.892839129092842 ], [ 150.614351721569903, -34.892836466284031 ], [ 150.614352196063209, -34.892833830635915 ], [ 150.614352851189409, -34.892831267047868 ], [ 150.614441022091455, -34.892390061293938 ], [ 150.614764870589369, -34.89243399294169 ], [ 150.614730602155248, -34.892605481820709 ] ] ] ] } },
{ "type": "Feature", "properties": { "OBJECTID": 443, "Comments": "Downloaded from SEED Map Service 20250513", "FSource": "https://mapprod3.environment.nsw.gov.au/arcgis/rest/services/Planning/EPI_Primary_Planning_Layers/MapServer/2", "SourceDate": 20250513.0, "Supplier": "DOP", "EPI_NAME": "Shoalhaven Local Environmental Plan 2014", "LGA_NAME": "SHOALHAVEN", "PUBLISHED_DATE": "20140408000000", "COMMENCED_DATE": "20140422000000", "CURRENCY_DATE": "20240823000000", "AMENDMENT": null, "MAP_TYPE": "LZN", "MAP_NAME": "Land Zoning Map", "LAY_NAME": "Zone", "LAY_CLASS": "Medium Density Residential", "PCO_REF_KEY": "2014-179", "EPI_TYPE": "LEP", "SYM_CODE": "R3", "PURPOSE": null, "arcgisonline_objectid": 586633.0, "arcgisonline_type": "arcgisonline_polygon", "multi_reader_type": "ARCGISFEATURES", "SHAPE_Length": 282.05903635915195, "SHAPE_Area": 4058.9201859976906 }, "geometry": { "type": "MultiPolygon", "coordinates": [ [ [ [ 150.611505899714729, -34.899849679862115 ], [ 150.611496137495863, -34.899897340620164 ], [ 150.611463670409591, -34.900055867785696 ], [ 150.611431212190411, -34.900214386095996 ], [ 150.611414880340874, -34.90029411154763 ], [ 150.611404481341509, -34.900344901452236 ], [ 150.611378163602467, -34.900473391168404 ], [ 150.611322749646291, -34.900743967143434 ], [ 150.610888147266138, -34.900686463602263 ], [ 150.610939626747012, -34.900435070727767 ], [ 150.61096089777476, -34.900331196114443 ], [ 150.610975723754592, -34.90025882068516 ], [ 150.611007295097551, -34.900104658184958 ], [ 150.611038766883922, -34.899950981417078 ], [ 150.611068347863693, -34.899806553662451 ], [ 150.611071871470358, -34.89978936039406 ], [ 150.611316256699382, -34.899821819130459 ], [ 150.611505899714729, -34.899849679862115 ] ] ] ] } },
{ "type": "Feature", "properties": { "OBJECTID": 448, "Comments": "Downloaded from SEED Map Service 20250513", "FSource": "https://mapprod3.environment.nsw.gov.au/arcgis/rest/services/Planning/EPI_Primary_Planning_Layers/MapServer/2", "SourceDate": 20250513.0, "Supplier": "DOP", "EPI_NAME": "Shoalhaven Local Environmental Plan 2014", "LGA_NAME": "SHOALHAVEN", "PUBLISHED_DATE": "20140408000000", "COMMENCED_DATE": "20140422000000", "CURRENCY_DATE": "20240823000000", "AMENDMENT": null, "MAP_TYPE": "LZN", "MAP_NAME": "Land Zoning Map", "LAY_NAME": "Zone", "LAY_CLASS": "Medium Density Residential", "PCO_REF_KEY": "2014-179", "EPI_TYPE": "LEP", "SYM_CODE": "R3", "PURPOSE": null, "arcgisonline_objectid": 586643.0, "arcgisonline_type": "arcgisonline_polygon", "multi_reader_type": "ARCGISFEATURES", "SHAPE_Length": 281.7810369511887, "SHAPE_Area": 4051.4468587298329 }, "geometry": { "type": "MultiPolygon", "coordinates": [ [ [ [ 150.615894444803757, -34.900224874608782 ], [ 150.615884602418845, -34.900273047142591 ], [ 150.615450511400184, -34.900212764541905 ], [ 150.615459618464115, -34.900168195282632 ], [ 150.615483130696134, -34.900053215052004 ], [ 150.615523853633505, -34.899854008620956 ], [ 150.615549489758848, -34.899725322376099 ], [ 150.615592221537753, -34.899519598818962 ], [ 150.615633373841632, -34.899318312908413 ], [ 150.615639316661714, -34.899319138120106 ], [ 150.6157790926149, -34.899338536466374 ], [ 150.615833494788603, -34.899346083158321 ], [ 150.61592955346751, -34.899359412738136 ], [ 150.616027674127992, -34.899373028813443 ], [ 150.616067464891444, -34.899378551495801 ], [ 150.61602575693226, -34.899582552767122 ], [ 150.61599805763143, -34.899718061666356 ], [ 150.615975988899891, -34.899826023420424 ], [ 150.615955713081775, -34.899925182171302 ], [ 150.615939640989751, -34.900003797384244 ], [ 150.615927566208995, -34.900062878282917 ], [ 150.615894444803757, -34.900224874608782 ] ] ] ] } },
{ "type": "Feature", "properties": { "OBJECTID": 461, "Comments": "Downloaded from SEED Map Service 20250513", "FSource": "https://mapprod3.environment.nsw.gov.au/arcgis/rest/services/Planning/EPI_Primary_Planning_Layers/MapServer/2", "SourceDate": 20250513.0, "Supplier": "DOP", "EPI_NAME": "Shoalhaven Local Environmental Plan 2014", "LGA_NAME": "SHOALHAVEN", "PUBLISHED_DATE": "20140408000000", "COMMENCED_DATE": "20140422000000", "CURRENCY_DATE": "20240823000000", "AMENDMENT": null, "MAP_TYPE": "LZN", "MAP_NAME": "Land Zoning Map", "LAY_NAME": "Zone", "LAY_CLASS": "Medium Density Residential", "PCO_REF_KEY": "2014-179", "EPI_TYPE": "LEP", "SYM_CODE": "R3", "PURPOSE": null, "arcgisonline_objectid": 586662.0, "arcgisonline_type": "arcgisonline_polygon", "multi_reader_type": "ARCGISFEATURES", "SHAPE_Length": 132.45804596725023, "SHAPE_Area": 1156.7811198906772 }, "geometry": { "type": "MultiPolygon", "coordinates": [ [ [ [ 150.615132836236512, -34.890812402310566 ], [ 150.615086252867656, -34.891046907955079 ], [ 150.614963328905446, -34.891063500978746 ], [ 150.614648038681793, -34.891020950493981 ], [ 150.614682513425947, -34.890847524737524 ], [ 150.614683068990814, -34.890844960093219 ], [ 150.614683705237837, -34.890842405146358 ], [ 150.614684430940713, -34.89083985916772 ], [ 150.614685246671883, -34.890837340198281 ], [ 150.614686134050771, -34.890834840665278 ], [ 150.61468711179657, -34.89083235642876 ], [ 150.614688168583825, -34.890829900788724 ], [ 150.614689316518849, -34.890827471278392 ], [ 150.614690535867084, -34.890825069313259 ], [ 150.614691835688888, -34.890822684253358 ], [ 150.614693224991754, -34.890820345123153 ], [ 150.614694676986147, -34.890818032465447 ], [ 150.614696219008721, -34.890815746816919 ], [ 150.614697831949428, -34.890813505832121 ], [ 150.614699518255776, -34.890811300544279 ], [ 150.614701274621325, -34.890809131789908 ], [ 150.614703103024453, -34.890807006819777 ], [ 150.614705003673748, -34.890804918426063 ], [ 150.614706976334617, -34.890802874717558 ], [ 150.614709018559608, -34.890800884661097 ], [ 150.614711116628655, -34.890798930859013 ], [ 150.614713286214254, -34.89079703886069 ], [ 150.614715518204747, -34.890795183245551 ], [ 150.614717812938011, -34.890793390163395 ], [ 150.614720162161348, -34.890791642323912 ], [ 150.614722573268466, -34.890789948887154 ], [ 150.614725037303202, -34.890788316889157 ], [ 150.614727556921508, -34.89078673015532 ], [ 150.614730130248205, -34.890785215693434 ], [ 150.614732746895811, -34.8907837543683 ], [ 150.614735417799039, -34.89078234639463 ], [ 150.614738126243196, -34.890781002262123 ], [ 150.614740886234898, -34.890779729457634 ], [ 150.614743682960693, -34.890778510562072 ], [ 150.61474652490773, -34.89077735475697 ], [ 150.614749402026433, -34.890776269056872 ], [ 150.614752315592597, -34.890775247176464 ], [ 150.614755255791152, -34.890774288021532 ], [ 150.614758232202689, -34.890773400795048 ], [ 150.614761243733767, -34.890772585475553 ], [ 150.614764273149461, -34.890771832709795 ], [ 150.614767321308818, -34.890771150628019 ], [ 150.614770404561682, -34.890770541354193 ], [ 150.614773496951443, -34.89076999446236 ], [ 150.614776608058804, -34.890769519155484 ], [ 150.614779735410195, -34.890769125301397 ], [ 150.61478287411154, -34.890768792971237 ], [ 150.614786029317514, -34.890768533084092 ], [ 150.614789183532622, -34.890768345296472 ], [ 150.614792348837142, -34.890768228042553 ], [ 150.61479551312479, -34.890768183789142 ], [ 150.614798676447663, -34.890768210734286 ], [ 150.614801833312384, -34.890768309671607 ], [ 150.614804996632159, -34.890768488066549 ], [ 150.614808142793606, -34.890768730130212 ], [ 150.614811290151209, -34.890769044336331 ], [ 150.614814417955102, -34.890769429376078 ], [ 150.615132836236512, -34.890812402310566 ] ] ] ] } },
{ "type": "Feature", "properties": { "OBJECTID": 462, "Comments": "Downloaded from SEED Map Service 20250513", "FSource": "https://mapprod3.environment.nsw.gov.au/arcgis/rest/services/Planning/EPI_Primary_Planning_Layers/MapServer/2", "SourceDate": 20250513.0, "Supplier": "DOP", "EPI_NAME": "Shoalhaven Local Environmental Plan 2014", "LGA_NAME": "SHOALHAVEN", "PUBLISHED_DATE": "20140408000000", "COMMENCED_DATE": "20140422000000", "CURRENCY_DATE": "20240823000000", "AMENDMENT": null, "MAP_TYPE": "LZN", "MAP_NAME": "Land Zoning Map", "LAY_NAME": "Zone", "LAY_CLASS": "Medium Density Residential", "PCO_REF_KEY": "2014-179", "EPI_TYPE": "LEP", "SYM_CODE": "R3", "PURPOSE": null, "arcgisonline_objectid": 586663.0, "arcgisonline_type": "arcgisonline_polygon", "multi_reader_type": "ARCGISFEATURES", "SHAPE_Length": 134.18417275540867, "SHAPE_Area": 1188.0173546537517 }, "geometry": { "type": "MultiPolygon", "coordinates": [ [ [ [ 150.615471416995859, -34.891116503115889 ], [ 150.615436941564894, -34.891289929109028 ], [ 150.615436387216562, -34.891292528037482 ], [ 150.615435741172604, -34.891295119757281 ], [ 150.615435005958602, -34.891297692598627 ], [ 150.615434198835686, -34.891300255013739 ], [ 150.615433302725023, -34.891302792243557 ], [ 150.615432334939868, -34.891305310938321 ], [ 150.615431277099475, -34.891307803525372 ], [ 150.615430138836814, -34.891310277405672 ], [ 150.615428920386279, -34.89131272447041 ], [ 150.615427628334743, -34.891315143947395 ], [ 150.615426257397189, -34.89131752942248 ], [ 150.615424805230333, -34.891319886258579 ], [ 150.615423280503848, -34.891322217330334 ], [ 150.615421677203869, -34.891324503588464 ], [ 150.615420010144135, -34.891326762451953 ], [ 150.615418262323999, -34.891328976458865 ], [ 150.615416442256759, -34.891331153889709 ], [ 150.615414549864312, -34.891333297447382 ], [ 150.615412596446049, -34.891335394732842 ], [ 150.61541057866944, -34.891337447483636 ], [ 150.615408491327628, -34.891339446582698 ], [ 150.615406339393076, -34.891341409255901 ], [ 150.615404115706298, -34.891343318234412 ], [ 150.615401848437273, -34.891345183086031 ], [ 150.615399509442057, -34.891346993342012 ], [ 150.615397115929824, -34.891348759256466 ], [ 150.615394668395425, -34.891350463710836 ], [ 150.615392157674307, -34.891352120949044 ], [ 150.615389603891884, -34.891353716040818 ], [ 150.615386994733342, -34.891355258660802 ], [ 150.615384341472065, -34.891356737310907 ], [ 150.615381635021691, -34.891358163532161 ], [ 150.615378892148954, -34.891359525032776 ], [ 150.615376095254106, -34.891360825073299 ], [ 150.61537326162437, -34.891362071204924 ], [ 150.615370393967652, -34.891363245451025 ], [ 150.615367481062663, -34.89136435750774 ], [ 150.615364540222657, -34.891365414025302 ], [ 150.615361564444612, -34.891366392329033 ], [ 150.615358551957684, -34.891367315822876 ], [ 150.615355522991536, -34.891368165972644 ], [ 150.615352457498915, -34.891368955005689 ], [ 150.615349363446711, -34.891369672260488 ], [ 150.615346262444007, -34.891370327176126 ], [ 150.615343125253446, -34.891370909262321 ], [ 150.61533997915987, -34.891371420857574 ], [ 150.615336824215404, -34.891371860159985 ], [ 150.615333641544368, -34.891372236715391 ], [ 150.615330458770245, -34.891372541149622 ], [ 150.615327259464806, -34.89137277404172 ], [ 150.615324058936807, -34.891372935692154 ], [ 150.615320850390873, -34.891373034080956 ], [ 150.615317640882836, -34.891373052218334 ], [ 150.615314440852558, -34.891373007437473 ], [ 150.615311231971418, -34.891372890363741 ], [ 150.615308030615466, -34.891372702220046 ], [ 150.615304840091284, -34.891372442169839 ], [ 150.615301658159751, -34.891372111972082 ], [ 150.615298484690669, -34.891371716131729 ], [ 150.614980056473598, -34.891328744295024 ], [ 150.615028013479588, -34.891090491143686 ], [ 150.615030818774954, -34.891090868044138 ], [ 150.615156126153295, -34.891073880909943 ], [ 150.615471416995859, -34.891116503115889 ] ] ] ] } },
{ "type": "Feature", "properties": { "OBJECTID": 463, "Comments": "Downloaded from SEED Map Service 20250513", "FSource": "https://mapprod3.environment.nsw.gov.au/arcgis/rest/services/Planning/EPI_Primary_Planning_Layers/MapServer/2", "SourceDate": 20250513.0, "Supplier": "DOP", "EPI_NAME": "Shoalhaven Local Environmental Plan 2014", "LGA_NAME": "SHOALHAVEN", "PUBLISHED_DATE": "20140408000000", "COMMENCED_DATE": "20140422000000", "CURRENCY_DATE": "20240823000000", "AMENDMENT": null, "MAP_TYPE": "LZN", "MAP_NAME": "Land Zoning Map", "LAY_NAME": "Zone", "LAY_CLASS": "Medium Density Residential", "PCO_REF_KEY": "2014-179", "EPI_TYPE": "LEP", "SYM_CODE": "R3", "PURPOSE": null, "arcgisonline_objectid": 586664.0, "arcgisonline_type": "arcgisonline_polygon", "multi_reader_type": "ARCGISFEATURES", "SHAPE_Length": 177.1480084076411, "SHAPE_Area": 1803.2488434710699 }, "geometry": { "type": "MultiPolygon", "coordinates": [ [ [ [ 150.615163348531325, -34.892668945512085 ], [ 150.614839945060055, -34.892622826716739 ], [ 150.614874078717918, -34.892460417648884 ], [ 150.614953812686906, -34.892081008684592 ], [ 150.615153010294136, -34.892108958112068 ], [ 150.615157062740849, -34.892109567735218 ], [ 150.615161015808752, -34.892110284487508 ], [ 150.615164924432634, -34.892111100432466 ], [ 150.615168805951328, -34.892112059181834 ], [ 150.615172676872646, -34.892113081728738 ], [ 150.615176505302486, -34.892114211619997 ], [ 150.615180279212524, -34.892115448619535 ], [ 150.615183981679536, -34.892116810424916 ], [ 150.615187674929189, -34.89211822613855 ], [ 150.615191287623901, -34.892119741237501 ], [ 150.615194827495515, -34.892121391031587 ], [ 150.615198296940065, -34.892123130493452 ], [ 150.615202384013372, -34.892125380601776 ], [ 150.615206409173197, -34.892127728658352 ], [ 150.615210353466125, -34.892130149049471 ], [ 150.615214082573317, -34.892132784278189 ], [ 150.615217757916355, -34.892135500486866 ], [ 150.6152213253159, -34.89213827948376 ], [ 150.615224669042334, -34.892141264136782 ], [ 150.615227913573193, -34.892144311749767 ], [ 150.615231061095386, -34.892147422365632 ], [ 150.615233982679968, -34.892150703435178 ], [ 150.615236771196948, -34.892154045898344 ], [ 150.615239441304425, -34.892157434717568 ], [ 150.615241655354083, -34.89216059011423 ], [ 150.615243744797368, -34.892163816987001 ], [ 150.615245716950653, -34.89216708933634 ], [ 150.61524733875126, -34.892170029371371 ], [ 150.61524884495384, -34.892173032044475 ], [ 150.615250226211941, -34.892176080043917 ], [ 150.615251749870907, -34.8921799169362 ], [ 150.615253138509587, -34.892183807070431 ], [ 150.615254394288883, -34.89218775139053 ], [ 150.615255316326653, -34.892191318648024 ], [ 150.615256087697247, -34.8921949126972 ], [ 150.615256706422002, -34.892198526287309 ], [ 150.615257145690919, -34.892201762237306 ], [ 150.615257441895494, -34.892204989068723 ], [ 150.615257594254189, -34.892208233810813 ], [ 150.615257629915732, -34.892211881931971 ], [ 150.615257512410921, -34.892215529751098 ], [ 150.615257262490019, -34.892219178577015 ], [ 150.61525692244166, -34.892222387510586 ], [ 150.615256437948801, -34.892225597214811 ], [ 150.615255791958504, -34.892228792029691 ], [ 150.615163348531325, -34.892668945512085 ] ] ] ] } },
{ "type": "Feature", "properties": { "OBJECTID": 548, "Comments": "Downloaded from SEED Map Service 20250513", "FSource": "https://mapprod3.environment.nsw.gov.au/arcgis/rest/services/Planning/EPI_Primary_Planning_Layers/MapServer/2", "SourceDate": 20250513.0, "Supplier": "DOP", "EPI_NAME": "Shoalhaven Local Environmental Plan 2014", "LGA_NAME": "SHOALHAVEN", "PUBLISHED_DATE": "20140408000000", "COMMENCED_DATE": "20140422000000", "CURRENCY_DATE": "20240823000000", "AMENDMENT": null, "MAP_TYPE": "LZN", "MAP_NAME": "Land Zoning Map", "LAY_NAME": "Zone", "LAY_CLASS": "Medium Density Residential", "PCO_REF_KEY": "2014-179", "EPI_TYPE": "LEP", "SYM_CODE": "R3", "PURPOSE": null, "arcgisonline_objectid": 586874.0, "arcgisonline_type": "arcgisonline_polygon", "multi_reader_type": "ARCGISFEATURES", "SHAPE_Length": 235.0993724542688, "SHAPE_Area": 3285.0595195158289 }, "geometry": { "type": "MultiPolygon", "coordinates": [ [ [ [ 150.625198047305787, -34.8976316204159 ], [ 150.625086365421112, -34.897765273651125 ], [ 150.624948964791173, -34.897698510512484 ], [ 150.624944930564112, -34.897696762083001 ], [ 150.624796711314076, -34.89763279553879 ], [ 150.624640495406908, -34.897573750551722 ], [ 150.624765056638012, -34.897144268774426 ], [ 150.624960015725605, -34.897170254345127 ], [ 150.625158648970114, -34.897196741439735 ], [ 150.625261878868969, -34.897210501288399 ], [ 150.625357291317101, -34.897223221177569 ], [ 150.625521089974427, -34.897245056610544 ], [ 150.625428108050954, -34.897356236443166 ], [ 150.625315896824787, -34.897490553877994 ], [ 150.625198047305787, -34.8976316204159 ] ] ] ] } },
{ "type": "Feature", "properties": { "OBJECTID": 630, "Comments": "Downloaded from SEED Map Service 20250513", "FSource": "https://mapprod3.environment.nsw.gov.au/arcgis/rest/services/Planning/EPI_Primary_Planning_Layers/MapServer/2", "SourceDate": 20250513.0, "Supplier": "DOP", "EPI_NAME": "Shoalhaven Local Environmental Plan 2014", "LGA_NAME": "SHOALHAVEN", "PUBLISHED_DATE": "20140408000000", "COMMENCED_DATE": "20140422000000", "CURRENCY_DATE": "20240823000000", "AMENDMENT": null, "MAP_TYPE": "LZN", "MAP_NAME": "Land Zoning Map", "LAY_NAME": "Zone", "LAY_CLASS": "Medium Density Residential", "PCO_REF_KEY": "2014-179", "EPI_TYPE": "LEP", "SYM_CODE": "R3", "PURPOSE": null, "arcgisonline_objectid": 587061.0, "arcgisonline_type": "arcgisonline_polygon", "multi_reader_type": "ARCGISFEATURES", "SHAPE_Length": 480.16281883347199, "SHAPE_Area": 13569.017108272297 }, "geometry": { "type": "MultiPolygon", "coordinates": [ [ [ [ 150.621204664995588, -34.903891314782761 ], [ 150.620000530826218, -34.903727549019756 ], [ 150.620112632688546, -34.903387697394493 ], [ 150.620178240710999, -34.903234708409407 ], [ 150.620243856390573, -34.903081710515693 ], [ 150.620302175551984, -34.90294572766134 ], [ 150.620395794474263, -34.902850367681808 ], [ 150.620564837607276, -34.902767100959892 ], [ 150.620733880407641, -34.902683833987766 ], [ 150.620902922615386, -34.902600575775246 ], [ 150.621090762691182, -34.902508058452433 ], [ 150.621198142659239, -34.902655837255878 ], [ 150.621204596022039, -34.902664236586141 ], [ 150.621211122657456, -34.90267259948844 ], [ 150.62121772907534, -34.902680927893186 ], [ 150.621224399183205, -34.902689210667411 ], [ 150.621231139256878, -34.902697457850358 ], [ 150.621237951769558, -34.902705659574067 ], [ 150.621244836435352, -34.902713825749302 ], [ 150.6212517924466, -34.902721946443869 ], [ 150.621258820584956, -34.902730032490915 ], [ 150.621265920094743, -34.902738072156289 ], [ 150.621273081889029, -34.90274607698138 ], [ 150.621280316096403, -34.902754037248151 ], [ 150.621287612900204, -34.902761951862871 ], [ 150.621294980997533, -34.902769822798817 ], [ 150.621302421274009, -34.90277765728522 ], [ 150.62130992438091, -34.902785438010703 ], [ 150.621317499641066, -34.902793183187612 ], [ 150.621325136663955, -34.902800873681194 ], [ 150.621332845840101, -34.902808528626167 ], [ 150.621340617560719, -34.902816139720976 ], [ 150.621348451044128, -34.902823696132415 ], [ 150.62135634928535, -34.902831207835483 ], [ 150.621364318586188, -34.902838683968497 ], [ 150.621372349909734, -34.902846096408332 ], [ 150.621380444585583, -34.902853474930104 ], [ 150.62138860214381, -34.902860797888906 ], [ 150.621396821152985, -34.902868076976034 ], [ 150.621405104945978, -34.902875310453751 ], [ 150.621413449382118, -34.902882490127588 ], [ 150.621421857456454, -34.902889625972541 ], [ 150.621430328387277, -34.902896707155421 ], [ 150.621438863216213, -34.902903735499592 ], [ 150.621447450798996, -34.902910717998758 ], [ 150.621456100926338, -34.90291765664756 ], [ 150.621464814170054, -34.902924531624464 ], [ 150.621473581209301, -34.902931362579679 ], [ 150.621482410037373, -34.902938137950365 ], [ 150.621491302477608, -34.90294487039305 ], [ 150.621500239390514, -34.902951540601684 ], [ 150.62150924767505, -34.902958164428277 ], [ 150.62151830238551, -34.90296473417245 ], [ 150.621527418806807, -34.902971251034963 ], [ 150.621536588215918, -34.902977713943507 ], [ 150.62154582178303, -34.902984115003427 ], [ 150.621555099354907, -34.902990470046845 ], [ 150.621564439731259, -34.902996772229976 ], [ 150.621573834474873, -34.903003010569726 ], [ 150.621583273171268, -34.903009204694953 ], [ 150.621592776051671, -34.903015336070453 ], [ 150.621602322077081, -34.903021413299193 ], [ 150.621611932000576, -34.903027437688991 ], [ 150.621621585328967, -34.903033398922204 ], [ 150.621631293858343, -34.903039305343185 ], [ 150.621641046600359, -34.903045158539754 ], [ 150.62155074304809, -34.903147204947224 ], [ 150.621308697737533, -34.903273221888654 ], [ 150.621293128496262, -34.903350939915903 ], [ 150.621312571582564, -34.903353583381644 ], [ 150.621204664995588, -34.903891314782761 ] ] ] ] } },
{ "type": "Feature", "properties": { "OBJECTID": 650, "Comments": "Downloaded from SEED Map Service 20250513", "FSource": "https://mapprod3.environment.nsw.gov.au/arcgis/rest/services/Planning/EPI_Primary_Planning_Layers/MapServer/2", "SourceDate": 20250513.0, "Supplier": "DOP", "EPI_NAME": "Shoalhaven Local Environmental Plan 2014", "LGA_NAME": "SHOALHAVEN", "PUBLISHED_DATE": "20140408000000", "COMMENCED_DATE": "20140422000000", "CURRENCY_DATE": "20240823000000", "AMENDMENT": null, "MAP_TYPE": "LZN", "MAP_NAME": "Land Zoning Map", "LAY_NAME": "Zone", "LAY_CLASS": "Medium Density Residential", "PCO_REF_KEY": "2014-179", "EPI_TYPE": "LEP", "SYM_CODE": "R3", "PURPOSE": null, "arcgisonline_objectid": 587094.0, "arcgisonline_type": "arcgisonline_polygon", "multi_reader_type": "ARCGISFEATURES", "SHAPE_Length": 501.12004883283328, "SHAPE_Area": 10893.535648255969 }, "geometry": { "type": "MultiPolygon", "coordinates": [ [ [ [ 150.573587323144579, -35.09503486297038 ], [ 150.573906178324734, -35.093422609825609 ], [ 150.574420057396196, -35.093265328132453 ], [ 150.574449701395878, -35.093299857629972 ], [ 150.57447325792927, -35.093337138211076 ], [ 150.57448882071489, -35.093372026788693 ], [ 150.574500124700307, -35.093412875275 ], [ 150.574504713890349, -35.093460581941756 ], [ 150.574500348790309, -35.093508108483121 ], [ 150.574462071469014, -35.093700430223919 ], [ 150.574246050594382, -35.094785781181287 ], [ 150.574237418588353, -35.09482261397504 ], [ 150.574227925825227, -35.094854256994189 ], [ 150.574219957311442, -35.094876694227302 ], [ 150.574207971522583, -35.094906041816891 ], [ 150.574194283385111, -35.09493502269035 ], [ 150.574179557037922, -35.09496247013886 ], [ 150.574166262793625, -35.09498474666745 ], [ 150.574148218739708, -35.095012041156252 ], [ 150.574128533602561, -35.095038788960636 ], [ 150.574108445039286, -35.095063494103705 ], [ 150.574090670393474, -35.095083547188018 ], [ 150.574067085463696, -35.095107947049598 ], [ 150.574043340135745, -35.095130356890678 ], [ 150.574016045459899, -35.095153842318823 ], [ 150.57398977080345, -35.095174440972436 ], [ 150.573967101388405, -35.09519081907446 ], [ 150.573938120703644, -35.095210091589422 ], [ 150.573903305513852, -35.09523219594152 ], [ 150.573672373724122, -35.095046408912197 ], [ 150.573587323144579, -35.09503486297038 ] ] ] ] } },
{ "type": "Feature", "properties": { "OBJECTID": 651, "Comments": "Downloaded from SEED Map Service 20250513", "FSource": "https://mapprod3.environment.nsw.gov.au/arcgis/rest/services/Planning/EPI_Primary_Planning_Layers/MapServer/2", "SourceDate": 20250513.0, "Supplier": "DOP", "EPI_NAME": "Shoalhaven Local Environmental Plan 2014", "LGA_NAME": "SHOALHAVEN", "PUBLISHED_DATE": "20140408000000", "COMMENCED_DATE": "20140422000000", "CURRENCY_DATE": "20240823000000", "AMENDMENT": null, "MAP_TYPE": "LZN", "MAP_NAME": "Land Zoning Map", "LAY_NAME": "Zone", "LAY_CLASS": "Medium Density Residential", "PCO_REF_KEY": "2014-179", "EPI_TYPE": "LEP", "SYM_CODE": "R3", "PURPOSE": null, "arcgisonline_objectid": 587095.0, "arcgisonline_type": "arcgisonline_polygon", "multi_reader_type": "ARCGISFEATURES", "SHAPE_Length": 321.99781993936665, "SHAPE_Area": 5170.0383494495527 }, "geometry": { "type": "MultiPolygon", "coordinates": [ [ [ [ 150.574212657006882, -35.092857340462977 ], [ 150.573940491309884, -35.092970950700767 ], [ 150.572859364364035, -35.092836930168232 ], [ 150.572943462684293, -35.092418274654101 ], [ 150.573932145439414, -35.09257386072111 ], [ 150.574078922009676, -35.092510237503582 ], [ 150.57411072637106, -35.092601983259193 ], [ 150.574112591606053, -35.092607362616071 ], [ 150.5741564785111, -35.092723078311337 ], [ 150.574204347195888, -35.092838337332275 ], [ 150.574212657006882, -35.092857340462977 ] ] ] ] } }
]
}
