{
"type": "FeatureCollection",
"name": "RE2_Private Recreation ",
"crs": { "type": "name", "properties": { "name": "urn:ogc:def:crs:OGC:1.3:CRS84" } },
"features": [
{ "type": "Feature", "properties": { "OBJECTID": 75, "Comments": "Downloaded from SEED Map Service 20250513", "FSource": "https://mapprod3.environment.nsw.gov.au/arcgis/rest/services/Planning/EPI_Primary_Planning_Layers/MapServer/2", "SourceDate": 20250513.0, "Supplier": "DOP", "EPI_NAME": "Shoalhaven Local Environmental Plan 2014", "LGA_NAME": "SHOALHAVEN", "PUBLISHED_DATE": "20140408000000", "COMMENCED_DATE": "20140422000000", "CURRENCY_DATE": "20240823000000", "AMENDMENT": null, "MAP_TYPE": "LZN", "MAP_NAME": "Land Zoning Map", "LAY_NAME": "Zone", "LAY_CLASS": "Private Recreation", "PCO_REF_KEY": "2014-179", "EPI_TYPE": "LEP", "SYM_CODE": "RE2", "PURPOSE": null, "arcgisonline_objectid": 585181.0, "arcgisonline_type": "arcgisonline_polygon", "multi_reader_type": "ARCGISFEATURES", "SHAPE_Length": 3179.084469823672, "SHAPE_Area": 182458.7302940118 }, "geometry": { "type": "MultiPolygon", "coordinates": [ [ [ [ 150.624589720130871, -35.101104724697201 ], [ 150.624599428077801, -35.101168995613726 ], [ 150.624646748450459, -35.101482179742632 ], [ 150.624667347320838, -35.101618494642636 ], [ 150.624687946246723, -35.101754809539059 ], [ 150.624708536666986, -35.101891117052361 ], [ 150.624729135703802, -35.102027431941636 ], [ 150.624739587534606, -35.102096615983115 ], [ 150.624796078407542, -35.102168354874095 ], [ 150.625021477264568, -35.102454653671607 ], [ 150.624924433006868, -35.102506770900689 ], [ 150.624880456773013, -35.102549958973263 ], [ 150.624662568637547, -35.10227318779409 ], [ 150.624528988520268, -35.10210350884612 ], [ 150.624428986835852, -35.101976480983858 ], [ 150.624412546833184, -35.101955604386646 ], [ 150.624316381026858, -35.101874462256603 ], [ 150.624199760163918, -35.101776055301514 ], [ 150.624063938391316, -35.101671974745031 ], [ 150.623966527473641, -35.101579261076431 ], [ 150.623849906355218, -35.101480853792054 ], [ 150.623733285203116, -35.101382457216474 ], [ 150.62361667338925, -35.101284050799862 ], [ 150.623500052823772, -35.101185653118158 ], [ 150.623340485317016, -35.101051005270641 ], [ 150.623138428262337, -35.100970805172551 ], [ 150.62298792396146, -35.100911060629805 ], [ 150.622837427562843, -35.100851316058787 ], [ 150.622686922622364, -35.100791571136881 ], [ 150.622536417884049, -35.100731826937121 ], [ 150.622385913138459, -35.100672090667068 ], [ 150.622235407760485, -35.100612346088127 ], [ 150.622084912477249, -35.100552601523979 ], [ 150.621934407555926, -35.100492856587401 ], [ 150.621783903932993, -35.10043311239447 ], [ 150.621633407142184, -35.100373367250846 ], [ 150.621482902853444, -35.100313623579709 ], [ 150.621332397722966, -35.10025387880728 ], [ 150.621169154902731, -35.100189069073664 ], [ 150.621092092583211, -35.100182785654162 ], [ 150.620896902335062, -35.100166874783547 ], [ 150.620723924105249, -35.100152775371775 ], [ 150.62055094730772, -35.100138666727318 ], [ 150.620377969252246, -35.10012456592515 ], [ 150.620204992602908, -35.100110456791242 ], [ 150.620165388623377, -35.100438521212794 ], [ 150.620125463486971, -35.100435258057772 ], [ 150.620165067335336, -35.100107203565869 ], [ 150.620077856655598, -35.100100095477124 ], [ 150.620047755226693, -35.100067717756374 ], [ 150.619980911478592, -35.099995772496193 ], [ 150.620008458232491, -35.09986127609001 ], [ 150.620036201896085, -35.099725813565726 ], [ 150.620063945245306, -35.09959035823627 ], [ 150.620091688489765, -35.099454902894003 ], [ 150.62011943162949, -35.099319447538953 ], [ 150.620147175708297, -35.099183993994565 ], [ 150.620174909868581, -35.0990485384417 ], [ 150.620202653790301, -35.09891308306981 ], [ 150.620230396458652, -35.098777629465509 ], [ 150.620258140432838, -35.09864216505855 ], [ 150.6202858840403, -35.098506709648305 ], [ 150.620313618720729, -35.098371255854943 ], [ 150.620341362118751, -35.098235800419111 ], [ 150.620369106508235, -35.098100344992027 ], [ 150.620396848548097, -35.097964891310994 ], [ 150.620424592728085, -35.097829435858337 ], [ 150.620452326911106, -35.097693981100093 ], [ 150.620480070881598, -35.097558525621849 ], [ 150.62050781388686, -35.09742306200075 ], [ 150.620535557621679, -35.097287607397881 ], [ 150.62056329360442, -35.097152151730597 ], [ 150.620591036007369, -35.097016697981587 ], [ 150.620618780550416, -35.096881242460931 ], [ 150.620646522770045, -35.09674578778538 ], [ 150.620674258569579, -35.096610323958394 ], [ 150.620701758749163, -35.096476321275318 ], [ 150.620781358840901, -35.096420645678201 ], [ 150.620822092216997, -35.096392148733067 ], [ 150.6208577233227, -35.096367228673031 ], [ 150.620855033831305, -35.096037559946403 ], [ 150.620895147892952, -35.096037345073526 ], [ 150.620897836711748, -35.096367004774713 ], [ 150.621064970800774, -35.096366081539131 ], [ 150.621232093937493, -35.096365157857555 ], [ 150.621399217084047, -35.096364233945209 ], [ 150.621566351202546, -35.096363310017253 ], [ 150.621733474342591, -35.0963623865443 ], [ 150.621900599658716, -35.096361463784561 ], [ 150.622067731352558, -35.096360548130711 ], [ 150.62223485668838, -35.096359624909411 ], [ 150.622401980103291, -35.096358692404792 ], [ 150.622569112896713, -35.096357776981044 ], [ 150.622736237401313, -35.09635684493734 ], [ 150.622903360557814, -35.096355921650854 ], [ 150.62307049468626, -35.096354998348616 ], [ 150.623237617888606, -35.096354073699636 ], [ 150.623404742144658, -35.096353150643282 ], [ 150.623571875180232, -35.096352227528143 ], [ 150.623738998385846, -35.096351303087779 ], [ 150.623906131702597, -35.096350370501526 ], [ 150.624073255971751, -35.096349447423009 ], [ 150.624240380250711, -35.096348524113722 ], [ 150.624407512500653, -35.0963475908136 ], [ 150.624574637895449, -35.096346667064232 ], [ 150.624741761081538, -35.096345743942067 ], [ 150.62473905457108, -35.096016083665411 ], [ 150.624779167826915, -35.096015859375193 ], [ 150.624781874499121, -35.09634551965739 ], [ 150.62494900785083, -35.096344586531956 ], [ 150.625116132155057, -35.096343662914343 ], [ 150.62528325560811, -35.096342730935866 ], [ 150.625450389771743, -35.096341807950978 ], [ 150.625617513270527, -35.096340874610007 ], [ 150.62578463649163, -35.09633995094876 ], [ 150.625951769849735, -35.096339018240485 ], [ 150.62611889309045, -35.096338094117677 ], [ 150.626171906257383, -35.096337799348213 ], [ 150.6262860176723, -35.096337161676985 ], [ 150.626453151007496, -35.096336230078258 ], [ 150.626620275347676, -35.096335306185537 ], [ 150.626787398862632, -35.096334373031041 ], [ 150.626876195231659, -35.096333888983843 ], [ 150.626894581049925, -35.096333791094665 ], [ 150.626981673744893, -35.096553059047793 ], [ 150.627033539728529, -35.096683636955547 ], [ 150.627085404770554, -35.096814214823596 ], [ 150.627137279807073, -35.096944793767605 ], [ 150.627189144871068, -35.097075381509768 ], [ 150.627241010376963, -35.097205959323233 ], [ 150.627292876037473, -35.09733653711848 ], [ 150.627344749500082, -35.097467115946742 ], [ 150.627396615443729, -35.097597694606527 ], [ 150.627322985614143, -35.097655028512392 ], [ 150.627164098852802, -35.097697660467375 ], [ 150.627005222011888, -35.097740285192614 ], [ 150.62684633488908, -35.097782918518917 ], [ 150.626687458861255, -35.097825541934093 ], [ 150.626811939870549, -35.09813893225833 ], [ 150.626668938580792, -35.098177298803556 ], [ 150.626544564255227, -35.09786395370358 ], [ 150.626385686811261, -35.097906577589328 ], [ 150.626226801277795, -35.097949210119012 ], [ 150.626182501042621, -35.097961097139184 ], [ 150.626067914728594, -35.097991834303336 ], [ 150.625909037890892, -35.098034458465605 ], [ 150.625750150745006, -35.098077092129792 ], [ 150.625746691446892, -35.098068388314807 ], [ 150.625689527963459, -35.097924686245165 ], [ 150.625603429192353, -35.09787363589917 ], [ 150.625348592948029, -35.097722566182277 ], [ 150.625337755184916, -35.097716130085828 ], [ 150.625029888319347, -35.09771751205038 ], [ 150.624996462757935, -35.097717663749819 ], [ 150.624862755453762, -35.097718255932612 ], [ 150.624695631080982, -35.097719009666484 ], [ 150.624528498210339, -35.09771975398813 ], [ 150.624361366446465, -35.097720498100507 ], [ 150.624194232213085, -35.097721251849613 ], [ 150.624027099374047, -35.09772199547897 ], [ 150.623859975289292, -35.097722739950456 ], [ 150.623692842419103, -35.097723484920174 ], [ 150.623525709585607, -35.097724228758167 ], [ 150.623358576474914, -35.097724982275857 ], [ 150.62319144389798, -35.097725717543746 ], [ 150.623024319578207, -35.09772647077191 ], [ 150.622857186734592, -35.097727215488746 ], [ 150.622548754319638, -35.0977285863529 ], [ 150.622445132189853, -35.097729044041692 ], [ 150.622282534658837, -35.097842654658521 ], [ 150.622157746381504, -35.097929837738704 ], [ 150.622128336966512, -35.098073137061689 ], [ 150.622082198300006, -35.098297979981318 ], [ 150.622039395376447, -35.098506572729157 ], [ 150.622023269418406, -35.098585132597179 ], [ 150.622099103977177, -35.098763578195644 ], [ 150.622474954667581, -35.098605659692176 ], [ 150.622482932025747, -35.098620844523069 ], [ 150.622491957771814, -35.098635546004417 ], [ 150.622112505337412, -35.098795033643242 ], [ 150.622127931910427, -35.0988313462558 ], [ 150.622319267298082, -35.098972152147461 ], [ 150.622443776480225, -35.09906379145383 ], [ 150.62256828596901, -35.099155429741067 ], [ 150.622692794903685, -35.099247058879143 ], [ 150.622817304927224, -35.099338697831001 ], [ 150.622941814396654, -35.099430327633684 ], [ 150.623066681584959, -35.099522226655729 ], [ 150.623191038286848, -35.099613999251474 ], [ 150.623315396339336, -35.099705772651795 ], [ 150.623439752505988, -35.099797544990331 ], [ 150.623564118767149, -35.09988931920639 ], [ 150.623688474372386, -35.099981092188642 ], [ 150.623812832215208, -35.100072873204596 ], [ 150.623937198247859, -35.100164646144592 ], [ 150.624061554694634, -35.100256418773256 ], [ 150.62418591246589, -35.10034819310745 ], [ 150.624310278243854, -35.100439965672329 ], [ 150.624434634409738, -35.100531738826845 ], [ 150.624511741872681, -35.100588640955266 ], [ 150.624522167576743, -35.100657618975632 ], [ 150.624542758437656, -35.100793933746822 ], [ 150.624563356975642, -35.100930250466789 ], [ 150.624583955621432, -35.101066565381281 ], [ 150.624589720130871, -35.101104724697201 ] ] ] ] } },
{ "type": "Feature", "properties": { "OBJECTID": 76, "Comments": "Downloaded from SEED Map Service 20250513", "FSource": "https://mapprod3.environment.nsw.gov.au/arcgis/rest/services/Planning/EPI_Primary_Planning_Layers/MapServer/2", "SourceDate": 20250513.0, "Supplier": "DOP", "EPI_NAME": "Shoalhaven Local Environmental Plan 2014", "LGA_NAME": "SHOALHAVEN", "PUBLISHED_DATE": "20140408000000", "COMMENCED_DATE": "20140422000000", "CURRENCY_DATE": "20240823000000", "AMENDMENT": null, "MAP_TYPE": "LZN", "MAP_NAME": "Land Zoning Map", "LAY_NAME": "Zone", "LAY_CLASS": "Private Recreation", "PCO_REF_KEY": "2014-179", "EPI_TYPE": "LEP", "SYM_CODE": "RE2", "PURPOSE": null, "arcgisonline_objectid": 585182.0, "arcgisonline_type": "arcgisonline_polygon", "multi_reader_type": "ARCGISFEATURES", "SHAPE_Length": 3306.5798450150742, "SHAPE_Area": 232449.1982593674 }, "geometry": { "type": "MultiPolygon", "coordinates": [ [ [ [ 150.632600439511037, -35.099963183966693 ], [ 150.632573637774613, -35.100098763744597 ], [ 150.632546826879661, -35.100234353249434 ], [ 150.632520023843597, -35.10036993298143 ], [ 150.632493222872284, -35.10050551364499 ], [ 150.63246642044237, -35.100641103284488 ], [ 150.632460288851036, -35.100672118328745 ], [ 150.632432008169559, -35.10064396286883 ], [ 150.632276716434234, -35.1007274450211 ], [ 150.632136833313723, -35.100802634389872 ], [ 150.631996959781929, -35.100877824679777 ], [ 150.631857085998377, -35.100953014797071 ], [ 150.63171721303334, -35.10102820566415 ], [ 150.631577329976096, -35.101103395264794 ], [ 150.631437456507598, -35.101178585786627 ], [ 150.631297583883594, -35.101253776157293 ], [ 150.631157701167382, -35.101328965261494 ], [ 150.631017828039944, -35.101404155286914 ], [ 150.631255704546021, -35.101703041428628 ], [ 150.631199760403774, -35.101733115975506 ], [ 150.630961883166009, -35.101434221599867 ], [ 150.63081369179406, -35.10151388408903 ], [ 150.630668215821316, -35.101592077810793 ], [ 150.630522739341529, -35.101670279454432 ], [ 150.63037725405394, -35.10174847263125 ], [ 150.630231778099756, -35.101826674823812 ], [ 150.630086301873263, -35.101904876829678 ], [ 150.629940825635401, -35.101983069639246 ], [ 150.629795350195423, -35.10206126318451 ], [ 150.629649865451881, -35.102139465381029 ], [ 150.62950438839718, -35.102217657630412 ], [ 150.629358904205276, -35.102295859474879 ], [ 150.629213427650058, -35.102374053174167 ], [ 150.629065155028826, -35.102453752418562 ], [ 150.629303031516599, -35.102752637767381 ], [ 150.629247096905686, -35.102782712465867 ], [ 150.629009219738606, -35.102483817081229 ], [ 150.628860893270087, -35.102563543859297 ], [ 150.628787076008592, -35.102603217879292 ], [ 150.628712621098742, -35.102643241763005 ], [ 150.628564347757049, -35.102722932243623 ], [ 150.628416073871477, -35.102802631539831 ], [ 150.627974053215752, -35.103040212777898 ], [ 150.628211930223671, -35.103339108325798 ], [ 150.628155977286468, -35.103369182142437 ], [ 150.627918108317658, -35.103070278532265 ], [ 150.627778225966608, -35.103145468098951 ], [ 150.627638334828447, -35.103220649212702 ], [ 150.627498451921639, -35.10329584023598 ], [ 150.627358570146697, -35.103371021197582 ], [ 150.62721868676249, -35.103446210974603 ], [ 150.627078804457994, -35.103521392491857 ], [ 150.626938912034944, -35.103596573643209 ], [ 150.626799030088137, -35.103671762945183 ], [ 150.626659147028391, -35.103746943944458 ], [ 150.626519264813226, -35.103822124792536 ], [ 150.62637939025575, -35.103897297509725 ], [ 150.626239508372095, -35.103972487043507 ], [ 150.626193165391101, -35.10399738988464 ], [ 150.626099616578955, -35.104047669003684 ], [ 150.625959734427056, -35.10412285008357 ], [ 150.625819842156545, -35.104198030797448 ], [ 150.625757938068546, -35.104231314169581 ], [ 150.625679960309924, -35.104273221463956 ], [ 150.625630648481945, -35.104299718290648 ], [ 150.625583121563864, -35.104311237085909 ], [ 150.625406765549513, -35.104353968507127 ], [ 150.62523040717204, -35.104396699620935 ], [ 150.625054050790595, -35.104439431414221 ], [ 150.625176964426089, -35.104781998130854 ], [ 150.625042308043191, -35.10481462774387 ], [ 150.624108272378152, -35.104834214913161 ], [ 150.624053278384537, -35.104813947997577 ], [ 150.623784896758679, -35.104553211985731 ], [ 150.623788832438436, -35.104514497371291 ], [ 150.624471196495534, -35.104040149067785 ], [ 150.624490333800793, -35.103851699061416 ], [ 150.624135451130456, -35.103507070651112 ], [ 150.624139369024505, -35.103468355666607 ], [ 150.624460108271933, -35.103245304500845 ], [ 150.624769311613022, -35.10294164002967 ], [ 150.624953977617281, -35.102760263063729 ], [ 150.625072572012044, -35.102643785357472 ], [ 150.625128210239581, -35.102613916850125 ], [ 150.625275892084829, -35.102534603976991 ], [ 150.625493805739865, -35.102811384513615 ], [ 150.625633724186372, -35.102736247903955 ], [ 150.625773643451424, -35.102661112043968 ], [ 150.625913570165068, -35.102585975260666 ], [ 150.626053488926885, -35.102510839055206 ], [ 150.626193407698395, -35.102435693667495 ], [ 150.626198946811229, -35.10243271736914 ], [ 150.626333325956921, -35.102360557116548 ], [ 150.626584855001141, -35.102225478541961 ], [ 150.626646427090009, -35.102192419873766 ], [ 150.626746188555956, -35.102015613341464 ], [ 150.626774648466295, -35.101965173977312 ], [ 150.62677853017297, -35.101958298806721 ], [ 150.626739294137536, -35.101698647637996 ], [ 150.626718695095917, -35.101562332117425 ], [ 150.626698096083658, -35.101426017494219 ], [ 150.626677497988027, -35.101289710997492 ], [ 150.626656898016591, -35.101153395444697 ], [ 150.626636299170798, -35.101017080810749 ], [ 150.626615852063992, -35.100881474089853 ], [ 150.626595100601691, -35.100744449708749 ], [ 150.626574500826138, -35.10060813504257 ], [ 150.626553902228437, -35.100471819493364 ], [ 150.626533302563843, -35.100335504820045 ], [ 150.626512695045705, -35.100199198101414 ], [ 150.626492096614527, -35.100062882541451 ], [ 150.626471505886514, -35.099926568029176 ], [ 150.626463420681262, -35.099873088898697 ], [ 150.626409771202958, -35.099738019002288 ], [ 150.626357896907365, -35.099607440699913 ], [ 150.6263060307015, -35.099476853520109 ], [ 150.626254157811474, -35.099346275202798 ], [ 150.626202291679732, -35.099215696095172 ], [ 150.626181163946484, -35.09916251314295 ], [ 150.626150426746619, -35.099085118792722 ], [ 150.626098552127985, -35.098954540377832 ], [ 150.626067437892317, -35.098876195688625 ], [ 150.626176216214077, -35.098847016994362 ], [ 150.626226316320384, -35.098833571385683 ], [ 150.62638520117136, -35.098790946996303 ], [ 150.626544088321424, -35.09874831342502 ], [ 150.626702965137127, -35.098705690256637 ], [ 150.626861851977935, -35.098663056254736 ], [ 150.626737368972641, -35.098349666846765 ], [ 150.626880361771242, -35.098311300060708 ], [ 150.627004844160865, -35.098624690222451 ], [ 150.627163730420506, -35.098582065721949 ], [ 150.627322616734489, -35.098539433798507 ], [ 150.62748149388878, -35.098496809596647 ], [ 150.627640379945689, -35.098454175440693 ], [ 150.627743053538978, -35.09846997972604 ], [ 150.627796998042811, -35.098605784143381 ], [ 150.627849051512186, -35.098736524045513 ], [ 150.627901025060737, -35.098867074856912 ], [ 150.627953006411872, -35.098997626701198 ], [ 150.62800497914796, -35.099128178355528 ], [ 150.628056961096263, -35.099258720252742 ], [ 150.62810893414229, -35.099389271870479 ], [ 150.628160916139421, -35.09951982274066 ], [ 150.628277796330281, -35.099813403713398 ], [ 150.628285075428806, -35.099831680065193 ], [ 150.628626109065863, -35.099947700477642 ], [ 150.628735075421332, -35.099601493035742 ], [ 150.628753827112632, -35.099607570768029 ], [ 150.628773000946182, -35.099612707514822 ], [ 150.62866355182291, -35.099960438938751 ], [ 150.628793260393735, -35.100004558206464 ], [ 150.629050658872643, -35.09993549975249 ], [ 150.62920953710065, -35.099892867036424 ], [ 150.629368423944101, -35.099850234276644 ], [ 150.629527175766782, -35.099807637426288 ], [ 150.629695590359233, -35.099762448355094 ], [ 150.629854475581055, -35.099719816717133 ], [ 150.63000220208275, -35.099680176741039 ], [ 150.630130037299068, -35.099594937241598 ], [ 150.630267606267552, -35.099503208994143 ], [ 150.630405185057754, -35.09941147176027 ], [ 150.630542755894822, -35.099319733305585 ], [ 150.63068033517041, -35.099227995753516 ], [ 150.630817904013441, -35.099136266848305 ], [ 150.630955483774414, -35.099044528978062 ], [ 150.631093053337565, -35.098952791646091 ], [ 150.631230623717613, -35.098861053264784 ], [ 150.631368202510089, -35.098769316687047 ], [ 150.631505771992494, -35.098677587876679 ], [ 150.631692115339661, -35.098515132051894 ], [ 150.63181986118019, -35.098318103482669 ], [ 150.631874111181503, -35.098121604586254 ], [ 150.631875499747281, -35.098116602440513 ], [ 150.63187997271018, -35.09810037781633 ], [ 150.631874226601354, -35.09799061293478 ], [ 150.632838452736081, -35.098759175321554 ], [ 150.632814859449297, -35.098878513040013 ], [ 150.632788056333993, -35.099014092872949 ], [ 150.632761253900497, -35.099149683526548 ], [ 150.632734452774287, -35.099285263377837 ], [ 150.632707649327813, -35.099420844075027 ], [ 150.632680846641335, -35.099556432890004 ], [ 150.632654045210046, -35.099692012704594 ], [ 150.632627242294092, -35.099827602396083 ], [ 150.632600439511037, -35.099963183966693 ] ] ] ] } },
{ "type": "Feature", "properties": { "OBJECTID": 129, "Comments": "Downloaded from SEED Map Service 20250513", "FSource": "https://mapprod3.environment.nsw.gov.au/arcgis/rest/services/Planning/EPI_Primary_Planning_Layers/MapServer/2", "SourceDate": 20250513.0, "Supplier": "DOP", "EPI_NAME": "Shoalhaven Local Environmental Plan 2014", "LGA_NAME": "SHOALHAVEN", "PUBLISHED_DATE": "20140408000000", "COMMENCED_DATE": "20140422000000", "CURRENCY_DATE": "20240823000000", "AMENDMENT": null, "MAP_TYPE": "LZN", "MAP_NAME": "Land Zoning Map", "LAY_NAME": "Zone", "LAY_CLASS": "Private Recreation", "PCO_REF_KEY": "2014-179", "EPI_TYPE": "LEP", "SYM_CODE": "RE2", "PURPOSE": null, "arcgisonline_objectid": 585501.0, "arcgisonline_type": "arcgisonline_polygon", "multi_reader_type": "ARCGISFEATURES", "SHAPE_Length": 5278.3391072617951, "SHAPE_Area": 449717.82955895294 }, "geometry": { "type": "MultiPolygon", "coordinates": [ [ [ [ 150.676908376795609, -35.084002219307941 ], [ 150.67765956698031, -35.083030936818282 ], [ 150.677877389839551, -35.081597552052038 ], [ 150.67788589703332, -35.08154864484635 ], [ 150.677898553391913, -35.081500337283899 ], [ 150.677922855160915, -35.081434774954545 ], [ 150.677954785098649, -35.081371381676746 ], [ 150.677994056115097, -35.081310767654294 ], [ 150.678040310242693, -35.081253451584402 ], [ 150.678093143966578, -35.081199972926548 ], [ 150.678152063521281, -35.081150805406132 ], [ 150.678216542113432, -35.081106388761192 ], [ 150.678269913429972, -35.081075525802703 ], [ 150.678325974158042, -35.081047934417192 ], [ 150.678351019304216, -35.081037025764132 ], [ 150.678424747928347, -35.081005839597303 ], [ 150.678909162177519, -35.080809994501543 ], [ 150.67910934549883, -35.080725276423045 ], [ 150.679758643034489, -35.080450485425445 ], [ 150.679677849628092, -35.080245541634234 ], [ 150.67959678855604, -35.080039917459125 ], [ 150.679408607099873, -35.079762060445901 ], [ 150.679207911414409, -35.079241558471985 ], [ 150.679043529460245, -35.078875388842768 ], [ 150.679048038167508, -35.078815150885859 ], [ 150.679065446457088, -35.07863965428578 ], [ 150.679326727188084, -35.07811887364457 ], [ 150.679549006831479, -35.077810279693068 ], [ 150.67873266451079, -35.077182255138794 ], [ 150.678553823659911, -35.076818236556271 ], [ 150.678581916916727, -35.076654948726137 ], [ 150.67858560940266, -35.076489474454149 ], [ 150.678589248686535, -35.076326069857515 ], [ 150.678592977569139, -35.076159734459793 ], [ 150.678596706442676, -35.075993398156179 ], [ 150.678600372578302, -35.075828694127843 ], [ 150.678604046968417, -35.07566389109067 ], [ 150.678634462287818, -35.075487130896832 ], [ 150.678664760080949, -35.075310952596546 ], [ 150.678697836661087, -35.075118782960644 ], [ 150.678860927770614, -35.074998342956633 ], [ 150.679089266929537, -35.074829722096936 ], [ 150.679321174326702, -35.074670395744285 ], [ 150.679513460822619, -35.074538294196905 ], [ 150.679637324615783, -35.074374647844827 ], [ 150.68039857354276, -35.074472247414526 ], [ 150.680443625983742, -35.074418633084093 ], [ 150.680578740287672, -35.074495365250364 ], [ 150.681055121859174, -35.074556436465002 ], [ 150.681214644650339, -35.07436261744563 ], [ 150.681263174937271, -35.074307641381083 ], [ 150.681468136898758, -35.074547390960902 ], [ 150.681593829277347, -35.074692643620033 ], [ 150.681775224500711, -35.07490821860172 ], [ 150.681926814339818, -35.075044058038756 ], [ 150.682376465792601, -35.075276225088452 ], [ 150.682467799339889, -35.07535443581574 ], [ 150.68321466949638, -35.07579023724503 ], [ 150.683440167346134, -35.076090915957039 ], [ 150.683553418581056, -35.076271754639542 ], [ 150.683798511180015, -35.076151144111314 ], [ 150.683919847603505, -35.076304356932518 ], [ 150.683651735716609, -35.076436234438262 ], [ 150.684002953488061, -35.076849806321682 ], [ 150.684219909662261, -35.078273760861144 ], [ 150.684025993048181, -35.078292450437701 ], [ 150.683835445465604, -35.078310818245406 ], [ 150.683644889071843, -35.078329184681472 ], [ 150.683414183197868, -35.078330888583444 ], [ 150.683085303876624, -35.078333309083916 ], [ 150.683025783332738, -35.078419524783847 ], [ 150.682930084416341, -35.07861071767136 ], [ 150.682905057715118, -35.078660718539822 ], [ 150.68287150497838, -35.078911557638058 ], [ 150.682777177928926, -35.079074262783578 ], [ 150.682602470431476, -35.079375066731409 ], [ 150.682573014398031, -35.079363037634373 ], [ 150.682570002839583, -35.079361844190892 ], [ 150.68256696474694, -35.079360697116975 ], [ 150.682563898820206, -35.07935960359962 ], [ 150.6825608061298, -35.079358564560764 ], [ 150.682557677958556, -35.079357578030773 ], [ 150.682554531817431, -35.079356645245937 ], [ 150.682551366329989, -35.079355776096222 ], [ 150.682548175455338, -35.079354951535016 ], [ 150.682411304359306, -35.079321014442819 ], [ 150.682301558679768, -35.079293808877857 ], [ 150.682145146058133, -35.079127876345176 ], [ 150.682039989844696, -35.079012868526128 ], [ 150.681979285640296, -35.078679372543149 ], [ 150.681954984080051, -35.078545665453561 ], [ 150.681922578790534, -35.078367390165219 ], [ 150.681789131865429, -35.078071641558353 ], [ 150.681993017643123, -35.077895231247425 ], [ 150.681955322769284, -35.077734847440055 ], [ 150.681929077353146, -35.077623183111768 ], [ 150.681890719572863, -35.077559896745555 ], [ 150.681621781913975, -35.077116252537351 ], [ 150.681518293220222, -35.077117023528459 ], [ 150.681255183062888, -35.077119004145999 ], [ 150.681201784050273, -35.077303106956748 ], [ 150.681062288190191, -35.077622958980392 ], [ 150.681022802512103, -35.077882308451336 ], [ 150.680977874451145, -35.078177435371998 ], [ 150.680945200788159, -35.078392068299884 ], [ 150.680942476055748, -35.078409951109208 ], [ 150.680604911317204, -35.078404976933193 ], [ 150.680393316643375, -35.078452235547104 ], [ 150.680289119806247, -35.07855628884505 ], [ 150.680328077274936, -35.078851580241697 ], [ 150.680363538984778, -35.079120383255265 ], [ 150.680391847659081, -35.079335707016931 ], [ 150.680397781529507, -35.079380508718152 ], [ 150.680478385940972, -35.079479165821411 ], [ 150.680570096400373, -35.079591404338863 ], [ 150.680638769543748, -35.07967528044086 ], [ 150.680640947752181, -35.079676005442948 ], [ 150.680963902226893, -35.079783609396657 ], [ 150.681400797307106, -35.07992918447939 ], [ 150.681517705067108, -35.079852309600348 ], [ 150.681611880681771, -35.079790386258118 ], [ 150.681496379613833, -35.079384864862092 ], [ 150.681466386112078, -35.079279556317879 ], [ 150.6817059022911, -35.079033108845202 ], [ 150.681801664598453, -35.079008386394541 ], [ 150.68183919688434, -35.079052928755985 ], [ 150.681876807791951, -35.079097561856443 ], [ 150.68206251719954, -35.079317939141241 ], [ 150.682225463877643, -35.079471851086453 ], [ 150.682335264155626, -35.079540076006595 ], [ 150.682406410287314, -35.079584286433111 ], [ 150.682409376044205, -35.079586091109881 ], [ 150.682409453862419, -35.079586131361452 ], [ 150.682412398591396, -35.079587826556995 ], [ 150.682415464215637, -35.079589512344839 ], [ 150.682418575261977, -35.079591143109319 ], [ 150.682421729716708, -35.079592712501622 ], [ 150.68242492984848, -35.079594217860631 ], [ 150.682428175606248, -35.079595660988375 ], [ 150.682431456029661, -35.079597041675243 ], [ 150.682434782104565, -35.079598359229848 ], [ 150.682438134076847, -35.079599614175912 ], [ 150.682441531675124, -35.079600806890674 ], [ 150.682444956292301, -35.07960193611688 ], [ 150.682448407061742, -35.079602993724635 ], [ 150.682451893592855, -35.079603988912474 ], [ 150.682455398603992, -35.079604912335149 ], [ 150.682458939402295, -35.079605772436921 ], [ 150.682462498400184, -35.07960657068444 ], [ 150.682466083575775, -35.079607296412505 ], [ 150.682469678437656, -35.079607951108763 ], [ 150.682473299477266, -35.079608533285537 ], [ 150.682476929948137, -35.079609053440443 ], [ 150.682480578899032, -35.079609501830156 ], [ 150.682484236210627, -35.079609887276028 ], [ 150.682487911161076, -35.079610191925852 ], [ 150.682491585678491, -35.079610434365158 ], [ 150.682495271029126, -35.079610603991611 ], [ 150.68249895510553, -35.079610702376677 ], [ 150.682502639003815, -35.079610729541308 ], [ 150.682506331517715, -35.079610684752154 ], [ 150.682510016181197, -35.079610568595875 ], [ 150.682513700437084, -35.079610389328096 ], [ 150.6825173757465, -35.079610138672223 ], [ 150.682521042134937, -35.079609815727288 ], [ 150.682524699576902, -35.079609421394252 ], [ 150.682528338233567, -35.079608954583556 ], [ 150.682531968759321, -35.079608426316661 ], [ 150.682535590364097, -35.079607825760661 ], [ 150.682539184389753, -35.079607153460351 ], [ 150.682542761541725, -35.079606418635194 ], [ 150.682547960646872, -35.079605333494833 ], [ 150.682553177696036, -35.0796043118009 ], [ 150.682558413300967, -35.079603370693242 ], [ 150.682563665804963, -35.079602491209108 ], [ 150.682568937068652, -35.07960168510327 ], [ 150.682574224950969, -35.079600950531869 ], [ 150.682579522901278, -35.079600286468164 ], [ 150.682584838540748, -35.079599694860818 ], [ 150.682587713184034, -35.079599409963642 ], [ 150.682590163356139, -35.079599166532276 ], [ 150.682595496888553, -35.079598717700392 ], [ 150.682600839341973, -35.079598341157244 ], [ 150.682606190971285, -35.079598027892892 ], [ 150.68261154142786, -35.079597794837596 ], [ 150.682494162885803, -35.079804725525712 ], [ 150.682489040560426, -35.079813755071214 ], [ 150.682730153358989, -35.079949962058116 ], [ 150.682897403653897, -35.080044442407079 ], [ 150.683071788788681, -35.080123773420716 ], [ 150.683243036801514, -35.080201088014604 ], [ 150.683406252552089, -35.080275058516946 ], [ 150.683548224071103, -35.080339662086914 ], [ 150.683551361811681, -35.080347873236533 ], [ 150.683554570260299, -35.080356065904837 ], [ 150.683557860351954, -35.08036424120229 ], [ 150.683561231245449, -35.080372390097999 ], [ 150.683564672872592, -35.080380519611381 ], [ 150.683568195301575, -35.080388622723 ], [ 150.68357179962851, -35.080396699453829 ], [ 150.683575474638161, -35.080404758604303 ], [ 150.683579230245869, -35.080412798560928 ], [ 150.68358305811654, -35.080420803839289 ], [ 150.68358696655983, -35.080428790824797 ], [ 150.683590947036748, -35.080436751240931 ], [ 150.683595006990345, -35.08044469334326 ], [ 150.683599139257922, -35.080452598965302 ], [ 150.683603352302043, -35.080460479086511 ], [ 150.683607637430839, -35.080468330836361 ], [ 150.683611993471857, -35.08047615689685 ], [ 150.683616421597549, -35.080483954585937 ], [ 150.683620930499899, -35.080491726774206 ], [ 150.683625511716343, -35.080499462482102 ], [ 150.683630172638885, -35.080507171767209 ], [ 150.683634896826902, -35.080514854315304 ], [ 150.683639729091254, -35.080522554253797 ], [ 150.683644641087284, -35.080530226868476 ], [ 150.683649615482068, -35.080537864616247 ], [ 150.683654672055468, -35.080545466072117 ], [ 150.683659798725472, -35.080553031906703 ], [ 150.683664997454912, -35.080560570270812 ], [ 150.683670268473065, -35.080568073055481 ], [ 150.68367561152516, -35.080575549270648 ], [ 150.6836810260248, -35.080582980875505 ], [ 150.683686511487821, -35.080590384988888 ], [ 150.683692069519964, -35.080597743611889 ], [ 150.683697698719357, -35.080605067535473 ], [ 150.683703391209889, -35.08061236382094 ], [ 150.683709163916376, -35.080619615663608 ], [ 150.683714999047282, -35.080626831738257 ], [ 150.683720906467045, -35.080634012233411 ], [ 150.683726876566027, -35.080641147950594 ], [ 150.683732917883333, -35.080648247166316 ], [ 150.683739031489523, -35.080655310802499 ], [ 150.683745207774962, -35.080662329660697 ], [ 150.683751366191757, -35.080669204841769 ], [ 150.68375757826459, -35.080676044087241 ], [ 150.683763861530281, -35.080682847732177 ], [ 150.683770217339685, -35.080689606787601 ], [ 150.683776627059956, -35.080696320897452 ], [ 150.683783099204732, -35.080702999239165 ], [ 150.6837896326779, -35.080709641791842 ], [ 150.68379624007116, -35.080716229864983 ], [ 150.683802899998966, -35.080722782882482 ], [ 150.683876924931752, -35.080795014102883 ], [ 150.683996656296216, -35.080911832311529 ], [ 150.683992631533101, -35.080950539786279 ], [ 150.683609278396659, -35.081216034424784 ], [ 150.683475632726015, -35.081246019154783 ], [ 150.683433764547601, -35.081255412889462 ], [ 150.682397027556647, -35.081111433851802 ], [ 150.68239155979208, -35.08113809333436 ], [ 150.68235786413743, -35.081302492840869 ], [ 150.682316235411264, -35.081505598017422 ], [ 150.682256777958401, -35.081795708408798 ], [ 150.682233095430661, -35.081911236302034 ], [ 150.68215237523728, -35.082305041969036 ], [ 150.682151451942985, -35.082309766094944 ], [ 150.682150609553702, -35.082314498979862 ], [ 150.682149847228459, -35.082319231592898 ], [ 150.682149175392453, -35.082323983064505 ], [ 150.682148583390955, -35.082328742373164 ], [ 150.682148081037695, -35.082333511509532 ], [ 150.682147659844532, -35.082338280394978 ], [ 150.682147328580072, -35.082343049197213 ], [ 150.682147077124711, -35.082347826737511 ], [ 150.682146915572588, -35.082352605095565 ], [ 150.682146836047224, -35.082357391332621 ], [ 150.682146835719408, -35.082362169167936 ], [ 150.68214692506541, -35.082366955929949 ], [ 150.682147104595174, -35.082371733598826 ], [ 150.682147364163626, -35.08237651189684 ], [ 150.68214770517281, -35.08238128003304 ], [ 150.682148134989291, -35.082386048966058 ], [ 150.68214865473459, -35.08239081781587 ], [ 150.682149256124717, -35.082395569295933 ], [ 150.682149936508495, -35.082400319582199 ], [ 150.682150708146736, -35.082405061697251 ], [ 150.682151560104245, -35.082409794530548 ], [ 150.682152491514444, -35.082414509952166 ], [ 150.682153513949686, -35.082419225311533 ], [ 150.682154616118112, -35.082423913348293 ], [ 150.682155799446946, -35.082428601134161 ], [ 150.682157072373684, -35.082433261786086 ], [ 150.682158425568758, -35.082437914958213 ], [ 150.682159860459763, -35.082442548958596 ], [ 150.682161374803542, -35.082447165547293 ], [ 150.682162979586394, -35.082451764032903 ], [ 150.682164656149524, -35.082456344960121 ], [ 150.68216642233611, -35.082460897852371 ], [ 150.682168259181481, -35.082465434066251 ], [ 150.682170186465953, -35.082469952177036 ], [ 150.682172186066225, -35.082474433808571 ], [ 150.68217427498405, -35.082478898217055 ], [ 150.682176434611705, -35.082483344145132 ], [ 150.682178675298275, -35.082487754662644 ], [ 150.682180997910422, -35.082492137899429 ], [ 150.682183390365822, -35.082496494525955 ], [ 150.682185864746799, -35.082500823871747 ], [ 150.682188411163196, -35.082505126649188 ], [ 150.682191036446454, -35.082509393974078 ], [ 150.68219374391029, -35.082513625008346 ], [ 150.682196523435096, -35.082517828573209 ], [ 150.682199374154266, -35.082521996538823 ], [ 150.682202296067828, -35.082526128905172 ], [ 150.682202666688767, -35.082526634510735 ], [ 150.682205299040447, -35.082530225860857 ], [ 150.682208364438878, -35.082534287049612 ], [ 150.682211510947354, -35.082538311025715 ], [ 150.682214719856177, -35.082542300135849 ], [ 150.682218010104577, -35.082546243924405 ], [ 150.682221361657241, -35.082550152826023 ], [ 150.682510333565659, -35.082881775171927 ], [ 150.68271889026741, -35.083103184267841 ], [ 150.682552241385963, -35.08324253003601 ], [ 150.68274811252499, -35.083467355643045 ], [ 150.682742743135464, -35.083473558836239 ], [ 150.682737454472942, -35.083479815858418 ], [ 150.682732228668783, -35.083486099323522 ], [ 150.682727083846572, -35.083492427607702 ], [ 150.682722001347372, -35.083498801255679 ], [ 150.682716998988951, -35.083505210691875 ], [ 150.682712060330118, -35.083511655601917 ], [ 150.682707210580787, -35.083518136467838 ], [ 150.682702423409438, -35.083524653687682 ], [ 150.682699597656693, -35.083528593215945 ], [ 150.68269950058874, -35.083528729286456 ], [ 150.682697717245588, -35.083531214825662 ], [ 150.682693083524526, -35.083537812506187 ], [ 150.682688520334494, -35.083544436776428 ], [ 150.682684039222607, -35.08355110588677 ], [ 150.68267963738495, -35.083557802655513 ], [ 150.682675308041127, -35.083564534164829 ], [ 150.682671050299007, -35.083571293185877 ], [ 150.68266688121156, -35.083578097172811 ], [ 150.682662776078729, -35.083584927623761 ], [ 150.682658760110513, -35.083591785020786 ], [ 150.682657974311411, -35.083593161881033 ], [ 150.682654825379359, -35.083598678227091 ], [ 150.682650961179377, -35.08360559802319 ], [ 150.682647179287102, -35.083612554550534 ], [ 150.682643476975159, -35.083619527924462 ], [ 150.682639855874839, -35.08362653800868 ], [ 150.682636315170527, -35.083633574871357 ], [ 150.682632846093554, -35.083640638344825 ], [ 150.682629466181339, -35.083647728764419 ], [ 150.682626167761271, -35.083654845983425 ], [ 150.682623594677864, -35.083660552733065 ], [ 150.68262294887063, -35.08366198185103 ], [ 150.682619812338828, -35.083669152647964 ], [ 150.682616755336511, -35.083676342093504 ], [ 150.682613787779474, -35.083683548574292 ], [ 150.682610892920451, -35.083690782587865 ], [ 150.682608087226328, -35.083698043547614 ], [ 150.682605362183324, -35.083705322275947 ], [ 150.682602726560219, -35.083712618940545 ], [ 150.682600171588263, -35.083719933373757 ], [ 150.682597698083185, -35.083727275507464 ], [ 150.682595304158696, -35.083734634487826 ], [ 150.682593000724779, -35.083742012326425 ], [ 150.682590778222561, -35.083749398022753 ], [ 150.682588644859862, -35.083756811566282 ], [ 150.68258659130737, -35.083764233847575 ], [ 150.682584619502251, -35.083771673918491 ], [ 150.682582737117201, -35.083779131925695 ], [ 150.682580944152249, -35.083786607869229 ], [ 150.682579232348587, -35.083794083561585 ], [ 150.682577609684614, -35.083801587101171 ], [ 150.682576068207453, -35.083809089488611 ], [ 150.682574616124981, -35.08381661071337 ], [ 150.682573244719492, -35.08382414880581 ], [ 150.682571962122523, -35.08383168769479 ], [ 150.682570770296849, -35.083839235531165 ], [ 150.68256965912272, -35.083846801136211 ], [ 150.682568636782719, -35.083854366636828 ], [ 150.682567705214041, -35.083861941084834 ], [ 150.682566853455882, -35.083869524270661 ], [ 150.682566091347525, -35.083877117283912 ], [ 150.682565410400741, -35.08388471004605 ], [ 150.682564818058722, -35.083892310812665 ], [ 150.682564316717617, -35.08389991241777 ], [ 150.682563904210838, -35.08390751391844 ], [ 150.682563572610718, -35.083915124177913 ], [ 150.682563330660628, -35.083922744264832 ], [ 150.682563177825301, -35.08393035433641 ], [ 150.682563106126196, -35.083937965057856 ], [ 150.682563124128166, -35.083945583804777 ], [ 150.682563232290107, -35.083953194359303 ], [ 150.682563429031546, -35.083960813819338 ], [ 150.682563707189729, -35.08396842401833 ], [ 150.682564074156943, -35.08397603501389 ], [ 150.682564522566508, -35.083983635847432 ], [ 150.682565069649939, -35.083991237666169 ], [ 150.682565696799202, -35.083998839212832 ], [ 150.682566405365407, -35.084006431498452 ], [ 150.682567211789888, -35.084014014837386 ], [ 150.682568099350874, -35.08402159882619 ], [ 150.682569067487719, -35.084029164523088 ], [ 150.682570134349618, -35.084036729403174 ], [ 150.682571281481415, -35.084044286803255 ], [ 150.682572510055792, -35.084051834041304 ], [ 150.68257382769437, -35.08405937306599 ], [ 150.682575234448194, -35.08406690207535 ], [ 150.68257673161736, -35.084074413882384 ], [ 150.682578309082089, -35.084081917308403 ], [ 150.68257996796396, -35.084089411473357 ], [ 150.682581716216163, -35.084096886613047 ], [ 150.682583553507186, -35.084104354440377 ], [ 150.682585471399847, -35.084111803074748 ], [ 150.682587470939211, -35.084119234339141 ], [ 150.682589559568527, -35.084126656489175 ], [ 150.682591737542737, -35.084134060514913 ], [ 150.682593996322595, -35.084141438139746 ], [ 150.68259633542371, -35.084148806482574 ], [ 150.682598764965888, -35.084156156722038 ], [ 150.682601275058829, -35.084163489570528 ], [ 150.682603865982998, -35.084170795117124 ], [ 150.682606545997288, -35.084178091549333 ], [ 150.682609298048561, -35.08418536141297 ], [ 150.68261214846865, -35.08419260431004 ], [ 150.682615070670806, -35.084199829648426 ], [ 150.682618082473056, -35.084207027852564 ], [ 150.682621166082953, -35.084214207597057 ], [ 150.682624339267477, -35.08422136110827 ], [ 150.682627593028457, -35.084228496327469 ], [ 150.682630927875778, -35.084235595234816 ], [ 150.68263434327406, -35.084242676751117 ], [ 150.682637839478275, -35.084249731866471 ], [ 150.682641424441613, -35.084256750816664 ], [ 150.682645082308767, -35.084263751328109 ], [ 150.682648811372019, -35.084270716240042 ], [ 150.682652630010068, -35.084277654918644 ], [ 150.682656529505152, -35.084284565394285 ], [ 150.682660500170812, -35.084291441171381 ], [ 150.682664551668097, -35.08429828964649 ], [ 150.682665394177519, -35.084299676003667 ], [ 150.6826686842264, -35.084305102710658 ], [ 150.682672897641794, -35.084311887571843 ], [ 150.682677182227849, -35.084318637734441 ], [ 150.682681538876807, -35.084325360427371 ], [ 150.682685984514478, -35.084332038846121 ], [ 150.682690493420722, -35.084338690528519 ], [ 150.682695092182371, -35.084345306066602 ], [ 150.682699753397003, -35.084351884936424 ], [ 150.682704495902243, -35.084358420286335 ], [ 150.682708364033772, -35.084363648901636 ], [ 150.682709309374303, -35.084364928145575 ], [ 150.682714203933017, -35.084371399692799 ], [ 150.682719169943056, -35.08437782663048 ], [ 150.682724207149334, -35.084384217968534 ], [ 150.682729316903021, -35.084390564717971 ], [ 150.682734497853062, -35.084396875867753 ], [ 150.682739751121034, -35.08440315053786 ], [ 150.682745075840302, -35.084409380598366 ], [ 150.682750471781446, -35.084415574158179 ], [ 150.682755939403364, -35.084421714999479 ], [ 150.682758169597832, -35.084424173603189 ], [ 150.682758324937339, -35.084424342445331 ], [ 150.682761479343242, -35.084427819361032 ], [ 150.68276708171075, -35.084433887955228 ], [ 150.682772755784526, -35.08443990292988 ], [ 150.682778502176348, -35.084445881424777 ], [ 150.682784310384051, -35.084451807012471 ], [ 150.68279019090977, -35.084457696120388 ], [ 150.682796143141843, -35.084463531608705 ], [ 150.682802149287653, -35.084469322152046 ], [ 150.682808235653681, -35.084475068253347 ], [ 150.682814379145327, -35.084480772175482 ], [ 150.683043163116224, -35.084690956418299 ], [ 150.683251737034396, -35.084719022882709 ], [ 150.683370284939571, -35.084107894221425 ], [ 150.683468413870997, -35.084121403389339 ], [ 150.683350618388147, -35.084731778481029 ], [ 150.685236091823498, -35.084977014738648 ], [ 150.685015542480443, -35.085132226366504 ], [ 150.683275177774277, -35.084905607529592 ], [ 150.683196662807774, -35.085312528276297 ], [ 150.68267962129903, -35.085245190594755 ], [ 150.682471048054879, -35.085218030024627 ], [ 150.682262509815274, -35.085190877880315 ], [ 150.682053936021674, -35.085163708472642 ], [ 150.681845389304755, -35.085136556354051 ], [ 150.681636842975905, -35.085109395772776 ], [ 150.681428242229885, -35.085082225680374 ], [ 150.681219694841474, -35.085055074281371 ], [ 150.681011095483285, -35.085027904403127 ], [ 150.680802619709823, -35.085000751857834 ], [ 150.680594036829689, -35.084973591497416 ], [ 150.680385589591197, -35.084946448701217 ], [ 150.680176979855247, -35.084919278999848 ], [ 150.679968585572141, -35.084892135602637 ], [ 150.679760038120691, -35.084864984409528 ], [ 150.679551544587781, -35.084837832088937 ], [ 150.679336328094308, -35.084809802458459 ], [ 150.679006767547946, -35.084766855742849 ], [ 150.678665562582182, -35.084722403211465 ], [ 150.678338547169801, -35.084680344514958 ], [ 150.678120578679085, -35.084651973351939 ], [ 150.677902609239908, -35.084623602682456 ], [ 150.677684640814448, -35.084595240657421 ], [ 150.677466672792065, -35.084566870137024 ], [ 150.677248704942855, -35.084538499230163 ], [ 150.676990264140812, -35.084376851150203 ], [ 150.676952130933671, -35.084349331938022 ], [ 150.676919421046307, -35.084317438120152 ], [ 150.676892842832274, -35.08428186930302 ], [ 150.676872979042059, -35.084243422749346 ], [ 150.676860285858282, -35.084202950088219 ], [ 150.676855041354713, -35.084161357228368 ], [ 150.676857362986794, -35.084119567732543 ], [ 150.676867205707367, -35.084078511963597 ], [ 150.676884336223964, -35.084039106758595 ], [ 150.676908376795609, -35.084002219307941 ] ] ] ] } },
{ "type": "Feature", "properties": { "OBJECTID": 273, "Comments": "Downloaded from SEED Map Service 20250513", "FSource": "https://mapprod3.environment.nsw.gov.au/arcgis/rest/services/Planning/EPI_Primary_Planning_Layers/MapServer/2", "SourceDate": 20250513.0, "Supplier": "DOP", "EPI_NAME": "Shoalhaven Local Environmental Plan 2014", "LGA_NAME": "SHOALHAVEN", "PUBLISHED_DATE": "20140408000000", "COMMENCED_DATE": "20140422000000", "CURRENCY_DATE": "20240823000000", "AMENDMENT": null, "MAP_TYPE": "LZN", "MAP_NAME": "Land Zoning Map", "LAY_NAME": "Zone", "LAY_CLASS": "Private Recreation", "PCO_REF_KEY": "2014-179", "EPI_TYPE": "LEP", "SYM_CODE": "RE2", "PURPOSE": null, "arcgisonline_objectid": 585951.0, "arcgisonline_type": "arcgisonline_polygon", "multi_reader_type": "ARCGISFEATURES", "SHAPE_Length": 435.70038789312986, "SHAPE_Area": 11361.145463883837 }, "geometry": { "type": "MultiPolygon", "coordinates": [ [ [ [ 150.66479002051247, -35.035433900440466 ], [ 150.664350794273304, -35.035371636297725 ], [ 150.664230586819656, -35.035354596350651 ], [ 150.663879950957607, -35.035304891479541 ], [ 150.663703252225645, -35.035279845742579 ], [ 150.663953071601469, -35.03408756371747 ], [ 150.664151113343593, -35.034191815022716 ], [ 150.664960194165729, -35.034621780621173 ], [ 150.66479002051247, -35.035433900440466 ] ] ] ] } },
{ "type": "Feature", "properties": { "OBJECTID": 399, "Comments": "Downloaded from SEED Map Service 20250513", "FSource": "https://mapprod3.environment.nsw.gov.au/arcgis/rest/services/Planning/EPI_Primary_Planning_Layers/MapServer/2", "SourceDate": 20250513.0, "Supplier": "DOP", "EPI_NAME": "Shoalhaven Local Environmental Plan 2014", "LGA_NAME": "SHOALHAVEN", "PUBLISHED_DATE": "20140408000000", "COMMENCED_DATE": "20140422000000", "CURRENCY_DATE": "20240823000000", "AMENDMENT": null, "MAP_TYPE": "LZN", "MAP_NAME": "Land Zoning Map", "LAY_NAME": "Zone", "LAY_CLASS": "Private Recreation", "PCO_REF_KEY": "2014-179", "EPI_TYPE": "LEP", "SYM_CODE": "RE2", "PURPOSE": null, "arcgisonline_objectid": 586541.0, "arcgisonline_type": "arcgisonline_polygon", "multi_reader_type": "ARCGISFEATURES", "SHAPE_Length": 3945.8593003394899, "SHAPE_Area": 352605.27455532714 }, "geometry": { "type": "MultiPolygon", "coordinates": [ [ [ [ 150.625938172954733, -34.882986667970627 ], [ 150.625963064349691, -34.883281105519359 ], [ 150.626140570200363, -34.883378893042021 ], [ 150.626392565743203, -34.8835237861256 ], [ 150.626730034285828, -34.883690460486406 ], [ 150.627021481549633, -34.883947330908661 ], [ 150.627251561154367, -34.88415897793093 ], [ 150.627479471410282, -34.884352554140712 ], [ 150.627637246787856, -34.884589355585703 ], [ 150.627746787399616, -34.884829679295208 ], [ 150.627873878994421, -34.885118776412142 ], [ 150.628018495920827, -34.885391684876112 ], [ 150.628191599242058, -34.885633908050032 ], [ 150.628281417927553, -34.885838098557457 ], [ 150.628195965314234, -34.88586144058921 ], [ 150.627972420382719, -34.885826750460318 ], [ 150.627702871834998, -34.885745036898477 ], [ 150.627378535347674, -34.885654224213475 ], [ 150.627041041122624, -34.885628400065073 ], [ 150.626981850779146, -34.885655381415539 ], [ 150.627012526882822, -34.885743900309855 ], [ 150.627148402432368, -34.885856076153502 ], [ 150.627356593167065, -34.885970167946176 ], [ 150.627562567085874, -34.886102323469146 ], [ 150.627710616956222, -34.886247951882886 ], [ 150.627591010776229, -34.886230607610926 ], [ 150.627604500701466, -34.886274834958442 ], [ 150.627627602184134, -34.886305159659138 ], [ 150.627642122909776, -34.886336901636462 ], [ 150.627651570649363, -34.886372865410756 ], [ 150.627654995132076, -34.88640565462066 ], [ 150.627659065224719, -34.886447265812954 ], [ 150.62767163317389, -34.886483381558925 ], [ 150.627686916127573, -34.886513195699095 ], [ 150.627704073117911, -34.886540652967263 ], [ 150.62772885932884, -34.886580533902304 ], [ 150.627514932272305, -34.886763874335692 ], [ 150.627347583959789, -34.886816440381345 ], [ 150.627182349589219, -34.886863779158389 ], [ 150.627030194260783, -34.88691237380251 ], [ 150.626869164041807, -34.886975149357681 ], [ 150.626689248264483, -34.887085307796859 ], [ 150.626639596617991, -34.887133856845971 ], [ 150.626588331284182, -34.887186852058782 ], [ 150.626550162005856, -34.887222188637956 ], [ 150.626509007685115, -34.887265260284536 ], [ 150.626470149817408, -34.887303993726874 ], [ 150.626421169806946, -34.887352651358349 ], [ 150.62637152738921, -34.887399461492912 ], [ 150.626318541462723, -34.887453953701332 ], [ 150.626231867314544, -34.887537426042933 ], [ 150.626225171777321, -34.887593809716407 ], [ 150.626207162610001, -34.887696618210192 ], [ 150.626200493933368, -34.887725643048391 ], [ 150.626190678542315, -34.887758021255429 ], [ 150.6261423532317, -34.887801818993651 ], [ 150.626061891578757, -34.887868717863533 ], [ 150.626046885909915, -34.887914326798068 ], [ 150.626040906942762, -34.887965573335727 ], [ 150.626041714357825, -34.888000891505094 ], [ 150.626050418444436, -34.888035304714322 ], [ 150.626058764009201, -34.88806122878767 ], [ 150.626075795441693, -34.888092736025243 ], [ 150.626091142108208, -34.88812051513051 ], [ 150.626112207441565, -34.888152893590402 ], [ 150.626130000788407, -34.888177238936358 ], [ 150.626142380672434, -34.88819558005445 ], [ 150.62616513930152, -34.888216260485173 ], [ 150.626205253689619, -34.888239691492146 ], [ 150.626238187435206, -34.888250170203342 ], [ 150.626270090400254, -34.888264001245759 ], [ 150.62630617938143, -34.888272884642156 ], [ 150.626370908543265, -34.888282341075978 ], [ 150.626435906196292, -34.88828718167683 ], [ 150.62647821716422, -34.888287926209571 ], [ 150.626505153615312, -34.888283299496763 ], [ 150.626538536250905, -34.888272893034546 ], [ 150.626570321834436, -34.888261678279711 ], [ 150.62659820969867, -34.888245543664397 ], [ 150.626635105562372, -34.888226610986081 ], [ 150.626651446419856, -34.888210296773373 ], [ 150.626740709438707, -34.888254067922198 ], [ 150.626841107068742, -34.888301746297053 ], [ 150.626901363517419, -34.888334716128838 ], [ 150.626983034719018, -34.888372758589888 ], [ 150.627056404868057, -34.888410209762732 ], [ 150.627123321117807, -34.888441502968675 ], [ 150.627188202702769, -34.888469022425312 ], [ 150.627232672453459, -34.888496845484305 ], [ 150.627283364298592, -34.888567759623463 ], [ 150.627403168127472, -34.888722361085151 ], [ 150.627505492213317, -34.888857914260257 ], [ 150.627575976616725, -34.888953729928886 ], [ 150.627661045411458, -34.889067339097551 ], [ 150.627733644352304, -34.889135823984404 ], [ 150.627793497287513, -34.889180956545921 ], [ 150.627863220371466, -34.889234480850554 ], [ 150.627923252050579, -34.889288963503198 ], [ 150.628020000242429, -34.889374819966342 ], [ 150.628084827461066, -34.889428236847309 ], [ 150.628137868150901, -34.88947066249554 ], [ 150.628195425923082, -34.889508193758715 ], [ 150.628271682558591, -34.889562354724887 ], [ 150.628328479159819, -34.889603570789255 ], [ 150.628378990655648, -34.8896395247396 ], [ 150.628445495368481, -34.889686478032175 ], [ 150.628509524999856, -34.889728420267772 ], [ 150.628551502960562, -34.889752991225166 ], [ 150.628600814684205, -34.889779460514973 ], [ 150.62863310284456, -34.88979480756857 ], [ 150.628697338963207, -34.889803312910246 ], [ 150.628767760472186, -34.889803958934849 ], [ 150.628848534859969, -34.889803743208169 ], [ 150.628926369941411, -34.889797306567502 ], [ 150.628999740163209, -34.889787212838314 ], [ 150.629062801071029, -34.889784039667859 ], [ 150.629065894036415, -34.889768585354702 ], [ 150.629422922138161, -34.88981953580987 ], [ 150.629773575902192, -34.889834567137953 ], [ 150.630148380090191, -34.889800869606276 ], [ 150.63059985211936, -34.889709524615427 ], [ 150.630851893632183, -34.88959799388531 ], [ 150.630959291705011, -34.889444691565906 ], [ 150.631002390695386, -34.889311047343057 ], [ 150.631025052189358, -34.889240760835783 ], [ 150.631057940931953, -34.889000678456668 ], [ 150.631040434069234, -34.888764119116182 ], [ 150.630871668538589, -34.888650079210947 ], [ 150.630709509049467, -34.888570373216723 ], [ 150.630733623793304, -34.888388045198184 ], [ 150.630834450179066, -34.888182376016871 ], [ 150.630976906852425, -34.888048982456155 ], [ 150.63125304248473, -34.887984431235594 ], [ 150.631631925185872, -34.887957895971965 ], [ 150.631656306951186, -34.887956193233592 ], [ 150.631686249939946, -34.887953609053277 ], [ 150.632582450676182, -34.887980221383117 ], [ 150.63246015456852, -34.889305671957516 ], [ 150.632425436078336, -34.889681989624947 ], [ 150.632383413698761, -34.890137493544742 ], [ 150.632336425826765, -34.890646737763291 ], [ 150.631155928434282, -34.890879876773376 ], [ 150.630359332781666, -34.890933278722301 ], [ 150.630078893023267, -34.8908988311345 ], [ 150.630053874733846, -34.890894744361169 ], [ 150.628764266653008, -34.890684014180636 ], [ 150.628021337563894, -34.890562609612282 ], [ 150.627809777756255, -34.890528036638365 ], [ 150.626731809137681, -34.890351889330688 ], [ 150.626713191125447, -34.890349416159594 ], [ 150.626181714638818, -34.890278754965955 ], [ 150.626090954185997, -34.890266689303481 ], [ 150.626018255768884, -34.890257026491327 ], [ 150.625795535150615, -34.890227419135357 ], [ 150.624692145868067, -34.890101337035709 ], [ 150.624680438276499, -34.890100001114803 ], [ 150.624749291202278, -34.889744400202531 ], [ 150.62458305335349, -34.889723864057316 ], [ 150.624419110874413, -34.88970359703778 ], [ 150.624250273358058, -34.889682730147122 ], [ 150.624094245660103, -34.889663448632014 ], [ 150.623922253439503, -34.889642186946617 ], [ 150.623757808472362, -34.889621866842603 ], [ 150.623594762431452, -34.889601715413491 ], [ 150.623432782822078, -34.889581691002924 ], [ 150.623261059105033, -34.889560464289538 ], [ 150.623096515192998, -34.889540135049415 ], [ 150.622931119433275, -34.889519679841044 ], [ 150.622778363813751, -34.889500811343083 ], [ 150.623543012961761, -34.885645669117338 ], [ 150.623601942878679, -34.885348530990335 ], [ 150.623887966486109, -34.883906377922592 ], [ 150.624096872376441, -34.882853002048556 ], [ 150.624217304426878, -34.882742152096363 ], [ 150.625938172954733, -34.882986667970627 ] ] ] ] } }
]
}
