{
"type": "FeatureCollection",
"name": "RU4_Primary Production Small Lots",
"crs": { "type": "name", "properties": { "name": "urn:ogc:def:crs:OGC:1.3:CRS84" } },
"features": [
{ "type": "Feature", "properties": { "OBJECTID": 619, "Comments": "Downloaded from SEED Map Service 20250513", "FSource": "https://mapprod3.environment.nsw.gov.au/arcgis/rest/services/Planning/EPI_Primary_Planning_Layers/MapServer/2", "SourceDate": 20250513.0, "Supplier": "DOP", "EPI_NAME": "Shoalhaven Local Environmental Plan 2014", "LGA_NAME": "SHOALHAVEN", "PUBLISHED_DATE": "20140408000000", "COMMENCED_DATE": "20140422000000", "CURRENCY_DATE": "20240823000000", "AMENDMENT": null, "MAP_TYPE": "LZN", "MAP_NAME": "Land Zoning Map", "LAY_NAME": "Zone", "LAY_CLASS": "Primary Production Small Lots", "PCO_REF_KEY": "2014-179", "EPI_TYPE": "LEP", "SYM_CODE": "RU4", "PURPOSE": null, "arcgisonline_objectid": 587035.0, "arcgisonline_type": "arcgisonline_polygon", "multi_reader_type": "ARCGISFEATURES", "SHAPE_Length": 6416.416907527434, "SHAPE_Area": 2020498.6822256332 }, "geometry": { "type": "MultiPolygon", "coordinates": [ [ [ [ 150.602897513556485, -35.054741764302875 ], [ 150.602965954312708, -35.054390842777224 ], [ 150.604012841298044, -35.054528896732357 ], [ 150.604690769518726, -35.054618293713915 ], [ 150.604841919782672, -35.054638229164446 ], [ 150.605339797739333, -35.054703881665397 ], [ 150.605980559694871, -35.054788368119219 ], [ 150.606094384764276, -35.054803383095503 ], [ 150.606626567133645, -35.054873473098205 ], [ 150.607183014980706, -35.054946772026526 ], [ 150.607276275257931, -35.054959052447423 ], [ 150.607941824285547, -35.055046721268475 ], [ 150.608271644902345, -35.055090161150908 ], [ 150.608600246049718, -35.055133439966866 ], [ 150.609251685536577, -35.055219234955118 ], [ 150.609360283819626, -35.055233532622488 ], [ 150.610448923799652, -35.055376895299283 ], [ 150.610666641036232, -35.055405562670373 ], [ 150.611275707878775, -35.055485540201538 ], [ 150.611537581672508, -35.055519934900722 ], [ 150.611865922623082, -35.055563052852911 ], [ 150.612469736770777, -35.055642339510271 ], [ 150.612626310392642, -35.05566290307673 ], [ 150.613122009152249, -35.055727991401405 ], [ 150.613715039331169, -35.055805853424737 ], [ 150.613769665878579, -35.055813025207328 ], [ 150.614428795429149, -35.055899573120541 ], [ 150.614803776728309, -35.055948804136143 ], [ 150.615783665351529, -35.056077456464678 ], [ 150.616047753069296, -35.05471883797447 ], [ 150.616082470521548, -35.054540230264045 ], [ 150.616111056057917, -35.054393641122573 ], [ 150.616219611202155, -35.054408980198424 ], [ 150.616328478722437, -35.054423304856812 ], [ 150.617743773314032, -35.054609112143645 ], [ 150.618832493981444, -35.054752035142478 ], [ 150.61992122229799, -35.054894948572532 ], [ 150.621009939610872, -35.055037852969022 ], [ 150.622098674406715, -35.055180748890919 ], [ 150.623187409154582, -35.055323635994029 ], [ 150.624276152645393, -35.055466513549092 ], [ 150.626440481431302, -35.055750512505334 ], [ 150.626660447829977, -35.055779376465686 ], [ 150.627784043811033, -35.055926978691957 ], [ 150.62740151900843, -35.0578966639005 ], [ 150.627227646170866, -35.058791961342763 ], [ 150.627066707502081, -35.05961918547397 ], [ 150.627053477481581, -35.059687177735718 ], [ 150.627018643589935, -35.05986621573026 ], [ 150.626879317781032, -35.060582348793545 ], [ 150.626705139232655, -35.061477565019871 ], [ 150.626530970794732, -35.062372772893333 ], [ 150.62635678348181, -35.063267988974381 ], [ 150.626182606018233, -35.064163205712127 ], [ 150.626008418706022, -35.065058421819444 ], [ 150.625608824387598, -35.06711193935773 ], [ 150.624530664401618, -35.066913413300327 ], [ 150.623502695019027, -35.066724111024413 ], [ 150.623453052006965, -35.0667130945506 ], [ 150.623238830946008, -35.066665540355444 ], [ 150.622145513074429, -35.066422723361576 ], [ 150.621075376107001, -35.066185042756132 ], [ 150.620005249156122, -35.065947353002478 ], [ 150.618935130292357, -35.065709645048365 ], [ 150.618828235372774, -35.065685917413873 ], [ 150.618292638062343, -35.065566821277841 ], [ 150.61797189790704, -35.065495968867872 ], [ 150.617115570538829, -35.065306003718874 ], [ 150.616259259659898, -35.065116028403089 ], [ 150.615403586702428, -35.064924807514501 ], [ 150.614441555260697, -35.064706165536123 ], [ 150.614227845187344, -35.064657025373904 ], [ 150.613586553390547, -35.064511179742425 ], [ 150.612731462591711, -35.064316983130794 ], [ 150.611876380666445, -35.064122777123551 ], [ 150.611488500958444, -35.064034508369915 ], [ 150.61117945828525, -35.063974386059556 ], [ 150.611017192884134, -35.063942814846733 ], [ 150.61096429599931, -35.06393258738742 ], [ 150.610659117749151, -35.063873558575331 ], [ 150.610282084592654, -35.063705519016722 ], [ 150.609865761164997, -35.06344178021876 ], [ 150.609542412739529, -35.063176131406784 ], [ 150.609252400897986, -35.062742363151443 ], [ 150.60884914761516, -35.06213944440924 ], [ 150.60844597426987, -35.061536461967854 ], [ 150.608059286028521, -35.060958122352361 ], [ 150.607192916050991, -35.059901417578651 ], [ 150.606518160813124, -35.059078028391703 ], [ 150.606185076432382, -35.05851703444948 ], [ 150.606057312750437, -35.058301835202428 ], [ 150.606051351704451, -35.058289984919583 ], [ 150.605652929418227, -35.057497915809137 ], [ 150.605391314984189, -35.057071838322464 ], [ 150.605142089467989, -35.05674249159707 ], [ 150.604923349826777, -35.056485251791131 ], [ 150.604558855733416, -35.056089661450031 ], [ 150.603600657150622, -35.055049631288199 ], [ 150.60340147704261, -35.054932023939635 ], [ 150.60334155283698, -35.054909398941106 ], [ 150.603248775357116, -35.054874367549857 ], [ 150.602992495609271, -35.054777611197707 ], [ 150.602897513556485, -35.054741764302875 ] ] ] ] } },
{ "type": "Feature", "properties": { "OBJECTID": 755, "Comments": "Downloaded from SEED Map Service 20250513", "FSource": "https://mapprod3.environment.nsw.gov.au/arcgis/rest/services/Planning/EPI_Primary_Planning_Layers/MapServer/2", "SourceDate": 20250513.0, "Supplier": "DOP", "EPI_NAME": "Shoalhaven Local Environmental Plan 2014", "LGA_NAME": "SHOALHAVEN", "PUBLISHED_DATE": "20140408000000", "COMMENCED_DATE": "20140422000000", "CURRENCY_DATE": "20240823000000", "AMENDMENT": null, "MAP_TYPE": "LZN", "MAP_NAME": "Land Zoning Map", "LAY_NAME": "Zone", "LAY_CLASS": "Primary Production Small Lots", "PCO_REF_KEY": "2014-179", "EPI_TYPE": "LEP", "SYM_CODE": "RU4", "PURPOSE": null, "arcgisonline_objectid": 587479.0, "arcgisonline_type": "arcgisonline_polygon", "multi_reader_type": "ARCGISFEATURES", "SHAPE_Length": 22589.662563692713, "SHAPE_Area": 8288845.3285793299 }, "geometry": { "type": "MultiPolygon", "coordinates": [ [ [ [ 150.494618233196093, -35.092797690532919 ], [ 150.495047853843971, -35.092281867143853 ], [ 150.495072866070018, -35.09225183631991 ], [ 150.495116977631255, -35.092028017448982 ], [ 150.495138625763417, -35.09191817242889 ], [ 150.494962948743506, -35.091350305050696 ], [ 150.49471954900406, -35.091037891651446 ], [ 150.494367837513039, -35.090592355191895 ], [ 150.494158554671145, -35.090309030566061 ], [ 150.493766855733384, -35.090103083052135 ], [ 150.493248468565099, -35.089969599722366 ], [ 150.492783668510299, -35.089928402241739 ], [ 150.492302716277209, -35.089989902832428 ], [ 150.491952548096975, -35.090110531002239 ], [ 150.491906966295517, -35.090287129838309 ], [ 150.491951607793965, -35.09047079278259 ], [ 150.491795606766914, -35.090611446595418 ], [ 150.491515798126699, -35.090693081396864 ], [ 150.491070583558184, -35.090709358869169 ], [ 150.490622806169171, -35.090525435978421 ], [ 150.490213340146482, -35.090496491809617 ], [ 150.489822852280355, -35.090553600945611 ], [ 150.489363484228221, -35.090581102004727 ], [ 150.488985759245992, -35.090582711885652 ], [ 150.488936202347617, -35.091065679733553 ], [ 150.488517868865273, -35.091106112445793 ], [ 150.487948970239898, -35.091057634871447 ], [ 150.487620629103731, -35.091132816102451 ], [ 150.487420795846333, -35.091370038217129 ], [ 150.487123434863236, -35.09161724649379 ], [ 150.486860934917189, -35.091859246449999 ], [ 150.486358378295961, -35.091954712473878 ], [ 150.485537843439062, -35.09201763004603 ], [ 150.48461431125358, -35.091901842081406 ], [ 150.484577245749307, -35.092079561036982 ], [ 150.484248863867549, -35.093654450443339 ], [ 150.478231520687388, -35.092806686850636 ], [ 150.477991726028847, -35.09277374382215 ], [ 150.473606752282791, -35.092171324437039 ], [ 150.474539287277139, -35.087096994517466 ], [ 150.477301069845936, -35.087439860771163 ], [ 150.477510700443645, -35.086343154384387 ], [ 150.477553287868261, -35.086120390893882 ], [ 150.477989753382985, -35.08383669126151 ], [ 150.47863813594978, -35.083921509389093 ], [ 150.479092124453274, -35.081818737613943 ], [ 150.479732851540149, -35.078220298314307 ], [ 150.48021345412468, -35.075971377018924 ], [ 150.480281767472576, -35.075651667495379 ], [ 150.480682035840289, -35.073778589266595 ], [ 150.482736203541521, -35.074016225749283 ], [ 150.482561845850284, -35.074318840945445 ], [ 150.482522990748521, -35.074821505299354 ], [ 150.482596425033591, -35.075274383633648 ], [ 150.482871826761055, -35.075707390007253 ], [ 150.483262047694723, -35.075976256117784 ], [ 150.483633598559408, -35.076462167685108 ], [ 150.483672431907365, -35.076908807556123 ], [ 150.483563341235708, -35.077125942007946 ], [ 150.484017447469256, -35.077337134201485 ], [ 150.484647698063327, -35.077752543559512 ], [ 150.485075845578763, -35.078193536931487 ], [ 150.485385769127362, -35.078638482522287 ], [ 150.486319100151945, -35.078977169915888 ], [ 150.48648914624701, -35.079001121325497 ], [ 150.49008581130758, -35.079508055192363 ], [ 150.490981384211324, -35.079637605963171 ], [ 150.490982158503158, -35.079632591074969 ], [ 150.49164291144524, -35.075357323782875 ], [ 150.487593108527534, -35.072912031179541 ], [ 150.488017750757962, -35.070890314534367 ], [ 150.488017667811647, -35.070890301998134 ], [ 150.488073278539929, -35.070625539581684 ], [ 150.492562330322471, -35.067380258110873 ], [ 150.492991467195623, -35.067258221129521 ], [ 150.493135594750925, -35.067278678095811 ], [ 150.497307695632401, -35.067870733754425 ], [ 150.497522428429136, -35.067901202446649 ], [ 150.497184245926263, -35.069852434032754 ], [ 150.500966249393088, -35.070495939713972 ], [ 150.501921536328496, -35.071168553324235 ], [ 150.502966472275233, -35.07195592456911 ], [ 150.504497008355571, -35.072998168519092 ], [ 150.504465590364475, -35.07317725087735 ], [ 150.504462243962138, -35.07319632496958 ], [ 150.505620458913427, -35.073359417659148 ], [ 150.504817817615191, -35.07735662247218 ], [ 150.508473665795691, -35.077854403295312 ], [ 150.508707250881685, -35.077886198515714 ], [ 150.510748577300404, -35.078164063372725 ], [ 150.511149512821788, -35.077704383267715 ], [ 150.511773664354052, -35.076915874482225 ], [ 150.512168490168733, -35.076373903317986 ], [ 150.512510537764655, -35.075904370072095 ], [ 150.51290604378741, -35.074977825166513 ], [ 150.513609417340462, -35.073765804760548 ], [ 150.513592392766014, -35.073175974251789 ], [ 150.512880808760457, -35.072441132440019 ], [ 150.512169887534213, -35.071608942651061 ], [ 150.511638668870489, -35.07094901329549 ], [ 150.510857337036811, -35.070254053106147 ], [ 150.509493656596504, -35.069276923351019 ], [ 150.508677284456724, -35.068627661181971 ], [ 150.50817976175972, -35.068139589253605 ], [ 150.507488760190682, -35.067462027592846 ], [ 150.507177582263097, -35.067192049727161 ], [ 150.507157687737504, -35.066227353737737 ], [ 150.507343409682989, -35.06525485976703 ], [ 150.507768257499976, -35.065000954575027 ], [ 150.508302151887875, -35.064965270425361 ], [ 150.509019137935041, -35.065101827840955 ], [ 150.509945354257866, -35.065372863711119 ], [ 150.510385828302162, -35.065565069707382 ], [ 150.511055762962457, -35.065874095515369 ], [ 150.511772499619127, -35.066296846231765 ], [ 150.512199616590266, -35.06655019595437 ], [ 150.512265053855145, -35.066589001097434 ], [ 150.512421969280808, -35.066685104231595 ], [ 150.513136267407617, -35.067072994158643 ], [ 150.513921148734653, -35.067444803563106 ], [ 150.514651967279036, -35.067716914981318 ], [ 150.515957142869922, -35.0680728035478 ], [ 150.517283653731766, -35.068480286618573 ], [ 150.518574172375708, -35.068727020345023 ], [ 150.520101503150244, -35.069137301103787 ], [ 150.520614933787954, -35.069252460955681 ], [ 150.521745426686977, -35.069354721655586 ], [ 150.522618644851832, -35.069464665019161 ], [ 150.52344261497143, -35.069602476450122 ], [ 150.524230874062312, -35.069785511341955 ], [ 150.524365766038329, -35.070217225572797 ], [ 150.523703349615289, -35.073547287407614 ], [ 150.524081532206026, -35.074037025671494 ], [ 150.524400410308857, -35.0743718137225 ], [ 150.524942337406742, -35.074695628468191 ], [ 150.525611078263267, -35.074985649260952 ], [ 150.526127287527885, -35.075032611992185 ], [ 150.526671419140541, -35.074977967077885 ], [ 150.527427314889025, -35.074624919910455 ], [ 150.527847669874603, -35.074327324470453 ], [ 150.528366055881008, -35.073997000142555 ], [ 150.528955258044562, -35.073607810468438 ], [ 150.529541895310501, -35.073414932075373 ], [ 150.53026872188849, -35.073360986976333 ], [ 150.531216626406518, -35.073387125093426 ], [ 150.531984847448399, -35.073390091780134 ], [ 150.532569826941284, -35.073484607379207 ], [ 150.533211254895775, -35.073774484890002 ], [ 150.533669458166599, -35.07415471954927 ], [ 150.533973526059043, -35.074569842436532 ], [ 150.534279118437667, -35.07497314158261 ], [ 150.534696068334398, -35.075272790377809 ], [ 150.535169322759629, -35.075539531527205 ], [ 150.535628645751387, -35.075724620273533 ], [ 150.535893119613434, -35.075823931725814 ], [ 150.535762507141783, -35.076424869302663 ], [ 150.535775900354167, -35.076904362752586 ], [ 150.535948960322372, -35.077339081278865 ], [ 150.536090817094703, -35.077694441856273 ], [ 150.536471275151769, -35.078089744696435 ], [ 150.537011364649516, -35.078498655271709 ], [ 150.537535784659923, -35.078881498925675 ], [ 150.538125605647309, -35.079146313583429 ], [ 150.538459764698899, -35.079338017338209 ], [ 150.538616688371604, -35.079575150708067 ], [ 150.538613731654522, -35.080100271364621 ], [ 150.538532304150834, -35.080506807554222 ], [ 150.538384427562789, -35.081215886406753 ], [ 150.538273248804416, -35.081438579026944 ], [ 150.538245711898526, -35.081493735461059 ], [ 150.537182674458592, -35.081470859308908 ], [ 150.534290459959664, -35.081300372755578 ], [ 150.532937026503674, -35.081215214268887 ], [ 150.53247277349314, -35.081357517118256 ], [ 150.532353490868786, -35.081269078845033 ], [ 150.53158483655298, -35.080461359019026 ], [ 150.530707225167419, -35.079378222541756 ], [ 150.529033393260221, -35.077527586906065 ], [ 150.52618824989392, -35.07680345818757 ], [ 150.522380313319587, -35.076642187094876 ], [ 150.521063469313816, -35.076660115385764 ], [ 150.519181545887164, -35.077031331874146 ], [ 150.518435214282704, -35.077234142336039 ], [ 150.517546445594036, -35.077475668467997 ], [ 150.51559622083235, -35.078691409796264 ], [ 150.515476309392028, -35.078806237525768 ], [ 150.514461113517825, -35.079778346497477 ], [ 150.513690330432979, -35.080947223390069 ], [ 150.513150020885661, -35.082219446325119 ], [ 150.51284788302803, -35.082930855761731 ], [ 150.512745102736488, -35.083105975211517 ], [ 150.512486958263935, -35.083545821306444 ], [ 150.510942182447053, -35.084091672957612 ], [ 150.50941339864454, -35.084858650768275 ], [ 150.509353833624374, -35.084886753189743 ], [ 150.509326493365705, -35.085027101737225 ], [ 150.509576608389608, -35.085627553820636 ], [ 150.509484118135362, -35.086102267978006 ], [ 150.50939772246042, -35.086545742559515 ], [ 150.509359572391787, -35.086741551766139 ], [ 150.509230375172024, -35.087405001983051 ], [ 150.508908010651851, -35.087483321329103 ], [ 150.508292730310473, -35.087577398119521 ], [ 150.507554220481381, -35.08769028072583 ], [ 150.50738859374141, -35.08791123431967 ], [ 150.50727820106232, -35.088058486311574 ], [ 150.507082642948916, -35.088319346168078 ], [ 150.506604924274683, -35.088945703290776 ], [ 150.506370121442899, -35.089231448112173 ], [ 150.505950641989216, -35.089741902032401 ], [ 150.503165873906113, -35.093130617654438 ], [ 150.502558522666874, -35.092622188497614 ], [ 150.501582925754462, -35.093218992848669 ], [ 150.499511796315801, -35.095032332295055 ], [ 150.498526848088233, -35.097333789832078 ], [ 150.498357035924244, -35.097316424506168 ], [ 150.498117876619119, -35.097286646724122 ], [ 150.497934430014197, -35.097263797103118 ], [ 150.497457143291655, -35.097222140705057 ], [ 150.497021045704656, -35.097152580165208 ], [ 150.496639744891098, -35.097049547648659 ], [ 150.496326086321659, -35.09702554235151 ], [ 150.496080777867263, -35.096985007394537 ], [ 150.49572586716323, -35.09700016462687 ], [ 150.495412558711934, -35.096931186178779 ], [ 150.494962755823479, -35.096867174496943 ], [ 150.494608588676414, -35.096786749313878 ], [ 150.494343873594545, -35.096611190157702 ], [ 150.494126613095176, -35.096475205875358 ], [ 150.493937177483815, -35.096271893372389 ], [ 150.493781624663768, -35.096096854492039 ], [ 150.493694834825675, -35.095854692577511 ], [ 150.493608134391138, -35.09560128073803 ], [ 150.493623678398109, -35.095359602937187 ], [ 150.493673337953965, -35.095118096213078 ], [ 150.493743201629059, -35.09491041813984 ], [ 150.493854229383402, -35.094674827474975 ], [ 150.493910665910903, -35.09443897665281 ], [ 150.493988060013947, -35.094141371878948 ], [ 150.494071559328916, -35.093933758302867 ], [ 150.494148201123039, -35.093731736877189 ], [ 150.494259129430247, -35.093507395408132 ], [ 150.49435119751675, -35.093423107519428 ], [ 150.494484824131803, -35.093325372161281 ], [ 150.494554608587265, -35.093258725990388 ], [ 150.49469008966156, -35.093201760112294 ], [ 150.494763566622936, -35.093068779574189 ], [ 150.494751356593611, -35.092952806215955 ], [ 150.49475088240095, -35.09294830365608 ], [ 150.494734559095235, -35.092883700116943 ], [ 150.494618233196093, -35.092797690532919 ] ] ] ] } }
]
}
