{
"type": "FeatureCollection",
"name": "SP1_Special Activities",
"crs": { "type": "name", "properties": { "name": "urn:ogc:def:crs:OGC:1.3:CRS84" } },
"features": [
{ "type": "Feature", "properties": { "OBJECTID": 315, "Comments": "Downloaded from SEED Map Service 20250513", "FSource": "https://mapprod3.environment.nsw.gov.au/arcgis/rest/services/Planning/EPI_Primary_Planning_Layers/MapServer/2", "SourceDate": 20250513.0, "Supplier": "DOP", "EPI_NAME": "Shoalhaven Local Environmental Plan 2014", "LGA_NAME": "SHOALHAVEN", "PUBLISHED_DATE": "20230915000000", "COMMENCED_DATE": "20230915000000", "CURRENCY_DATE": "20240823000000", "AMENDMENT": "Amendment No 50", "MAP_TYPE": "LZN", "MAP_NAME": "Land Zoning Map", "LAY_NAME": "Zone", "LAY_CLASS": "Special Activities", "PCO_REF_KEY": "2014-179", "EPI_TYPE": "LEP", "SYM_CODE": "SP1", "PURPOSE": "Correctional Centre", "arcgisonline_objectid": 586168.0, "arcgisonline_type": "arcgisonline_polygon", "multi_reader_type": "ARCGISFEATURES", "SHAPE_Length": 1422.8976312506002, "SHAPE_Area": 82278.661864740119 }, "geometry": { "type": "MultiPolygon", "coordinates": [ [ [ [ 150.596411930203942, -34.918599618758719 ], [ 150.596399515603309, -34.918637070278862 ], [ 150.596395687024824, -34.918646231078299 ], [ 150.596371727193031, -34.918677936140838 ], [ 150.596188251144895, -34.91868775219055 ], [ 150.596165357071186, -34.918689375163986 ], [ 150.596154860191575, -34.918690387103794 ], [ 150.596131687810328, -34.91869280868297 ], [ 150.596116055575834, -34.918685798566528 ], [ 150.596083812387519, -34.918672988574954 ], [ 150.596050626767067, -34.918661945753662 ], [ 150.596016626890105, -34.918652703289297 ], [ 150.595981962982137, -34.918645326356916 ], [ 150.595946796795289, -34.918639822665142 ], [ 150.595917073275842, -34.918636684007424 ], [ 150.595827046384613, -34.918629235197784 ], [ 150.595821238312396, -34.918628778562251 ], [ 150.595785498617772, -34.918627101974977 ], [ 150.595749705685847, -34.918627362506335 ], [ 150.595714002105268, -34.918629549456753 ], [ 150.595678549269877, -34.918633645287315 ], [ 150.595643500364758, -34.918639651227821 ], [ 150.595609005277709, -34.918647531482343 ], [ 150.595575203011066, -34.918657248236556 ], [ 150.595542251940628, -34.918668774877673 ], [ 150.595510276675867, -34.918682041754977 ], [ 150.595479431507016, -34.918697012258747 ], [ 150.595449841412204, -34.91871360412506 ], [ 150.595421630765173, -34.918731755812182 ], [ 150.595394919023079, -34.918751386749996 ], [ 150.595390141063376, -34.918755197363147 ], [ 150.595306479704675, -34.918822480711974 ], [ 150.594953450192946, -34.91891546349445 ], [ 150.594937394926717, -34.918927260546084 ], [ 150.594912305518221, -34.918948298257746 ], [ 150.594898231844581, -34.918961385800344 ], [ 150.594395456733167, -34.919447896658056 ], [ 150.594386151882389, -34.919457146339695 ], [ 150.594364611518984, -34.919480695436512 ], [ 150.59434498139143, -34.91950535512845 ], [ 150.594339870580967, -34.919512390910718 ], [ 150.593949039709173, -34.920062510588757 ], [ 150.593936517028851, -34.920081128666709 ], [ 150.593920955089658, -34.920107688967263 ], [ 150.593909301486207, -34.920131139063884 ], [ 150.593822306347533, -34.920321219762528 ], [ 150.593305962228186, -34.920380284411678 ], [ 150.59330225122747, -34.920380758971021 ], [ 150.593295241035548, -34.920381960551168 ], [ 150.593288347927654, -34.920383537663739 ], [ 150.593285981686904, -34.920384174093613 ], [ 150.591912150200557, -34.920766578740789 ], [ 150.591785326735533, -34.9207741614361 ], [ 150.591765284166939, -34.920688690497713 ], [ 150.591756758985952, -34.920652341475844 ], [ 150.59174035495198, -34.920582394940936 ], [ 150.591718309261438, -34.920564184211536 ], [ 150.591749264000981, -34.920407453836539 ], [ 150.592100486008292, -34.918682149310442 ], [ 150.592127637995333, -34.918548791761452 ], [ 150.592156717151624, -34.918404687106964 ], [ 150.592163727255212, -34.918369925301789 ], [ 150.596701883308157, -34.91746170675637 ], [ 150.596937287253326, -34.91741460078979 ], [ 150.597022516698331, -34.917426380102299 ], [ 150.597167230813398, -34.917446386712314 ], [ 150.5971594843285, -34.917510830873283 ], [ 150.597148900220077, -34.917519568671523 ], [ 150.597125530474415, -34.917541906567813 ], [ 150.597103980460957, -34.917565455993447 ], [ 150.59708435820724, -34.917590115416417 ], [ 150.597066726973821, -34.917615779714538 ], [ 150.597062226418899, -34.917623030527885 ], [ 150.597057878894049, -34.917630175289574 ], [ 150.597038794714109, -34.917642724939682 ], [ 150.597012090294129, -34.91766235549558 ], [ 150.596986999843551, -34.91768338552545 ], [ 150.596963631100522, -34.917705723407991 ], [ 150.596942082090607, -34.917729272822328 ], [ 150.596922451023801, -34.917753931140851 ], [ 150.596904826266041, -34.917779595541191 ], [ 150.596889274491389, -34.917806156461353 ], [ 150.596875864798363, -34.917833496273907 ], [ 150.596870790476004, -34.917845409002943 ], [ 150.596855264850291, -34.91788356888766 ], [ 150.596849132944499, -34.917899658885418 ], [ 150.59684016967077, -34.917928209017894 ], [ 150.596833491320695, -34.917957181180583 ], [ 150.596829125691528, -34.917986447913641 ], [ 150.596826974062537, -34.918021720849239 ], [ 150.596821891646357, -34.918044605338117 ], [ 150.596817525954094, -34.918073873871933 ], [ 150.596815499636392, -34.918103311296782 ], [ 150.59681575103653, -34.918127038738113 ], [ 150.596796523988814, -34.918138064720999 ], [ 150.59676831382464, -34.918156216742808 ], [ 150.596741608907109, -34.91817585623788 ], [ 150.596716519320296, -34.918196886222688 ], [ 150.596693150352934, -34.918219224042495 ], [ 150.596671601151655, -34.918242772497415 ], [ 150.59665196982229, -34.918267432563923 ], [ 150.596634345983176, -34.918293096035789 ], [ 150.596627829500449, -34.918303682081628 ], [ 150.596586675336312, -34.918372821679291 ], [ 150.596561360678919, -34.918392784329619 ], [ 150.596537167189439, -34.918413106315697 ], [ 150.596513798110635, -34.91843544409577 ], [ 150.596492256482719, -34.918458991764254 ], [ 150.596472626139757, -34.91848365181832 ], [ 150.596454993419144, -34.918509315986931 ], [ 150.596439441377242, -34.918535875934055 ], [ 150.596426030310653, -34.918563215661358 ], [ 150.596414816114788, -34.918591219984776 ], [ 150.596411930203942, -34.918599618758719 ] ] ] ] } },
{ "type": "Feature", "properties": { "OBJECTID": 316, "Comments": "Downloaded from SEED Map Service 20250513", "FSource": "https://mapprod3.environment.nsw.gov.au/arcgis/rest/services/Planning/EPI_Primary_Planning_Layers/MapServer/2", "SourceDate": 20250513.0, "Supplier": "DOP", "EPI_NAME": "Shoalhaven Local Environmental Plan 2014", "LGA_NAME": "SHOALHAVEN", "PUBLISHED_DATE": "20140408000000", "COMMENCED_DATE": "20140422000000", "CURRENCY_DATE": "20240823000000", "AMENDMENT": null, "MAP_TYPE": "LZN", "MAP_NAME": "Land Zoning Map", "LAY_NAME": "Zone", "LAY_CLASS": "Special Activities", "PCO_REF_KEY": "2014-179", "EPI_TYPE": "LEP", "SYM_CODE": "SP1", "PURPOSE": "Defence", "arcgisonline_objectid": 586195.0, "arcgisonline_type": "arcgisonline_polygon", "multi_reader_type": "ARCGISFEATURES", "SHAPE_Length": 2354.0350864964184, "SHAPE_Area": 354755.63113381871 }, "geometry": { "type": "MultiPolygon", "coordinates": [ [ [ [ 150.563729245069624, -34.937356688388626 ], [ 150.562141564946842, -34.937491108271331 ], [ 150.561211982067022, -34.937213174004732 ], [ 150.561012973920299, -34.937153672201944 ], [ 150.561006825212615, -34.937152077491334 ], [ 150.56080069785267, -34.937098624537867 ], [ 150.560661674741823, -34.937062589903221 ], [ 150.560402616152942, -34.937049565736416 ], [ 150.55924346208073, -34.936754966437192 ], [ 150.557464614693941, -34.936504147997205 ], [ 150.55680403798786, -34.936117935224893 ], [ 150.557125080326244, -34.934617307187096 ], [ 150.557151110368522, -34.934278000262346 ], [ 150.557094465482265, -34.933989923751682 ], [ 150.556971001860319, -34.933716897881311 ], [ 150.556777081771429, -34.93346588794067 ], [ 150.556532855598761, -34.933249074995288 ], [ 150.558050325275019, -34.932351999207825 ], [ 150.560146705237116, -34.932648822076452 ], [ 150.560201421546338, -34.932656576152176 ], [ 150.561843542265706, -34.93288908162215 ], [ 150.564657928543426, -34.933287490108036 ], [ 150.564947727608825, -34.933729324916577 ], [ 150.565207809499952, -34.934125856509105 ], [ 150.565675981818629, -34.934839605517332 ], [ 150.565477683736646, -34.935834912732567 ], [ 150.565426696589128, -34.936090807958045 ], [ 150.565353103342773, -34.93646012462218 ], [ 150.56534409494148, -34.936505338479279 ], [ 150.565287774005157, -34.936787947227195 ], [ 150.563729245069624, -34.937356688388626 ] ] ] ] } },
{ "type": "Feature", "properties": { "OBJECTID": 326, "Comments": "Downloaded from SEED Map Service 20250513", "FSource": "https://mapprod3.environment.nsw.gov.au/arcgis/rest/services/Planning/EPI_Primary_Planning_Layers/MapServer/2", "SourceDate": 20250513.0, "Supplier": "DOP", "EPI_NAME": "Shoalhaven Local Environmental Plan 2014", "LGA_NAME": "SHOALHAVEN", "PUBLISHED_DATE": "20140408000000", "COMMENCED_DATE": "20140422000000", "CURRENCY_DATE": "20240823000000", "AMENDMENT": null, "MAP_TYPE": "LZN", "MAP_NAME": "Land Zoning Map", "LAY_NAME": "Zone", "LAY_CLASS": "Special Activities", "PCO_REF_KEY": "2014-179", "EPI_TYPE": "LEP", "SYM_CODE": "SP1", "PURPOSE": "Defence", "arcgisonline_objectid": 586385.0, "arcgisonline_type": "arcgisonline_polygon", "multi_reader_type": "ARCGISFEATURES", "SHAPE_Length": 761.99160415059316, "SHAPE_Area": 22980.097657988081 }, "geometry": { "type": "MultiPolygon", "coordinates": [ [ [ [ 150.533170470636577, -34.940219813608813 ], [ 150.532522745487881, -34.940671843535071 ], [ 150.532872208984003, -34.938901051345383 ], [ 150.532904576421828, -34.938732259156396 ], [ 150.533003296195204, -34.93823679242098 ], [ 150.533037707360336, -34.938058336538823 ], [ 150.534535801400665, -34.938258178949155 ], [ 150.534409194368976, -34.938424721724338 ], [ 150.534279127216507, -34.93859536966422 ], [ 150.53372599144987, -34.939271877159044 ], [ 150.533364557303798, -34.939986003994065 ], [ 150.533170470636577, -34.940219813608813 ] ] ] ] } },
{ "type": "Feature", "properties": { "OBJECTID": 328, "Comments": "Downloaded from SEED Map Service 20250513", "FSource": "https://mapprod3.environment.nsw.gov.au/arcgis/rest/services/Planning/EPI_Primary_Planning_Layers/MapServer/2", "SourceDate": 20250513.0, "Supplier": "DOP", "EPI_NAME": "Shoalhaven Local Environmental Plan 2014", "LGA_NAME": "SHOALHAVEN", "PUBLISHED_DATE": "20140408000000", "COMMENCED_DATE": "20140422000000", "CURRENCY_DATE": "20240823000000", "AMENDMENT": null, "MAP_TYPE": "LZN", "MAP_NAME": "Land Zoning Map", "LAY_NAME": "Zone", "LAY_CLASS": "Special Activities", "PCO_REF_KEY": "2014-179", "EPI_TYPE": "LEP", "SYM_CODE": "SP1", "PURPOSE": "Defence", "arcgisonline_objectid": 586389.0, "arcgisonline_type": "arcgisonline_polygon", "multi_reader_type": "ARCGISFEATURES", "SHAPE_Length": 2637.7583581958143, "SHAPE_Area": 325296.26448125293 }, "geometry": { "type": "MultiPolygon", "coordinates": [ [ [ [ 150.546599922981386, -34.9320850941738 ], [ 150.54622113339758, -34.934015409084545 ], [ 150.549371029644874, -34.934478505640769 ], [ 150.547953254874358, -34.935607202117403 ], [ 150.547330623977359, -34.935958117224153 ], [ 150.547058099194942, -34.936066744003718 ], [ 150.546780161679379, -34.936150494789281 ], [ 150.546486821486923, -34.936216282962917 ], [ 150.546188374813966, -34.936256189772635 ], [ 150.545884198451972, -34.936272953867416 ], [ 150.54558191320055, -34.936267512633933 ], [ 150.545276634283596, -34.936239114674954 ], [ 150.543602684417664, -34.936013475079164 ], [ 150.540535979422486, -34.935600023586481 ], [ 150.540173342342996, -34.935555950037845 ], [ 150.539721585192581, -34.93557803293362 ], [ 150.539092101856113, -34.93566211991272 ], [ 150.539712052733591, -34.932531091547673 ], [ 150.540702139102336, -34.932666665890451 ], [ 150.540968205798123, -34.931345623601629 ], [ 150.544431718020775, -34.931800428766699 ], [ 150.546599922981386, -34.9320850941738 ] ] ] ] } },
{ "type": "Feature", "properties": { "OBJECTID": 329, "Comments": "Downloaded from SEED Map Service 20250513", "FSource": "https://mapprod3.environment.nsw.gov.au/arcgis/rest/services/Planning/EPI_Primary_Planning_Layers/MapServer/2", "SourceDate": 20250513.0, "Supplier": "DOP", "EPI_NAME": "Shoalhaven Local Environmental Plan 2014", "LGA_NAME": "SHOALHAVEN", "PUBLISHED_DATE": "20140408000000", "COMMENCED_DATE": "20140422000000", "CURRENCY_DATE": "20240823000000", "AMENDMENT": null, "MAP_TYPE": "LZN", "MAP_NAME": "Land Zoning Map", "LAY_NAME": "Zone", "LAY_CLASS": "Special Activities", "PCO_REF_KEY": "2014-179", "EPI_TYPE": "LEP", "SYM_CODE": "SP1", "PURPOSE": "Correctional Centre", "arcgisonline_objectid": 586391.0, "arcgisonline_type": "arcgisonline_polygon", "multi_reader_type": "ARCGISFEATURES", "SHAPE_Length": 3304.4593613468992, "SHAPE_Area": 528156.86782565829 }, "geometry": { "type": "MultiPolygon", "coordinates": [ [ [ [ 150.599507010829001, -34.91959944211704 ], [ 150.599524758680246, -34.920183830117551 ], [ 150.59967903764462, -34.920788621693696 ], [ 150.600031152255752, -34.92153818191678 ], [ 150.600195757243796, -34.921790545461143 ], [ 150.600246215900114, -34.921832211050507 ], [ 150.600432738408614, -34.922223013319169 ], [ 150.600592252011893, -34.922641937076001 ], [ 150.600798575983191, -34.923183765721511 ], [ 150.600841638112655, -34.923444277242524 ], [ 150.600841638635472, -34.92344719083961 ], [ 150.600841655598856, -34.923667112882576 ], [ 150.600811958140298, -34.923844950015059 ], [ 150.600781381665911, -34.924028084899128 ], [ 150.600736597223488, -34.92414638221593 ], [ 150.600717844652877, -34.92419595287128 ], [ 150.600502574856534, -34.924527656338974 ], [ 150.600260752625246, -34.92474826987246 ], [ 150.600059492567908, -34.924836188730211 ], [ 150.599828607155473, -34.924907057985195 ], [ 150.599309772047064, -34.925066312408099 ], [ 150.598765755982782, -34.925315691582064 ], [ 150.598436195306022, -34.925569542944899 ], [ 150.598094694432746, -34.925955263702484 ], [ 150.597850901041937, -34.92618162248101 ], [ 150.59732838941116, -34.926551217053806 ], [ 150.597252097922194, -34.926664566935827 ], [ 150.597177364743658, -34.926775594734956 ], [ 150.597102632982427, -34.927006937605668 ], [ 150.597085834309667, -34.927058955938094 ], [ 150.597016506697003, -34.927559891303403 ], [ 150.596965394685583, -34.927718105532186 ], [ 150.59694069806477, -34.927794559909906 ], [ 150.596940707325302, -34.927933061618504 ], [ 150.596894830869331, -34.92811297795604 ], [ 150.596745947689271, -34.928324924475305 ], [ 150.594713652814335, -34.928044610903981 ], [ 150.59489566519261, -34.927115142589898 ], [ 150.592458196130593, -34.926778545630448 ], [ 150.592209401921139, -34.926744303148382 ], [ 150.591992805677791, -34.926714435254397 ], [ 150.591037720742094, -34.92401145762814 ], [ 150.591041960783116, -34.923943563927992 ], [ 150.591050198017058, -34.923940686636861 ], [ 150.591082164016512, -34.923927419918023 ], [ 150.591113009509399, -34.923912458721269 ], [ 150.59111710488375, -34.923910298879974 ], [ 150.591144159692789, -34.923906990722706 ], [ 150.591179217702944, -34.923900985420289 ], [ 150.591213710756762, -34.923893114559867 ], [ 150.591235340675325, -34.923887125958942 ], [ 150.591356220517127, -34.923868266653038 ], [ 150.591383192946068, -34.923863470269403 ], [ 150.591417694956107, -34.923855591414487 ], [ 150.591442472020304, -34.923848465325854 ], [ 150.591472446557589, -34.923843337221228 ], [ 150.591506949645975, -34.923835458361907 ], [ 150.591540752615458, -34.923825731999671 ], [ 150.59154691056051, -34.923823741960391 ], [ 150.591550048515501, -34.923823293955842 ], [ 150.591585097452565, -34.923817297369453 ], [ 150.591619599427105, -34.923809418455505 ], [ 150.591627299774075, -34.92380738327612 ], [ 150.591683163444117, -34.923792242869325 ], [ 150.591695068247276, -34.923789482437755 ], [ 150.59170140436521, -34.92379068265177 ], [ 150.591736580057159, -34.923796186898372 ], [ 150.591772112592622, -34.923799780765492 ], [ 150.591807852475398, -34.923801448667561 ], [ 150.591843654993937, -34.923801198552511 ], [ 150.591879357657064, -34.923799010069999 ], [ 150.591886072257125, -34.923798383269855 ], [ 150.591895018458587, -34.923799108766481 ], [ 150.591930766859832, -34.92380078491459 ], [ 150.59196656966958, -34.923800524852723 ], [ 150.591985922020825, -34.923799584311084 ], [ 150.591999340764403, -34.923800148774376 ], [ 150.592014195092958, -34.9238006154944 ], [ 150.592036282608831, -34.923800687450615 ], [ 150.592079255216277, -34.923800104355941 ], [ 150.592092970248018, -34.923799781317925 ], [ 150.59212867397585, -34.923797593684412 ], [ 150.592164125909136, -34.923793498025809 ], [ 150.59219917506266, -34.923787492250149 ], [ 150.592233678096505, -34.923779612279418 ], [ 150.592267481799553, -34.923769894741504 ], [ 150.592300432934593, -34.923758377165434 ], [ 150.592316281079206, -34.923752065498093 ], [ 150.592357156338295, -34.923735123951438 ], [ 150.592373292818053, -34.92372815901161 ], [ 150.592404138019248, -34.923713197473653 ], [ 150.592433727548382, -34.923696596485016 ], [ 150.592461944981068, -34.923678444787917 ], [ 150.592488657985086, -34.923658813681158 ], [ 150.592496197117441, -34.923652780795862 ], [ 150.592513149034971, -34.923649634441176 ], [ 150.592547641020417, -34.923641755061553 ], [ 150.59258144463405, -34.923632037432178 ], [ 150.592614396767857, -34.923620519788294 ], [ 150.592646370333085, -34.923607243783685 ], [ 150.592677215442137, -34.92359228217218 ], [ 150.592706814457046, -34.923575690317385 ], [ 150.592735024133106, -34.923557538400523 ], [ 150.592761737297906, -34.923537898219486 ], [ 150.592786836144739, -34.92351686840572 ], [ 150.592810205555082, -34.923494530515974 ], [ 150.592831754885822, -34.923470990030559 ], [ 150.592851385348467, -34.923446331534336 ], [ 150.592869018149088, -34.923420667052859 ], [ 150.592881863080066, -34.923399063487096 ], [ 150.592882105510199, -34.923398632877849 ], [ 150.592884812601142, -34.923393676113704 ], [ 150.592898222447815, -34.923366335911531 ], [ 150.592909436354034, -34.923338332865981 ], [ 150.59291840060726, -34.923309782203916 ], [ 150.592925087169306, -34.923280819493471 ], [ 150.59292944475277, -34.92325155189603 ], [ 150.592931479519649, -34.923222105741146 ], [ 150.592931174212964, -34.923192622219183 ], [ 150.592928520984941, -34.923163220169897 ], [ 150.592924164000863, -34.923137700376849 ], [ 150.592986957312689, -34.923117432064174 ], [ 150.592992235548621, -34.923115729213471 ], [ 150.593416626977273, -34.922978750256519 ], [ 150.593447114945832, -34.922968021020381 ], [ 150.593468690505858, -34.922959308466659 ], [ 150.593971497688841, -34.922744745918408 ], [ 150.593981888407427, -34.922740191966092 ], [ 150.594012741974041, -34.92272522115389 ], [ 150.594042331639855, -34.922708629675135 ], [ 150.594070550576419, -34.922690477616442 ], [ 150.594097254132492, -34.922670845950655 ], [ 150.594107052675952, -34.92266295740189 ], [ 150.594332442783667, -34.922476946006753 ], [ 150.594347744602004, -34.922463804449848 ], [ 150.59437111329089, -34.922441466226587 ], [ 150.594392662108703, -34.922417918223204 ], [ 150.594412292995543, -34.922393257661085 ], [ 150.594414596833758, -34.922390112057826 ], [ 150.594570642349993, -34.922175459516517 ], [ 150.594585961705661, -34.922152941983242 ], [ 150.594601513990511, -34.922126382318567 ], [ 150.594614932917978, -34.922099041183905 ], [ 150.594626138394261, -34.922071037791937 ], [ 150.594635111713927, -34.922042488063688 ], [ 150.594641788797162, -34.922013525051028 ], [ 150.594646154430876, -34.921984257532117 ], [ 150.594648179776073, -34.921954811143223 ], [ 150.594648108842648, -34.921948168536503 ], [ 150.594648341873409, -34.921943973157482 ], [ 150.594648323191819, -34.921300331495267 ], [ 150.594649587174928, -34.921297524981348 ], [ 150.594660792487872, -34.921269522478845 ], [ 150.5946697654812, -34.921240979948216 ], [ 150.594676443801006, -34.92121200884003 ], [ 150.594680808269032, -34.921182741292455 ], [ 150.594682995649777, -34.921142456910786 ], [ 150.594682985786903, -34.920995572279764 ], [ 150.594916794337792, -34.920484741910236 ], [ 150.595259881494115, -34.920001815692068 ], [ 150.595344044816699, -34.91992037739216 ], [ 150.59536321864519, -34.919927996818409 ], [ 150.595396413123694, -34.919939049926398 ], [ 150.595430412638478, -34.919948282649294 ], [ 150.595465068015386, -34.919955668594419 ], [ 150.595500242375238, -34.919961172597866 ], [ 150.595535775867944, -34.919964759041065 ], [ 150.595571515064478, -34.919966434802333 ], [ 150.595607317326824, -34.919966174520567 ], [ 150.595643021227119, -34.919963996635282 ], [ 150.595678473835761, -34.919959890907116 ], [ 150.595713522212833, -34.919953884958822 ], [ 150.595728026936712, -34.919950819500833 ], [ 150.595805950852792, -34.919933385053817 ], [ 150.595825941465222, -34.919928580148365 ], [ 150.595859744263635, -34.919918862445272 ], [ 150.59589269583185, -34.919907334837717 ], [ 150.595912694588122, -34.919899062083985 ], [ 150.595913205132888, -34.919899231752368 ], [ 150.595947205765668, -34.919908465254849 ], [ 150.595981861181286, -34.919915851053666 ], [ 150.596017035567797, -34.919921354908084 ], [ 150.596052568812155, -34.919924950209818 ], [ 150.596088308273977, -34.919926616809072 ], [ 150.596124102580518, -34.919926366133083 ], [ 150.596124379742292, -34.919926357195408 ], [ 150.596207861507395, -34.919923470607188 ], [ 150.596243287417366, -34.919921291549585 ], [ 150.596278739961804, -34.91991718654505 ], [ 150.596313789091823, -34.919911190353076 ], [ 150.596348292290656, -34.91990331097108 ], [ 150.596382085417616, -34.919893584816052 ], [ 150.596415046492581, -34.919882066267704 ], [ 150.596432938782698, -34.919874903829708 ], [ 150.596437984825343, -34.919874472723443 ], [ 150.596473429397236, -34.919870377419805 ], [ 150.596508478785438, -34.919864371259607 ], [ 150.596542980855219, -34.919856491799003 ], [ 150.596574426488701, -34.919847509730914 ], [ 150.596682703075402, -34.91981352741918 ], [ 150.596685051621591, -34.919812783295725 ], [ 150.59669633657586, -34.919809072550095 ], [ 150.5967171516983, -34.919806428434129 ], [ 150.596752201045433, -34.919800422201675 ], [ 150.596786694291922, -34.919792543397477 ], [ 150.596820498003751, -34.919782826342313 ], [ 150.596853449134784, -34.919771307475614 ], [ 150.596885415056107, -34.919758031050655 ], [ 150.596916268861463, -34.919743070281463 ], [ 150.596945860421272, -34.919726469075279 ], [ 150.596974068893559, -34.919708317894475 ], [ 150.596991674549173, -34.919695669599832 ], [ 150.597039972590437, -34.919659445462152 ], [ 150.597049079967633, -34.919652454380575 ], [ 150.597074171033256, -34.919631424367871 ], [ 150.597097539231584, -34.919609086469904 ], [ 150.597119088696559, -34.919585537953807 ], [ 150.597138721296091, -34.919560878746324 ], [ 150.597156344183617, -34.919535215189121 ], [ 150.597165801320642, -34.919519607453836 ], [ 150.597186651405082, -34.919483447796175 ], [ 150.597194046607598, -34.919476958307683 ], [ 150.597287433739695, -34.919401677907125 ], [ 150.597288240557106, -34.919401033083638 ], [ 150.597402504962076, -34.919308542571073 ], [ 150.597421589902382, -34.919292300423265 ], [ 150.59744495900253, -34.919269962471155 ], [ 150.597466507183498, -34.919246413862886 ], [ 150.597486130871033, -34.919221753516346 ], [ 150.597503763445104, -34.919196089193825 ], [ 150.597519315263128, -34.919169530005021 ], [ 150.597532724990998, -34.919142190127012 ], [ 150.597543938899122, -34.919114185690226 ], [ 150.597552902916846, -34.919085644537425 ], [ 150.59755316289062, -34.919084685997063 ], [ 150.597558675901297, -34.919076232787518 ], [ 150.597574229890967, -34.91904967273188 ], [ 150.597579123528021, -34.919040277842505 ], [ 150.597609000676471, -34.918981097961442 ], [ 150.597609744758699, -34.918980202184457 ], [ 150.597663295863953, -34.918925458899182 ], [ 150.597668610880447, -34.918922707240057 ], [ 150.597698210482775, -34.918906115012945 ], [ 150.597726420695494, -34.91888796368012 ], [ 150.597753124328307, -34.918868331156361 ], [ 150.597758726763431, -34.918863866955597 ], [ 150.59781248386696, -34.918820446668995 ], [ 150.597856695445188, -34.918799838843569 ], [ 150.597880180004125, -34.9187882478357 ], [ 150.59789592105048, -34.918779705727999 ], [ 150.597973996961457, -34.918735754893859 ], [ 150.597983983084333, -34.918729999919414 ], [ 150.598046112820043, -34.91869332863206 ], [ 150.598049967618067, -34.918691033974589 ], [ 150.598078177970507, -34.918672872642702 ], [ 150.598104890149358, -34.91865324200964 ], [ 150.598129980638674, -34.918632211752154 ], [ 150.598153349356807, -34.918609873646005 ], [ 150.598174890569453, -34.918586325665522 ], [ 150.598194521513051, -34.91856166623937 ], [ 150.598212144942011, -34.918536002524561 ], [ 150.598227697519661, -34.918509442348658 ], [ 150.598241108016452, -34.918482101496402 ], [ 150.598246997002036, -34.918468180091708 ], [ 150.598261752225142, -34.918453729964419 ], [ 150.598269864344189, -34.918445242477304 ], [ 150.59833549901137, -34.9183747852219 ], [ 150.598348936732037, -34.918359725771445 ], [ 150.598368567593383, -34.918335065411021 ], [ 150.598386190916898, -34.918309401665887 ], [ 150.598401752143104, -34.918282841635779 ], [ 150.598415161421798, -34.918255501638853 ], [ 150.598426367212937, -34.918227497849223 ], [ 150.598428160513379, -34.918222370527587 ], [ 150.598432498612965, -34.918209650769732 ], [ 150.598509455544473, -34.91813087576292 ], [ 150.598530681766675, -34.918107650525151 ], [ 150.598550312510696, -34.91808299012974 ], [ 150.598567936814334, -34.918057326374367 ], [ 150.598576112167763, -34.918043925239687 ], [ 150.598580727490173, -34.918036037487347 ], [ 150.598695457965846, -34.918195883083513 ], [ 150.599114550625558, -34.91865263208966 ], [ 150.599342344183867, -34.919066319165758 ], [ 150.599427985012937, -34.919301954472559 ], [ 150.599480548694316, -34.919446588582936 ], [ 150.599488249299696, -34.919491031464716 ], [ 150.599507010829001, -34.91959944211704 ] ] ] ] } },
{ "type": "Feature", "properties": { "OBJECTID": 391, "Comments": "Downloaded from SEED Map Service 20250513", "FSource": "https://mapprod3.environment.nsw.gov.au/arcgis/rest/services/Planning/EPI_Primary_Planning_Layers/MapServer/2", "SourceDate": 20250513.0, "Supplier": "DOP", "EPI_NAME": "Shoalhaven Local Environmental Plan 2014", "LGA_NAME": "SHOALHAVEN", "PUBLISHED_DATE": "20140408000000", "COMMENCED_DATE": "20140422000000", "CURRENCY_DATE": "20240823000000", "AMENDMENT": null, "MAP_TYPE": "LZN", "MAP_NAME": "Land Zoning Map", "LAY_NAME": "Zone", "LAY_CLASS": "Special Activities", "PCO_REF_KEY": "2014-179", "EPI_TYPE": "LEP", "SYM_CODE": "SP1", "PURPOSE": "Defence", "arcgisonline_objectid": 586506.0, "arcgisonline_type": "arcgisonline_polygon", "multi_reader_type": "ARCGISFEATURES", "SHAPE_Length": 21228.765045800679, "SHAPE_Area": 8711905.5101183075 }, "geometry": { "type": "MultiPolygon", "coordinates": [ [ [ [ 150.556607563619849, -34.936085432121054 ], [ 150.556581469194981, -34.936215750770856 ], [ 150.556359199308275, -34.937239501541491 ], [ 150.556339657543816, -34.937329517485232 ], [ 150.556303784308142, -34.937494768575938 ], [ 150.556185845283409, -34.938037979215864 ], [ 150.55638564382474, -34.938066994597833 ], [ 150.556439749695727, -34.937812837954468 ], [ 150.556576917810332, -34.93753498099651 ], [ 150.556786818616132, -34.937306255305515 ], [ 150.557079548622511, -34.937131591849329 ], [ 150.557417025153114, -34.93702426521876 ], [ 150.55776597647619, -34.937007322592024 ], [ 150.558039872479043, -34.9370453474504 ], [ 150.560818088496177, -34.937564258693456 ], [ 150.560397885294009, -34.939689782296867 ], [ 150.55912174293843, -34.939519863729359 ], [ 150.558853199863847, -34.939596488569784 ], [ 150.559187899220234, -34.940867913256824 ], [ 150.559235219582035, -34.941047659265678 ], [ 150.559328115206597, -34.9414005255055 ], [ 150.55910922238732, -34.941412322657804 ], [ 150.559098671920822, -34.941370021852215 ], [ 150.558892884453769, -34.941394959574041 ], [ 150.558340620272816, -34.941449588776983 ], [ 150.556887150108281, -34.941529335886067 ], [ 150.556043657227121, -34.944521877574019 ], [ 150.555705402359962, -34.945699747467678 ], [ 150.555704719005973, -34.945700344003313 ], [ 150.555161197495096, -34.946174851129207 ], [ 150.554332912869938, -34.946008330070882 ], [ 150.553278154070028, -34.945791683769464 ], [ 150.552984681399636, -34.946167016600526 ], [ 150.5521850377242, -34.946464238311464 ], [ 150.551917175378037, -34.94655693667724 ], [ 150.550193548730135, -34.946689691093752 ], [ 150.549888128707693, -34.948224277890688 ], [ 150.549898393277232, -34.94822492316132 ], [ 150.55022418199141, -34.948245412764145 ], [ 150.551352686833667, -34.947985694376086 ], [ 150.551555086449156, -34.948329094920389 ], [ 150.552553586876741, -34.948391873532699 ], [ 150.553168224672504, -34.948981604864933 ], [ 150.553309085944193, -34.949265789880691 ], [ 150.55338570074224, -34.949184009552965 ], [ 150.553598048213786, -34.949033673751508 ], [ 150.554013224907806, -34.948834590251536 ], [ 150.554175097458568, -34.948713603233891 ], [ 150.554292695793208, -34.948637327487624 ], [ 150.554443049404966, -34.948451099622268 ], [ 150.554624463660019, -34.948466077296736 ], [ 150.554879014033219, -34.948527426227948 ], [ 150.555153143272037, -34.948539553056747 ], [ 150.555426858889945, -34.948587983852718 ], [ 150.555870614126377, -34.948691624115639 ], [ 150.556116667349215, -34.948896020080689 ], [ 150.556365427146716, -34.948955755637165 ], [ 150.556661006495148, -34.948929811865781 ], [ 150.556899700355416, -34.948978682086178 ], [ 150.557097455764563, -34.948992960876524 ], [ 150.557663623447326, -34.949114250300717 ], [ 150.557990100973825, -34.949240066830654 ], [ 150.558102419943822, -34.949422931628796 ], [ 150.558192483332249, -34.949507225694695 ], [ 150.558205426403248, -34.949519339430807 ], [ 150.558365936765767, -34.949600811593683 ], [ 150.558530353830918, -34.949683836017876 ], [ 150.558616318509905, -34.949731120513604 ], [ 150.55870203305463, -34.949772704444406 ], [ 150.558893091207636, -34.949822202153563 ], [ 150.55912617375904, -34.949848177835229 ], [ 150.559303312201621, -34.949860539405712 ], [ 150.559430573607926, -34.949848929509372 ], [ 150.559536519565853, -34.949831288356187 ], [ 150.559635463668229, -34.949819598481916 ], [ 150.559769727031238, -34.949802028743036 ], [ 150.559953633615663, -34.949790544544982 ], [ 150.560116123089017, -34.949767076409124 ], [ 150.560300180326948, -34.949767532857585 ], [ 150.560414525951529, -34.949777697856803 ], [ 150.560514957608035, -34.949797374003076 ], [ 150.560609321446094, -34.949825403748648 ], [ 150.56066790974009, -34.949855612796235 ], [ 150.560726839696144, -34.949911753114776 ], [ 150.560809210125967, -34.949981950413672 ], [ 150.560898409870134, -34.950037463825296 ], [ 150.561012395772366, -34.950091444136511 ], [ 150.56109798411245, -34.950139373813627 ], [ 150.561169417822271, -34.950187277797056 ], [ 150.56133406840857, -34.950324892523497 ], [ 150.561620815840371, -34.950594061536435 ], [ 150.561692330955395, -34.950647925566741 ], [ 150.561813873896909, -34.950737717232897 ], [ 150.561921020153449, -34.950809563482437 ], [ 150.562235458606665, -34.951031080280728 ], [ 150.562432243765983, -34.951189957251714 ], [ 150.562445979384876, -34.951198631134645 ], [ 150.562462918910853, -34.951209328238953 ], [ 150.562487041134489, -34.951220237170958 ], [ 150.562524913121365, -34.951229657998326 ], [ 150.561548396725726, -34.954993922818979 ], [ 150.56095701533809, -34.956812313055572 ], [ 150.560924716800741, -34.956833244320826 ], [ 150.560864668237514, -34.956872184613466 ], [ 150.56080206305549, -34.956912781783402 ], [ 150.560747410215185, -34.956948216453021 ], [ 150.560462095123484, -34.957279391946024 ], [ 150.560411619155758, -34.957337980755696 ], [ 150.560316673328089, -34.957356177983506 ], [ 150.5602452210085, -34.957369866721436 ], [ 150.560173194766662, -34.957383670988129 ], [ 150.560119089641262, -34.957375138275097 ], [ 150.56006231112147, -34.957366183101875 ], [ 150.560002198731183, -34.957356702041913 ], [ 150.559989093077547, -34.957354637474943 ], [ 150.559652729005194, -34.957264093400752 ], [ 150.559481713706191, -34.957186071439146 ], [ 150.559340619654648, -34.957121701391728 ], [ 150.559285392345714, -34.957118008263706 ], [ 150.559209466961136, -34.957112917232422 ], [ 150.559078072551358, -34.957147750976333 ], [ 150.558929127062413, -34.957163833585398 ], [ 150.55877287528233, -34.95712794191931 ], [ 150.558657231446006, -34.957050672686172 ], [ 150.558582497505228, -34.956869673079403 ], [ 150.55847412373501, -34.956846419776333 ], [ 150.558345373082972, -34.956860503647285 ], [ 150.558082315596749, -34.956980029269999 ], [ 150.557852549446409, -34.957010355026135 ], [ 150.55766091679763, -34.956986798863468 ], [ 150.557605905799619, -34.956893125790877 ], [ 150.557650287043202, -34.956614937180028 ], [ 150.557613274560737, -34.956461080106742 ], [ 150.557576773580365, -34.956390326941964 ], [ 150.557565299891792, -34.956385818623133 ], [ 150.557470065813703, -34.95634838461212 ], [ 150.55739098469391, -34.956327060247666 ], [ 150.557320922859731, -34.956308163780491 ], [ 150.557235755557286, -34.956285198775554 ], [ 150.557000960965894, -34.956311356149044 ], [ 150.556750534203871, -34.956426769080679 ], [ 150.556638591158844, -34.956600849129998 ], [ 150.556620905976956, -34.956617906789518 ], [ 150.556526988662398, -34.956708471672897 ], [ 150.556486677606131, -34.956732306334175 ], [ 150.556324492172735, -34.956828211845327 ], [ 150.556115083985134, -34.956825371705584 ], [ 150.555998964118885, -34.956837400513862 ], [ 150.555853200052894, -34.956925822085935 ], [ 150.555526391232775, -34.956892271301967 ], [ 150.555243495277097, -34.956832939575335 ], [ 150.554960842815348, -34.956727586831811 ], [ 150.554779114553099, -34.956567374927694 ], [ 150.554656667540627, -34.956504492056048 ], [ 150.554490268182064, -34.956323770067158 ], [ 150.554393018082379, -34.956295973900659 ], [ 150.554187177476337, -34.956285809409074 ], [ 150.554132551850017, -34.956271960236556 ], [ 150.554134487824939, -34.956222855810118 ], [ 150.554121767430019, -34.956150785998688 ], [ 150.554075360200045, -34.956120299062924 ], [ 150.553967775224379, -34.956095343079653 ], [ 150.553737525436418, -34.956071302814706 ], [ 150.553507374912527, -34.956059542986111 ], [ 150.553489293484944, -34.956000793312285 ], [ 150.553515098281594, -34.955925619974053 ], [ 150.553531397893011, -34.955878139215471 ], [ 150.553486201279384, -34.955841638438898 ], [ 150.553423785752955, -34.955857280276305 ], [ 150.553299490025381, -34.955856824104266 ], [ 150.553169520810314, -34.95582818449553 ], [ 150.553057605849403, -34.955780407266722 ], [ 150.552968539660725, -34.955754662617039 ], [ 150.552918125908491, -34.95581731238547 ], [ 150.552862426538837, -34.955954339206755 ], [ 150.552833540728187, -34.956025400895612 ], [ 150.552796546928334, -34.956178703026666 ], [ 150.552739552961896, -34.95624371891558 ], [ 150.552671023284347, -34.956242375170433 ], [ 150.552610221065066, -34.956171147788353 ], [ 150.552488095478623, -34.956120321849163 ], [ 150.552376788990045, -34.956114039017514 ], [ 150.552220842141935, -34.956160561663637 ], [ 150.552094960099623, -34.956288344533206 ], [ 150.551852313563899, -34.956406534568075 ], [ 150.551514661624424, -34.956403177020277 ], [ 150.551373805948629, -34.956401776341586 ], [ 150.551265897431222, -34.956430792104626 ], [ 150.551308987948886, -34.956554630267533 ], [ 150.551311327453845, -34.956556483096286 ], [ 150.551790739753272, -34.956936205550953 ], [ 150.551844246066736, -34.957020314171849 ], [ 150.551753799148798, -34.957113764103269 ], [ 150.551058702399445, -34.95704209053828 ], [ 150.550187607825904, -34.956811809181467 ], [ 150.54976834305964, -34.956736217606434 ], [ 150.549504810290472, -34.95668587602237 ], [ 150.549270876683892, -34.956704747374104 ], [ 150.549115297490829, -34.956649878394217 ], [ 150.549091884464048, -34.95654613924404 ], [ 150.549051653356912, -34.956230079199976 ], [ 150.549046435686307, -34.956086915845439 ], [ 150.548974625972249, -34.956061969237489 ], [ 150.548805053221315, -34.956372310928792 ], [ 150.54867947685554, -34.95631261141304 ], [ 150.548564244598907, -34.956166436696954 ], [ 150.548434257850033, -34.955790085816751 ], [ 150.548312894468694, -34.95568924162265 ], [ 150.548232075087242, -34.955565852935422 ], [ 150.547165301806928, -34.960732604065086 ], [ 150.546088187485481, -34.960050718468409 ], [ 150.543866409369485, -34.960378924829648 ], [ 150.543829567705131, -34.960463812055472 ], [ 150.543792304734154, -34.960549677844597 ], [ 150.542934540991979, -34.962526034791296 ], [ 150.541249849424673, -34.963215624032401 ], [ 150.541171513229926, -34.963478903031643 ], [ 150.53748333094012, -34.962529806208551 ], [ 150.537412390440068, -34.962461133243558 ], [ 150.53711865893959, -34.962438930097804 ], [ 150.537691568240945, -34.959696826464651 ], [ 150.528144798453837, -34.958302235222185 ], [ 150.528476977233254, -34.956728819809548 ], [ 150.5284888314265, -34.956672673027605 ], [ 150.528272011886685, -34.956640869201557 ], [ 150.528103432706502, -34.957425899400839 ], [ 150.527915832436946, -34.958328821491484 ], [ 150.525608835274028, -34.960036324271677 ], [ 150.525607695168219, -34.960037169135582 ], [ 150.522658231145556, -34.962220035443863 ], [ 150.522411589786543, -34.962185444212167 ], [ 150.522380937345986, -34.962181145986804 ], [ 150.522345818425293, -34.962360223140493 ], [ 150.521958222839174, -34.964336616000608 ], [ 150.520915836912565, -34.969381749246182 ], [ 150.516103510504905, -34.968697611348254 ], [ 150.51588636618655, -34.968667143887899 ], [ 150.511297602891091, -34.96802306382186 ], [ 150.512635433876738, -34.961395656754796 ], [ 150.512162232780383, -34.961400307206191 ], [ 150.513462281167875, -34.960821461957053 ], [ 150.514650145251153, -34.960292536619036 ], [ 150.517702818240195, -34.958933189982645 ], [ 150.517852759695984, -34.958866416693851 ], [ 150.517982708779243, -34.95877025255681 ], [ 150.519877211405145, -34.95736824873002 ], [ 150.521206176397556, -34.95635260268935 ], [ 150.52413990183183, -34.954093765994664 ], [ 150.521143301651989, -34.951294133643458 ], [ 150.524176938632507, -34.949093735114765 ], [ 150.517552069222518, -34.94867458882927 ], [ 150.514857520994838, -34.948504363440179 ], [ 150.514713942667044, -34.947117549024689 ], [ 150.514880243073208, -34.94658492466958 ], [ 150.515246824974099, -34.946126435441727 ], [ 150.51617802968795, -34.94555657335782 ], [ 150.518144826730349, -34.945681106429134 ], [ 150.518511121041001, -34.945704344339951 ], [ 150.523007365759128, -34.94598952308791 ], [ 150.524842024951425, -34.946105576207394 ], [ 150.524932077256125, -34.946111268601292 ], [ 150.524920648513358, -34.946233859617585 ], [ 150.524894724185714, -34.946511922991853 ], [ 150.525122830722921, -34.946595970368641 ], [ 150.525840325436974, -34.946508316951771 ], [ 150.527187693021261, -34.946511993393166 ], [ 150.527504121619103, -34.946512855461421 ], [ 150.527741819383607, -34.946513503499652 ], [ 150.528461618989809, -34.946514081313673 ], [ 150.52860045236136, -34.946514190622118 ], [ 150.528930273459736, -34.946491872778871 ], [ 150.529382326234042, -34.946353454293266 ], [ 150.529495184210674, -34.946383359127303 ], [ 150.529710550779271, -34.946013425777544 ], [ 150.529940224696901, -34.945683463630182 ], [ 150.532162264598014, -34.94256226852405 ], [ 150.532768476080747, -34.941710902048101 ], [ 150.533934845058269, -34.940073973258883 ], [ 150.53566983248507, -34.938600873926752 ], [ 150.535842181060417, -34.938454463827114 ], [ 150.538491150761956, -34.936205225701094 ], [ 150.53852337581543, -34.936188230105678 ], [ 150.538599218672914, -34.936148214575027 ], [ 150.538915736745565, -34.936002385734795 ], [ 150.539267858280766, -34.935898919884401 ], [ 150.539341810056897, -34.935877182422338 ], [ 150.539742311484389, -34.935820795649853 ], [ 150.54012232035231, -34.935810869487156 ], [ 150.540471502616754, -34.93584791508227 ], [ 150.541481516131114, -34.935975375887914 ], [ 150.543553455627404, -34.936263669108079 ], [ 150.545217015776188, -34.936494912085841 ], [ 150.545875180902016, -34.936536065709014 ], [ 150.546424075447447, -34.936489290858077 ], [ 150.546490387447818, -34.936473758982331 ], [ 150.546962274200297, -34.936363228846858 ], [ 150.547325961885974, -34.936219705440735 ], [ 150.547456218226898, -34.936168324236043 ], [ 150.547488922356052, -34.936194282691133 ], [ 150.547501459941969, -34.93620423301455 ], [ 150.547531739514824, -34.936179136571674 ], [ 150.547641666483344, -34.936088023445684 ], [ 150.548026320453545, -34.935887364455425 ], [ 150.548290266606614, -34.935685539815346 ], [ 150.54897431864859, -34.935112450584427 ], [ 150.549367596943654, -34.934822420244345 ], [ 150.551980109369111, -34.932664229538759 ], [ 150.552141747429602, -34.93253070110525 ], [ 150.552462068164715, -34.932403841707909 ], [ 150.552800109821248, -34.932306932006583 ], [ 150.553150816918503, -34.932265347304288 ], [ 150.553506195357613, -34.932276865683711 ], [ 150.55395351011407, -34.932392205634315 ], [ 150.556142563692646, -34.933239716765925 ], [ 150.556384322753388, -34.933386322153133 ], [ 150.556597783766335, -34.933571932156582 ], [ 150.556766021396385, -34.933789980814275 ], [ 150.556875967445421, -34.934025233760892 ], [ 150.556926103959682, -34.93427021175934 ], [ 150.556909010508122, -34.934577909904569 ], [ 150.556908858222016, -34.934580644603557 ], [ 150.556607563619849, -34.936085432121054 ] ] ] ] } },
{ "type": "Feature", "properties": { "OBJECTID": 406, "Comments": "Downloaded from SEED Map Service 20250513", "FSource": "https://mapprod3.environment.nsw.gov.au/arcgis/rest/services/Planning/EPI_Primary_Planning_Layers/MapServer/2", "SourceDate": 20250513.0, "Supplier": "DOP", "EPI_NAME": "Shoalhaven Local Environmental Plan 2014", "LGA_NAME": "SHOALHAVEN", "PUBLISHED_DATE": "20140408000000", "COMMENCED_DATE": "20140422000000", "CURRENCY_DATE": "20240823000000", "AMENDMENT": null, "MAP_TYPE": "LZN", "MAP_NAME": "Land Zoning Map", "LAY_NAME": "Zone", "LAY_CLASS": "Special Activities", "PCO_REF_KEY": "2014-179", "EPI_TYPE": "LEP", "SYM_CODE": "SP1", "PURPOSE": "Defence", "arcgisonline_objectid": 586562.0, "arcgisonline_type": "arcgisonline_polygon", "multi_reader_type": "ARCGISFEATURES", "SHAPE_Length": 82.914062649577289, "SHAPE_Area": 429.29918285859111 }, "geometry": { "type": "MultiPolygon", "coordinates": [ [ [ [ 150.567654370797669, -34.93646815916275 ], [ 150.567434797502273, -34.936533623547362 ], [ 150.567359839952587, -34.936363146336276 ], [ 150.567579412836267, -34.936297682069359 ], [ 150.567654370797669, -34.93646815916275 ] ] ] ] } },
{ "type": "Feature", "properties": { "OBJECTID": 407, "Comments": "Downloaded from SEED Map Service 20250513", "FSource": "https://mapprod3.environment.nsw.gov.au/arcgis/rest/services/Planning/EPI_Primary_Planning_Layers/MapServer/2", "SourceDate": 20250513.0, "Supplier": "DOP", "EPI_NAME": "Shoalhaven Local Environmental Plan 2014", "LGA_NAME": "SHOALHAVEN", "PUBLISHED_DATE": "20140408000000", "COMMENCED_DATE": "20140422000000", "CURRENCY_DATE": "20240823000000", "AMENDMENT": null, "MAP_TYPE": "LZN", "MAP_NAME": "Land Zoning Map", "LAY_NAME": "Zone", "LAY_CLASS": "Special Activities", "PCO_REF_KEY": "2014-179", "EPI_TYPE": "LEP", "SYM_CODE": "SP1", "PURPOSE": "Defence", "arcgisonline_objectid": 586563.0, "arcgisonline_type": "arcgisonline_polygon", "multi_reader_type": "ARCGISFEATURES", "SHAPE_Length": 880.53295266415159, "SHAPE_Area": 33155.126178158527 }, "geometry": { "type": "MultiPolygon", "coordinates": [ [ [ [ 150.568328049460462, -34.937267384634168 ], [ 150.568407210330832, -34.937275640857983 ], [ 150.568417312993404, -34.93725181444379 ], [ 150.568519878781444, -34.937196111106552 ], [ 150.568545614369555, -34.937198801721991 ], [ 150.56870588979919, -34.937215508907471 ], [ 150.568692041251836, -34.937305471653026 ], [ 150.568862742160519, -34.937323238385282 ], [ 150.569013730900451, -34.937338968634442 ], [ 150.569011625636676, -34.937549614017037 ], [ 150.569011508322518, -34.937560595203152 ], [ 150.568709422571033, -34.937626015319708 ], [ 150.568253533697828, -34.937724745052591 ], [ 150.567973184225224, -34.937785459344276 ], [ 150.567038296060758, -34.93785273744021 ], [ 150.565383960225063, -34.9379717659398 ], [ 150.565164297422342, -34.937987569450982 ], [ 150.565097892692307, -34.937992347969129 ], [ 150.565359827617925, -34.936959427529551 ], [ 150.566650252087555, -34.936574706787077 ], [ 150.567291500252793, -34.936969022015461 ], [ 150.567861447254472, -34.937133079763868 ], [ 150.568328049460462, -34.937267384634168 ] ] ] ] } },
{ "type": "Feature", "properties": { "OBJECTID": 432, "Comments": "Downloaded from SEED Map Service 20250513", "FSource": "https://mapprod3.environment.nsw.gov.au/arcgis/rest/services/Planning/EPI_Primary_Planning_Layers/MapServer/2", "SourceDate": 20250513.0, "Supplier": "DOP", "EPI_NAME": "Shoalhaven Local Environmental Plan 2014", "LGA_NAME": "SHOALHAVEN", "PUBLISHED_DATE": "20140408000000", "COMMENCED_DATE": "20140422000000", "CURRENCY_DATE": "20240823000000", "AMENDMENT": null, "MAP_TYPE": "LZN", "MAP_NAME": "Land Zoning Map", "LAY_NAME": "Zone", "LAY_CLASS": "Special Activities", "PCO_REF_KEY": "2014-179", "EPI_TYPE": "LEP", "SYM_CODE": "SP1", "PURPOSE": "Correctional Centre", "arcgisonline_objectid": 586616.0, "arcgisonline_type": "arcgisonline_polygon", "multi_reader_type": "ARCGISFEATURES", "SHAPE_Length": 875.68027380755825, "SHAPE_Area": 33371.653356696639 }, "geometry": { "type": "MultiPolygon", "coordinates": [ [ [ [ 150.593591009141534, -34.920873187106423 ], [ 150.593588822336613, -34.920913471470215 ], [ 150.593588822609689, -34.921027529390834 ], [ 150.5935875585958, -34.921030335892517 ], [ 150.5935763441841, -34.921058339010983 ], [ 150.593567380711278, -34.921086880741029 ], [ 150.593560702017697, -34.921115851773223 ], [ 150.593556337132611, -34.921145120165704 ], [ 150.593554141544757, -34.921185404352862 ], [ 150.593554159841261, -34.921819400007003 ], [ 150.593510415131391, -34.921879575978913 ], [ 150.593392646492163, -34.921976763812467 ], [ 150.59299074624721, -34.922148263606061 ], [ 150.592422653520941, -34.922331621309588 ], [ 150.59220501778961, -34.922546532791614 ], [ 150.592197630147865, -34.922547797135614 ], [ 150.592163128754663, -34.922555676239192 ], [ 150.592129334325477, -34.922565393042177 ], [ 150.592096373759261, -34.922576912199069 ], [ 150.592064408181272, -34.922590188225364 ], [ 150.592033554605592, -34.922605149520621 ], [ 150.592003964576548, -34.922621741395872 ], [ 150.591975753988663, -34.922639893130167 ], [ 150.591949040951022, -34.922659533145094 ], [ 150.591923942148782, -34.922680563691195 ], [ 150.591900572752536, -34.922702901412649 ], [ 150.591879024499974, -34.922726440853523 ], [ 150.591859392793623, -34.92275110097048 ], [ 150.591845194125256, -34.922771457881218 ], [ 150.591838829633872, -34.922778270360965 ], [ 150.591827839214687, -34.922784876622224 ], [ 150.591799808952885, -34.922802921908534 ], [ 150.591773096083699, -34.922822552870841 ], [ 150.591747997212877, -34.922843582475224 ], [ 150.591728160268445, -34.922862343727786 ], [ 150.591721562277911, -34.922862541024806 ], [ 150.59168834213375, -34.92286451276356 ], [ 150.591640331283116, -34.922868564771107 ], [ 150.591637848128926, -34.922868779660554 ], [ 150.59160239516973, -34.922872885970975 ], [ 150.591567346639749, -34.922878882579674 ], [ 150.591566278681057, -34.922879097587618 ], [ 150.591535847219404, -34.922885229022747 ], [ 150.591518017238343, -34.922888501164842 ], [ 150.591494656598854, -34.922885936522299 ], [ 150.591460844856044, -34.922882835562625 ], [ 150.591449273022931, -34.922881885780058 ], [ 150.591413532721333, -34.922880208757476 ], [ 150.591377730583417, -34.922880459662935 ], [ 150.591361120799604, -34.92288126699907 ], [ 150.591356172819445, -34.922880208788186 ], [ 150.591321006271841, -34.922874705522098 ], [ 150.5912636172595, -34.922867278548317 ], [ 150.591591145135084, -34.921208334114453 ], [ 150.5917185906859, -34.921118047843954 ], [ 150.591768475492387, -34.920983722312087 ], [ 150.591827790533557, -34.920983776152553 ], [ 150.591914454232807, -34.921000054382574 ], [ 150.591914858181354, -34.921000126397288 ], [ 150.591921894112119, -34.921001229590068 ], [ 150.591923417611753, -34.921001417557484 ], [ 150.591969359250726, -34.921006786312283 ], [ 150.592064879913181, -34.921038107248634 ], [ 150.59206769417699, -34.921038994211585 ], [ 150.592074497119256, -34.921040841905423 ], [ 150.592081426027875, -34.921042311672167 ], [ 150.592088463111509, -34.921043413075289 ], [ 150.592095401144178, -34.921044121272089 ], [ 150.592229037314496, -34.921054170141936 ], [ 150.592341275138921, -34.921067706164941 ], [ 150.592347344273634, -34.921068297958819 ], [ 150.592354488127455, -34.921068629796956 ], [ 150.59235741072456, -34.921068656185184 ], [ 150.592439807643672, -34.921068477687598 ], [ 150.592444047589026, -34.921068405784837 ], [ 150.592451192076282, -34.921067966864968 ], [ 150.592458282174164, -34.921067141934728 ], [ 150.592465292434269, -34.92106594040591 ], [ 150.592472185376096, -34.921064371451827 ], [ 150.592478953579473, -34.921062426812092 ], [ 150.592485542945468, -34.921060122542343 ], [ 150.592491933442403, -34.921057469964772 ], [ 150.59249810079487, -34.921054475809996 ], [ 150.592504025854538, -34.921051158629552 ], [ 150.592509664551386, -34.921047528367595 ], [ 150.592515006540509, -34.92104360194719 ], [ 150.592520026373791, -34.92103938878018 ], [ 150.592524705496487, -34.921034924557972 ], [ 150.592529008615855, -34.921030218497258 ], [ 150.592532934374816, -34.921025279585947 ], [ 150.592536466143144, -34.92102015256841 ], [ 150.592539576574637, -34.921014836902593 ], [ 150.592542258053186, -34.921009368496698 ], [ 150.592544499087523, -34.921003766054071 ], [ 150.592546290994107, -34.920998064560266 ], [ 150.592547626063379, -34.920992265665433 ], [ 150.59254849649497, -34.920986411584551 ], [ 150.59254890827296, -34.920980522268721 ], [ 150.592548845293749, -34.920974624443161 ], [ 150.592548316664931, -34.920968743529833 ], [ 150.592547321544231, -34.920962908359364 ], [ 150.592545860551667, -34.920957135170688 ], [ 150.592543951466695, -34.920951452262074 ], [ 150.592541584775176, -34.920945885587834 ], [ 150.592538788390726, -34.920940453730836 ], [ 150.592535568969993, -34.920935191079259 ], [ 150.592531939296947, -34.920930109605713 ], [ 150.592527905276654, -34.920925231964212 ], [ 150.592523495811207, -34.920920580363159 ], [ 150.592518726360595, -34.920916187562234 ], [ 150.592513626695791, -34.920912046038261 ], [ 150.59250820206347, -34.92090820096918 ], [ 150.592502483144131, -34.920904651160178 ], [ 150.592496496757377, -34.920901415172452 ], [ 150.592490266467678, -34.920898510601234 ], [ 150.592483811700987, -34.920895946846365 ], [ 150.592477177898672, -34.920893741936716 ], [ 150.592470373837813, -34.920891895144798 ], [ 150.592463445196671, -34.92089041639089 ], [ 150.592456409266191, -34.92088931322958 ], [ 150.592449299665873, -34.920888596243593 ], [ 150.592439234329902, -34.920888238047418 ], [ 150.592364949315083, -34.920888398871895 ], [ 150.59225779309088, -34.920875472957214 ], [ 150.592251885439481, -34.920874898784326 ], [ 150.592216182107222, -34.920872210387451 ], [ 150.593346273440034, -34.920557645256125 ], [ 150.593734414444356, -34.920513247843466 ], [ 150.593623988224834, -34.920754503585385 ], [ 150.593622230667819, -34.920758394704819 ], [ 150.593611017404186, -34.920786397851288 ], [ 150.593602052621492, -34.920814948574666 ], [ 150.593595375035335, -34.920843920533983 ], [ 150.593591009141534, -34.920873187106423 ] ] ] ] } },
{ "type": "Feature", "properties": { "OBJECTID": 440, "Comments": "Downloaded from SEED Map Service 20250513", "FSource": "https://mapprod3.environment.nsw.gov.au/arcgis/rest/services/Planning/EPI_Primary_Planning_Layers/MapServer/2", "SourceDate": 20250513.0, "Supplier": "DOP", "EPI_NAME": "Shoalhaven Local Environmental Plan 2014", "LGA_NAME": "SHOALHAVEN", "PUBLISHED_DATE": "20140408000000", "COMMENCED_DATE": "20140422000000", "CURRENCY_DATE": "20240823000000", "AMENDMENT": null, "MAP_TYPE": "LZN", "MAP_NAME": "Land Zoning Map", "LAY_NAME": "Zone", "LAY_CLASS": "Special Activities", "PCO_REF_KEY": "2014-179", "EPI_TYPE": "LEP", "SYM_CODE": "SP1", "PURPOSE": "Defence", "arcgisonline_objectid": 586629.0, "arcgisonline_type": "arcgisonline_polygon", "multi_reader_type": "ARCGISFEATURES", "SHAPE_Length": 772.6088560107753, "SHAPE_Area": 38148.74729325575 }, "geometry": { "type": "MultiPolygon", "coordinates": [ [ [ [ 150.572715457119699, -34.937772948868478 ], [ 150.572625398193793, -34.938223146923697 ], [ 150.571562189880041, -34.938078472479724 ], [ 150.571337346155559, -34.937737070654869 ], [ 150.570972242538971, -34.937540554421979 ], [ 150.57080359481219, -34.937521990645884 ], [ 150.570503112424433, -34.937491603705645 ], [ 150.570511413269031, -34.937450207414997 ], [ 150.570521059136922, -34.93740210764318 ], [ 150.570522779961379, -34.93739350146241 ], [ 150.570562176518365, -34.937197099865763 ], [ 150.570633268277476, -34.936842647112314 ], [ 150.570634102232617, -34.936838461133377 ], [ 150.570701071375197, -34.936504578560786 ], [ 150.570780840536656, -34.936106891564307 ], [ 150.572403400300146, -34.936150397247204 ], [ 150.572896607890357, -34.936867550953913 ], [ 150.572733358862706, -34.937683488493768 ], [ 150.572715457119699, -34.937772948868478 ] ] ] ] } }
]
}
