{
"type": "FeatureCollection",
"name": "LCA_Road Infrastructure",
"crs": { "type": "name", "properties": { "name": "urn:ogc:def:crs:OGC:1.3:CRS84" } },
"features": [
{ "type": "Feature", "properties": { "OBJECTID": 16, "Comments": "Converted from shapefile provided on 25/09/2025", "FSource": "SPMM delivered shapefile", "SourceDate": "25/09/2025", "Supplier": "SPMM", "id": 0, "LCZ": "Road Infrastructure", "multi_reader_type": "SHAPEFILE", "shapefile_type": "shapefile_polygon", "SHAPE_Length": 3131.6932796712008, "SHAPE_Area": 579198.40409917815 }, "geometry": { "type": "MultiPolygon", "coordinates": [ [ [ [ 150.585648031170308, -34.988762384853388 ], [ 150.578907700487235, -34.987835262660845 ], [ 150.579133750424802, -34.98676765471572 ], [ 150.580533822503639, -34.980090688007763 ], [ 150.588557807908785, -34.981105443743999 ], [ 150.587221362415363, -34.983533957542122 ], [ 150.586832989881998, -34.984499799580377 ], [ 150.586645462834497, -34.985096948838709 ], [ 150.586176652209076, -34.986864178263822 ], [ 150.58601371673717, -34.98738936239296 ], [ 150.585973224223295, -34.98755359973125 ], [ 150.585874466076319, -34.98782729992309 ], [ 150.585845083106989, -34.987996133957587 ], [ 150.585648031170308, -34.988762384853388 ] ] ] ] } },
{ "type": "Feature", "properties": { "OBJECTID": 17, "Comments": "Converted from shapefile provided on 25/09/2025", "FSource": "SPMM delivered shapefile", "SourceDate": "25/09/2025", "Supplier": "SPMM", "id": 0, "LCZ": "Road Infrastructure", "multi_reader_type": "SHAPEFILE", "shapefile_type": "shapefile_polygon", "SHAPE_Length": 2873.6506742602933, "SHAPE_Area": 499508.3435753333 }, "geometry": { "type": "MultiPolygon", "coordinates": [ [ [ [ 150.59296173682111, -34.989705545152198 ], [ 150.586371374350165, -34.988793748051584 ], [ 150.587084984873968, -34.985957877086129 ], [ 150.589204449538016, -34.981152154461924 ], [ 150.594572077973595, -34.981910535038217 ], [ 150.59296173682111, -34.989705545152198 ] ] ] ] } }
]
}
