{
"type": "FeatureCollection",
"name": "Connectivity zones",
"crs": { "type": "name", "properties": { "name": "urn:ogc:def:crs:OGC:1.3:CRS84" } },
"features": [
{ "type": "Feature", "properties": { "OBJECTID": 1, "Shape_Leng": 3100.5615341799999, "Type": "Proposed Crossing Zone", "name": "Crossing Zone 1", "Comments": null, "ECMLink": null, "FSource": "Digitised by Stantec (2026) from the 'Greater Glider Connectivity Strategy' developed by WSP 2024", "SourceDate": "2026-02-04T00:00:00Z", "PlanAccur": null, "Supplier": "Stantec Australia Pty Ltd (3045)", "Shape_Length": 3100.4670447258641, "Shape_Area": 643296.58072267403 }, "geometry": { "type": "MultiPolygon", "coordinates": [ [ [ [ 150.581138055181697, -35.012566095679411, 0.0 ], [ 150.580808599859893, -35.012481889756721, 0.0 ], [ 150.580482361741133, -35.012391192564564, 0.0 ], [ 150.580160130966419, -35.012294224524773, 0.0 ], [ 150.579846036586218, -35.012192347228201, 0.0 ], [ 150.579534086598869, -35.012083616611541, 0.0 ], [ 150.579228440645124, -35.01196935972434, 0.0 ], [ 150.579078214191185, -35.011910244603833, 0.0 ], [ 150.578929838969742, -35.011849852813832, 0.0 ], [ 150.578642054992002, -35.011726736196302, 0.0 ], [ 150.578499725828038, -35.011662761356142, 0.0 ], [ 150.578359599567335, -35.011597660227729, 0.0 ], [ 150.578221760560183, -35.011531470561252, 0.0 ], [ 150.578086291928344, -35.011464234590015, 0.0 ], [ 150.577953276872506, -35.011395991844623, 0.0 ], [ 150.577822795254349, -35.011326783592224, 0.0 ], [ 150.577694925813319, -35.011256651979188, 0.0 ], [ 150.577572381384414, -35.011187159338448, 0.0 ], [ 150.57744990838475, -35.011115326899322, 0.0 ], [ 150.577330273867688, -35.011042699144227, 0.0 ], [ 150.577213549946435, -35.010969319890606, 0.0 ], [ 150.577099807612001, -35.010895233834994, 0.0 ], [ 150.576989115664503, -35.010820485630191, 0.0 ], [ 150.576881540686998, -35.010745120786204, 0.0 ], [ 150.576777149235198, -35.010669185713965, 0.0 ], [ 150.576678120439709, -35.010594356506182, 0.0 ], [ 150.576580210022144, -35.010517427514557, 0.0 ], [ 150.576485664258399, -35.010440064452204, 0.0 ], [ 150.576394541983689, -35.010362315378444, 0.0 ], [ 150.576306895489012, -35.010284227320291, 0.0 ], [ 150.576222780350008, -35.010205847370223, 0.0 ], [ 150.576142246666763, -35.01012722251118, 0.0 ], [ 150.576065343390695, -35.010048401505799, 0.0 ], [ 150.57599363558802, -35.00997111309244, 0.0 ], [ 150.575924050211285, -35.009892043387254, 0.0 ], [ 150.575858226896742, -35.009812919011367, 0.0 ], [ 150.575796205834223, -35.0097337885515, 0.0 ], [ 150.575738023954898, -35.009654699627426, 0.0 ], [ 150.575683717094677, -35.00957569983678, 0.0 ], [ 150.575633317777601, -35.009496837612218, 0.0 ], [ 150.575586857459115, -35.009418160463163, 0.0 ], [ 150.575545225614235, -35.009341381825898, 0.0 ], [ 150.575506639239279, -35.009263210880803, 0.0 ], [ 150.575472066518586, -35.009185367143523, 0.0 ], [ 150.575441530200351, -35.00910789614516, 0.0 ], [ 150.575415047477946, -35.009030846009793, 0.0 ], [ 150.575392635597922, -35.008954263059252, 0.0 ], [ 150.575374308495299, -35.008878194450283, 0.0 ], [ 150.575360074709977, -35.008802684526934, 0.0 ], [ 150.575350118250697, -35.008729367718061, 0.0 ], [ 150.575344011495986, -35.008655100182999, 0.0 ], [ 150.575342018124587, -35.008581526956803, 0.0 ], [ 150.5753441389854, -35.008508693129627, 0.0 ], [ 150.57535037273766, -35.008436643747523, 0.0 ], [ 150.57536071705232, -35.008365420230469, 0.0 ], [ 150.575375162924161, -35.008295067470485, 0.0 ], [ 150.575393704713207, -35.008225627722055, 0.0 ], [ 150.575415805427667, -35.008158589386575, 0.0 ], [ 150.575442412177381, -35.008091078590418, 0.0 ], [ 150.575473073889981, -35.008024605283602, 0.0 ], [ 150.57550776970362, -35.007959207808923, 0.0 ], [ 150.575546479798504, -35.007894926332604, 0.0 ], [ 150.575589181097143, -35.007831800053893, 0.0 ], [ 150.575635846169178, -35.007769867183264, 0.0 ], [ 150.575686448706278, -35.007709165051814, 0.0 ], [ 150.575739756442289, -35.007650981562314, 0.0 ], [ 150.575798055074216, -35.007592822959822, 0.0 ], [ 150.575860191578016, -35.007536002167598, 0.0 ], [ 150.575926128777638, -35.00748055359395, 0.0 ], [ 150.575995827334253, -35.007426510702231, 0.0 ], [ 150.576069244624591, -35.007373906889946, 0.0 ], [ 150.576146334794373, -35.00732277368683, 0.0 ], [ 150.576227053084807, -35.007273142644323, 0.0 ], [ 150.576309518400478, -35.007226049818073, 0.0 ], [ 150.576397267852144, -35.007179476273201, 0.0 ], [ 150.576488492750201, -35.0071344919631, 0.0 ], [ 150.576583137548283, -35.007091122814231, 0.0 ], [ 150.576681144483985, -35.007049395610196, 0.0 ], [ 150.576782455848758, -35.007009335332683, 0.0 ], [ 150.57688700845992, -35.006970966853864, 0.0 ], [ 150.576994740309971, -35.006934312365082, 0.0 ], [ 150.577103195982318, -35.006900118811743, 0.0 ], [ 150.577217023611837, -35.006866921289159, 0.0 ], [ 150.577333830306685, -35.006835501343609, 0.0 ], [ 150.577453545381758, -35.006805878288731, 0.0 ], [ 150.577576096015747, -35.006778069592698, 0.0 ], [ 150.577701407224538, -35.00675209177912, 0.0 ], [ 150.577829405146161, -35.006727960492647, 0.0 ], [ 150.577960011512658, -35.006705692191609, 0.0 ], [ 150.578090287378615, -35.006685712281595, 0.0 ], [ 150.578225819367873, -35.006667165016651, 0.0 ], [ 150.57836371992471, -35.006650516490119, 0.0 ], [ 150.578503904399099, -35.006635776723478, 0.0 ], [ 150.57864628926319, -35.006622954859388, 0.0 ], [ 150.578790786689183, -35.006612057250621, 0.0 ], [ 150.578937311013107, -35.006603091194833, 0.0 ], [ 150.579085772217923, -35.006596063001759, 0.0 ], [ 150.579232864336575, -35.006591063550353, 0.0 ], [ 150.579384892389811, -35.006587879701001, 0.0 ], [ 150.579538587566674, -35.006586642735407, 0.0 ], [ 150.579693855683729, -35.006587351669886, 0.0 ], [ 150.57985060247816, -35.006590008224002, 0.0 ], [ 150.580008733819994, -35.006594609613046, 0.0 ], [ 150.580168154484483, -35.006601153030921, 0.0 ], [ 150.580328765988526, -35.006609634705555, 0.0 ], [ 150.580487021408544, -35.006619808105889, 0.0 ], [ 150.58064970513874, -35.006632109631752, 0.0 ], [ 150.580813288878034, -35.006646330080024, 0.0 ], [ 150.580977673181138, -35.006662461154072, 0.0 ], [ 150.581142760819205, -35.006680493700514, 0.0 ], [ 150.581474639929695, -35.006722217240949, 0.0 ], [ 150.581804568803932, -35.006770837788437, 0.0 ], [ 150.582138843059795, -35.006827283141675, 0.0 ], [ 150.582473111733322, -35.006890931991386, 0.0 ], [ 150.582806565368031, -35.00696163118775, 0.0 ], [ 150.583134879313832, -35.007038348041199, 0.0 ], [ 150.583464315886658, -35.007122546918453, 0.0 ], [ 150.583790537190367, -35.007213235439501, 0.0 ], [ 150.584112753246586, -35.007310193266427, 0.0 ], [ 150.584426835267948, -35.007412059038487, 0.0 ], [ 150.584738775083707, -35.007520777583835, 0.0 ], [ 150.585044413349436, -35.007635020293122, 0.0 ], [ 150.585194636931504, -35.007694127014098, 0.0 ], [ 150.585343009894785, -35.007754511056355, 0.0 ], [ 150.585630790215987, -35.007877611661208, 0.0 ], [ 150.585773120150236, -35.007941578146749, 0.0 ], [ 150.585913246712465, -35.008006671628408, 0.0 ], [ 150.586051086726115, -35.008072851695601, 0.0 ], [ 150.586186556987428, -35.00814007883892, 0.0 ], [ 150.586319574318367, -35.008208312648222, 0.0 ], [ 150.586450058851767, -35.008277511877999, 0.0 ], [ 150.586577931841077, -35.008347634403727, 0.0 ], [ 150.586700480347503, -35.008417118109023, 0.0 ], [ 150.586822958121218, -35.008488941397843, 0.0 ], [ 150.586942598015355, -35.008561560003734, 0.0 ], [ 150.587059327903688, -35.008634930131457, 0.0 ], [ 150.587173076780772, -35.008709007106575, 0.0 ], [ 150.587283775830571, -35.008783746298271, 0.0 ], [ 150.587391358452891, -35.008859102218302, 0.0 ], [ 150.587495758046941, -35.008935029378463, 0.0 ], [ 150.58759479535226, -35.009009849187542, 0.0 ], [ 150.587692714889357, -35.009086770548926, 0.0 ], [ 150.587787270287123, -35.009164124352544, 0.0 ], [ 150.587878402607657, -35.00924186526229, 0.0 ], [ 150.587966059561978, -35.009319945369676, 0.0 ], [ 150.588050185522746, -35.009398318502718, 0.0 ], [ 150.588130730443027, -35.009476934994247, 0.0 ], [ 150.588207645264703, -35.009555748802512, 0.0 ], [ 150.58827936463851, -35.009633031350489, 0.0 ], [ 150.588348962140884, -35.009712094442442, 0.0 ], [ 150.588414797857325, -35.009791211623437, 0.0 ], [ 150.588476831514924, -35.009870336123939, 0.0 ], [ 150.588535026178562, -35.00994941943754, 0.0 ], [ 150.588589345981433, -35.010028413980301, 0.0 ], [ 150.588639757273, -35.01010727131046, 0.0 ], [ 150.588686231851312, -35.010185943995822, 0.0 ], [ 150.588727875547534, -35.010262718606491, 0.0 ], [ 150.588766476276732, -35.010340885884943, 0.0 ], [ 150.588801062256437, -35.010418726350252, 0.0 ], [ 150.588831611801623, -35.010496194501215, 0.0 ], [ 150.588858107686775, -35.010573242220502, 0.0 ], [ 150.588880532633397, -35.010649823192239, 0.0 ], [ 150.588898872648258, -35.010725891165485, 0.0 ], [ 150.588913118144859, -35.010801399075021, 0.0 ], [ 150.588923086928133, -35.010874715250303, 0.0 ], [ 150.588929207125545, -35.010948983505862, 0.0 ], [ 150.588931212647793, -35.011022556079375, 0.0 ], [ 150.588929103632097, -35.011095390604581, 0.0 ], [ 150.588922881390431, -35.011167442033745, 0.0 ], [ 150.588912548303568, -35.011238666241468, 0.0 ], [ 150.588898112175031, -35.011309021012629, 0.0 ], [ 150.588879581930058, -35.011378463252527, 0.0 ], [ 150.588857491041125, -35.011445504422078, 0.0 ], [ 150.588830892801724, -35.011513018511252, 0.0 ], [ 150.588800241301215, -35.011579496471406, 0.0 ], [ 150.588765554147528, -35.01164489808329, 0.0 ], [ 150.588726852207856, -35.011709184093483, 0.0 ], [ 150.588684158566394, -35.011772314390839, 0.0 ], [ 150.588637500582166, -35.011834252554713, 0.0 ], [ 150.588586904572679, -35.01189496034047, 0.0 ], [ 150.588533602667894, -35.011953149700247, 0.0 ], [ 150.588475309383483, -35.012011315530955, 0.0 ], [ 150.588413177650665, -35.012068142968104, 0.0 ], [ 150.588347243512374, -35.012123598466516, 0.0 ], [ 150.588277549609046, -35.012177647710431, 0.0 ], [ 150.588204135217069, -35.012230259021422, 0.0 ], [ 150.588127047305505, -35.012281399972203, 0.0 ], [ 150.588046330600918, -35.012331039893738, 0.0 ], [ 150.587963866234389, -35.012378140732736, 0.0 ], [ 150.587876117133959, -35.012424721753085, 0.0 ], [ 150.58778489190783, -35.012469714610951, 0.0 ], [ 150.587690246129824, -35.012513092458185, 0.0 ], [ 150.58759223646959, -35.012554828468289, 0.0 ], [ 150.58749092392469, -35.012594897703721, 0.0 ], [ 150.587386367276764, -35.012633276084259, 0.0 ], [ 150.587278631878462, -35.012669939660334, 0.0 ], [ 150.587170173250172, -35.012704141270014, 0.0 ], [ 150.587056340846573, -35.012737347942917, 0.0 ], [ 150.586939528774622, -35.012768777037671, 0.0 ], [ 150.586819807732439, -35.012798409218448, 0.0 ], [ 150.586697250529312, -35.012826227895921, 0.0 ], [ 150.586571931149678, -35.012852213799853, 0.0 ], [ 150.586443926678385, -35.012876354032024, 0.0 ], [ 150.586313312116516, -35.012898632047111, 0.0 ], [ 150.586183027793822, -35.012918619553879, 0.0 ], [ 150.586047485563455, -35.012937175328197, 0.0 ], [ 150.585909576494117, -35.012953832234324, 0.0 ], [ 150.585769381973932, -35.012968580165044, 0.0 ], [ 150.585626986623595, -35.012981410880769, 0.0 ], [ 150.585482477280863, -35.012992315284762, 0.0 ], [ 150.585335942841482, -35.01300128882896, 0.0 ], [ 150.585187470090972, -35.013008324219186, 0.0 ], [ 150.585040366374756, -35.01301333043692, 0.0 ], [ 150.58488832619588, -35.013016520899498, 0.0 ], [ 150.584734618617119, -35.013017765059971, 0.0 ], [ 150.584579337931444, -35.013017061183959, 0.0 ], [ 150.584422578352729, -35.013014410240267, 0.0 ], [ 150.584264434068245, -35.013009814099078, 0.0 ], [ 150.584105000334205, -35.0130032755538, 0.0 ], [ 150.583944375665396, -35.012994798364652, 0.0 ], [ 150.583786107299062, -35.012984628969129, 0.0 ], [ 150.583623410283138, -35.012972332032724, 0.0 ], [ 150.583459813284691, -35.012958114856382, 0.0 ], [ 150.583295415781237, -35.012941985728808, 0.0 ], [ 150.583130314980451, -35.012923955598417, 0.0 ], [ 150.582798409864523, -35.012882235573514, 0.0 ], [ 150.582468455886527, -35.012833616750619, 0.0 ], [ 150.582134157105656, -35.012777172252306, 0.0 ], [ 150.58179986507642, -35.012713520657456, 0.0 ], [ 150.581466388307092, -35.012642817814715, 0.0 ], [ 150.581138055181697, -35.012566095679411, 0.0 ] ] ] ] } },
{ "type": "Feature", "properties": { "OBJECTID": 2, "Shape_Leng": 2984.0351310400001, "Type": "Proposed Crossing Zone", "name": "Crossing Zone 2", "Comments": null, "ECMLink": null, "FSource": "Digitised by Stantec (2026) from the 'Greater Glider Connectivity Strategy' developed by WSP 2024", "SourceDate": "2026-02-04T00:00:00Z", "PlanAccur": null, "Supplier": "Stantec Australia Pty Ltd (3045)", "Shape_Length": 2983.9381691527715, "Shape_Area": 590761.4298072136 }, "geometry": { "type": "MultiPolygon", "coordinates": [ [ [ [ 150.57849428317445, -35.022243323543442, 0.0 ], [ 150.57882774655576, -35.022250346545334, 0.0 ], [ 150.579160292751681, -35.022263985098732, 0.0 ], [ 150.579491118505786, -35.022284205153468, 0.0 ], [ 150.579815943429509, -35.022310640058798, 0.0 ], [ 150.580140967243807, -35.022343792170417, 0.0 ], [ 150.58046189414847, -35.022383334201564, 0.0 ], [ 150.580777946851413, -35.022429168649197, 0.0 ], [ 150.581085091342942, -35.022480599401177, 0.0 ], [ 150.581389185575119, -35.022538607842911, 0.0 ], [ 150.581538608432908, -35.022569840159193, 0.0 ], [ 150.581686160516028, -35.022602533227179, 0.0 ], [ 150.581831752554649, -35.022636667244747, 0.0 ], [ 150.58197529640006, -35.022672221530954, 0.0 ], [ 150.582116705051391, -35.022709173625152, 0.0 ], [ 150.582252956048819, -35.022746672701579, 0.0 ], [ 150.582389888886524, -35.022786326196503, 0.0 ], [ 150.582524436502581, -35.022827309436138, 0.0 ], [ 150.582656515285606, -35.022869596422531, 0.0 ], [ 150.582786047046511, -35.022913163068921, 0.0 ], [ 150.582912953675304, -35.022957982585872, 0.0 ], [ 150.583037155992713, -35.023004027261351, 0.0 ], [ 150.583158580268332, -35.023051270393474, 0.0 ], [ 150.583274660932091, -35.023098639511062, 0.0 ], [ 150.583390373525873, -35.023148167406283, 0.0 ], [ 150.583503094788313, -35.02319880569712, 0.0 ], [ 150.583612754404953, -35.023250523242702, 0.0 ], [ 150.583719288605408, -35.023303289933985, 0.0 ], [ 150.583822630412698, -35.023357072893667, 0.0 ], [ 150.583922719420514, -35.023411839375264, 0.0 ], [ 150.584019494100232, -35.023467557511331, 0.0 ], [ 150.58411094306777, -35.023522978381344, 0.0 ], [ 150.584200988584996, -35.023580477052946, 0.0 ], [ 150.584287550730295, -35.023638824873821, 0.0 ], [ 150.584370577935942, -35.023697986568621, 0.0 ], [ 150.584450018686681, -35.023757925059932, 0.0 ], [ 150.584525826889916, -35.02381860518102, 0.0 ], [ 150.584597954315086, -35.023879989919514, 0.0 ], [ 150.584666359302531, -35.023942042393593, 0.0 ], [ 150.58472966325877, -35.024003384762061, 0.0 ], [ 150.584790579964221, -35.02406664565666, 0.0 ], [ 150.584847656970226, -35.024130461990545, 0.0 ], [ 150.584900859292873, -35.024194793407879, 0.0 ], [ 150.584950155154104, -35.024259602320789, 0.0 ], [ 150.584995513950247, -35.024324848460026, 0.0 ], [ 150.585036909458211, -35.024390491643238, 0.0 ], [ 150.585074315375238, -35.024456494390485, 0.0 ], [ 150.585107040308031, -35.02452140059512, 0.0 ], [ 150.585136487232774, -35.024587993973235, 0.0 ], [ 150.585161885636069, -35.024654825856487, 0.0 ], [ 150.585183218055505, -35.024721856235118, 0.0 ], [ 150.58520047365306, -35.024789043427873, 0.0 ], [ 150.585213640415844, -35.024856348434113, 0.0 ], [ 150.585222710817817, -35.024923728736262, 0.0 ], [ 150.585227679417329, -35.024991145463702, 0.0 ], [ 150.585228567746555, -35.025057121544222, 0.0 ], [ 150.585225413061522, -35.025124487418225, 0.0 ], [ 150.585218155768104, -35.025191767101887, 0.0 ], [ 150.585206798144441, -35.025258920073661, 0.0 ], [ 150.58519134906652, -35.025325905041555, 0.0 ], [ 150.585171817384207, -35.025392681614065, 0.0 ], [ 150.585148214111229, -35.025459210343847, 0.0 ], [ 150.585120553626922, -35.025525449145782, 0.0 ], [ 150.585089570792235, -35.025589961290152, 0.0 ], [ 150.585053934981772, -35.025655510313797, 0.0 ], [ 150.58501429907227, -35.025720652444882, 0.0 ], [ 150.584970688369879, -35.025785346715821, 0.0 ], [ 150.584923128101508, -35.02584955486148, 0.0 ], [ 150.584871646806647, -35.025913237780905, 0.0 ], [ 150.584816276310875, -35.025976356438228, 0.0 ], [ 150.584757050604054, -35.026038872741864, 0.0 ], [ 150.584695385738456, -35.026099440151995, 0.0 ], [ 150.584628637656465, -35.026160654512204, 0.0 ], [ 150.584558147235185, -35.02622115426238, 0.0 ], [ 150.584483957148677, -35.026280904187189, 0.0 ], [ 150.584406113383693, -35.026339868235567, 0.0 ], [ 150.584324660885272, -35.026398008532595, 0.0 ], [ 150.584239651011302, -35.026455292739691, 0.0 ], [ 150.584151134157565, -35.026511683991558, 0.0 ], [ 150.584061156727273, -35.026565978121688, 0.0 ], [ 150.583965860565002, -35.026620504279393, 0.0 ], [ 150.583867224750577, -35.026674037123136, 0.0 ], [ 150.583765307163048, -35.026726546246529, 0.0 ], [ 150.583660169047334, -35.02677799860578, 0.0 ], [ 150.583551877072097, -35.026828363068091, 0.0 ], [ 150.58344049349904, -35.026877609314283, 0.0 ], [ 150.583326087162078, -35.026925707156138, 0.0 ], [ 150.58321125559857, -35.026971642815042, 0.0 ], [ 150.583091073984491, -35.027017384305104, 0.0 ], [ 150.582968081428419, -35.027061892341514, 0.0 ], [ 150.582842352110021, -35.027105141350262, 0.0 ], [ 150.582713962426624, -35.027147104900116, 0.0 ], [ 150.582582989871355, -35.027187756581924, 0.0 ], [ 150.582449514048847, -35.027227072733133, 0.0 ], [ 150.582313615685933, -35.027265028812337, 0.0 ], [ 150.582178341522393, -35.027300839074904, 0.0 ], [ 150.582037892869778, -35.027336038497658, 0.0 ], [ 150.581895271315034, -35.027369811586119, 0.0 ], [ 150.581750562930722, -35.027402138413812, 0.0 ], [ 150.58160385488506, -35.027432999076382, 0.0 ], [ 150.581455235362398, -35.027462376394489, 0.0 ], [ 150.581304797008244, -35.027490250573699, 0.0 ], [ 150.581002111517932, -35.027540914090942, 0.0 ], [ 150.580690024169911, -35.027585956175344, 0.0 ], [ 150.580372508169006, -35.027624690680057, 0.0 ], [ 150.58005033457502, -35.02765702387174, 0.0 ], [ 150.579727770445771, -35.027682637011722, 0.0 ], [ 150.579398658942978, -35.02770201750814, 0.0 ], [ 150.579067248476889, -35.027714810198646, 0.0 ], [ 150.578734341197247, -35.027720982401156, 0.0 ], [ 150.578404293740448, -35.02772055979333, 0.0 ], [ 150.578070808253386, -35.027713534727233, 0.0 ], [ 150.577738240377869, -35.027699892302707, 0.0 ], [ 150.577407393579989, -35.027679666607384, 0.0 ], [ 150.57708254866219, -35.027653224433699, 0.0 ], [ 150.576757505667217, -35.027620063340102, 0.0 ], [ 150.576436560800943, -35.027580510769504, 0.0 ], [ 150.576120491529281, -35.027534664326957, 0.0 ], [ 150.575813333268542, -35.02748322041105, 0.0 ], [ 150.575509224605668, -35.027425197415141, 0.0 ], [ 150.575359795757635, -35.027393957421886, 0.0 ], [ 150.575212238155615, -35.027361256427618, 0.0 ], [ 150.575066641082913, -35.027327114253666, 0.0 ], [ 150.574923092700317, -35.027291551600719, 0.0 ], [ 150.574781680019697, -35.027254590949696, 0.0 ], [ 150.574645425579888, -35.027217083334293, 0.0 ], [ 150.57450848974554, -35.027177420967888, 0.0 ], [ 150.57437393966606, -35.027136428729484, 0.0 ], [ 150.574241858958857, -35.027094132639, 0.0 ], [ 150.57411232581768, -35.027050556805136, 0.0 ], [ 150.573985419451077, -35.02700572806144, 0.0 ], [ 150.573861215754647, -35.026959674076821, 0.0 ], [ 150.573739791745311, -35.026912421641214, 0.0 ], [ 150.573623711873864, -35.026865043424039, 0.0 ], [ 150.573508000631335, -35.026815506259602, 0.0 ], [ 150.573395281264197, -35.026764858750333, 0.0 ], [ 150.573285624082388, -35.026713132059555, 0.0 ], [ 150.57317909285041, -35.026660356318267, 0.0 ], [ 150.573075754538053, -35.026606564425883, 0.0 ], [ 150.572975669543041, -35.026551789150332, 0.0 ], [ 150.572878899384506, -35.026496062380438, 0.0 ], [ 150.572787455323606, -35.026440633235559, 0.0 ], [ 150.572697415299643, -35.026383126308204, 0.0 ], [ 150.572610859119834, -35.026324770452689, 0.0 ], [ 150.572527838337408, -35.026265600963775, 0.0 ], [ 150.572448404451904, -35.026205654937861, 0.0 ], [ 150.572372603566095, -35.026144966658769, 0.0 ], [ 150.572300483839513, -35.026083574958562, 0.0 ], [ 150.572232086913232, -35.026021516735703, 0.0 ], [ 150.572168791230723, -35.025960168176766, 0.0 ], [ 150.572107883324406, -35.025896901296825, 0.0 ], [ 150.572050815445976, -35.025833079335271, 0.0 ], [ 150.57199762255695, -35.025768742661583, 0.0 ], [ 150.571948336412703, -35.025703928876361, 0.0 ], [ 150.57190298759329, -35.025638678260712, 0.0 ], [ 150.571861602297446, -35.025573031007696, 0.0 ], [ 150.571824207898857, -35.025507024629171, 0.0 ], [ 150.571791492252061, -35.025442115239031, 0.0 ], [ 150.571762056092837, -35.025375519057171, 0.0 ], [ 150.571736668589494, -35.025308684809893, 0.0 ], [ 150.571715347178014, -35.025241652512939, 0.0 ], [ 150.571698102669586, -35.025174463851968, 0.0 ], [ 150.571684947050613, -35.025107157831364, 0.0 ], [ 150.571675887819765, -35.025039776971077, 0.0 ], [ 150.571670930392003, -35.02497236014311, 0.0 ], [ 150.571670052971029, -35.024906384407501, 0.0 ], [ 150.571673218748884, -35.024839019338124, 0.0 ], [ 150.571680487055204, -35.024771740914041, 0.0 ], [ 150.571691855585271, -35.024704589653972, 0.0 ], [ 150.571707315436498, -35.024637606845566, 0.0 ], [ 150.571726857733069, -35.024570832875142, 0.0 ], [ 150.571750471435564, -35.024504307183804, 0.0 ], [ 150.571778142139152, -35.024438071849353, 0.0 ], [ 150.57180913474869, -35.02437356350584, 0.0 ], [ 150.571844780290434, -35.024308018772714, 0.0 ], [ 150.571884425649273, -35.024242881333173, 0.0 ], [ 150.57192804549598, -35.024178192143275, 0.0 ], [ 150.571975614581618, -35.024113989455977, 0.0 ], [ 150.572027104345352, -35.024050312359066, 0.0 ], [ 150.572082482940999, -35.023987199874206, 0.0 ], [ 150.572141716385772, -35.023924689177079, 0.0 ], [ 150.572203388377801, -35.023864129346116, 0.0 ], [ 150.572270143348192, -35.023802922109148, 0.0 ], [ 150.57234064021651, -35.023742429768077, 0.0 ], [ 150.572414836293234, -35.023682687520285, 0.0 ], [ 150.572492685577231, -35.023623731398125, 0.0 ], [ 150.572574143109705, -35.023565599257537, 0.0 ], [ 150.572659157520974, -35.023508323417197, 0.0 ], [ 150.572747678403971, -35.023451940722175, 0.0 ], [ 150.57283765927653, -35.023397655130957, 0.0 ], [ 150.572932958435501, -35.023343137844805, 0.0 ], [ 150.573031596713321, -35.023289613999722, 0.0 ], [ 150.573133516225084, -35.023237113980457, 0.0 ], [ 150.57323865572107, -35.023185670808751, 0.0 ], [ 150.573346949624579, -35.023135315616855, 0.0 ], [ 150.573458332386139, -35.023086078636076, 0.0 ], [ 150.573572738456875, -35.023037990097741, 0.0 ], [ 150.573687570323187, -35.022992063560295, 0.0 ], [ 150.573807749490868, -35.022946331317549, 0.0 ], [ 150.573930740151582, -35.0229018324995, 0.0 ], [ 150.57405646703512, -35.022858592636027, 0.0 ], [ 150.574184853750097, -35.022816638136121, 0.0 ], [ 150.574315822810405, -35.022775995387086, 0.0 ], [ 150.574449294620081, -35.022736688029788, 0.0 ], [ 150.57458518848847, -35.022698739683442, 0.0 ], [ 150.574720457718826, -35.022662938596739, 0.0 ], [ 150.574860900878093, -35.022627747429716, 0.0 ], [ 150.575003516467319, -35.022593982375881, 0.0 ], [ 150.575148219523697, -35.022561663364158, 0.0 ], [ 150.575294920704039, -35.022530810236255, 0.0 ], [ 150.575443531840733, -35.022501440153306, 0.0 ], [ 150.575593962496356, -35.022473572935816, 0.0 ], [ 150.575896631625199, -35.022422922258727, 0.0 ], [ 150.576208702141628, -35.022377891809263, 0.0 ], [ 150.576526197896754, -35.02233916741136, 0.0 ], [ 150.576848351301749, -35.022306842765843, 0.0 ], [ 150.577170895721878, -35.022281236464451, 0.0 ], [ 150.577499984464055, -35.022261861114004, 0.0 ], [ 150.577831372832975, -35.022249071810045, 0.0 ], [ 150.578164257797653, -35.022242901180036, 0.0 ], [ 150.57849428317445, -35.022243323543442, 0.0 ] ] ] ] } },
{ "type": "Feature", "properties": { "OBJECTID": 3, "Shape_Leng": 1815.8629263400001, "Type": "Proposed Crossing Zone", "name": "Crossing Zone 3", "Comments": null, "ECMLink": null, "FSource": "Digitised by Stantec (2026) from the 'Greater Glider Connectivity Strategy' developed by WSP 2024", "SourceDate": "2026-02-04T00:00:00Z", "PlanAccur": null, "Supplier": "Stantec Australia Pty Ltd (3045)", "Shape_Length": 1815.7927124060641, "Shape_Area": 210127.03937705851 }, "geometry": { "type": "MultiPolygon", "coordinates": [ [ [ [ 150.582950403621339, -35.038589445319857, 0.0 ], [ 150.582745322449881, -35.038566616975281, 0.0 ], [ 150.582541307915733, -35.03854006757728, 0.0 ], [ 150.582338853548634, -35.038509861960492, 0.0 ], [ 150.582140568913331, -35.038476451512189, 0.0 ], [ 150.581942670640785, -35.03843919829945, 0.0 ], [ 150.581747783117351, -35.03839853417545, 0.0 ], [ 150.581556376999288, -35.038354555983403, 0.0 ], [ 150.581370889002898, -35.038307889276233, 0.0 ], [ 150.58118777884664, -35.038257644036079, 0.0 ], [ 150.581009507899608, -35.038204427378339, 0.0 ], [ 150.580836506441187, -35.03814836690136, 0.0 ], [ 150.580670943698465, -35.03809023789271, 0.0 ], [ 150.580509659596885, -35.038028931636894, 0.0 ], [ 150.580354855630617, -35.037965206937621, 0.0 ], [ 150.580206907540202, -35.037899219157175, 0.0 ], [ 150.580067631402898, -35.037831861851956, 0.0 ], [ 150.579934371004725, -35.03776185154657, 0.0 ], [ 150.57980898334705, -35.037690069090779, 0.0 ], [ 150.579691774509485, -35.037616690092548, 0.0 ], [ 150.579584138247611, -35.037542693436535, 0.0 ], [ 150.579484021627394, -35.037466668849596, 0.0 ], [ 150.579392869028453, -35.037389588110749, 0.0 ], [ 150.579310902897959, -35.037311637775552, 0.0 ], [ 150.579239042012546, -35.037233846742055, 0.0 ], [ 150.57917591738115, -35.037154730034558, 0.0 ], [ 150.57912250270752, -35.037075312234727, 0.0 ], [ 150.579099477948688, -35.037035551539759, 0.0 ], [ 150.579078928154161, -35.036995787063312, 0.0 ], [ 150.579060864625006, -35.036956044273133, 0.0 ], [ 150.57904560482072, -35.03691719040431, 0.0 ], [ 150.579032492046878, -35.036877559967522, 0.0 ], [ 150.579021895219569, -35.03683802212624, 0.0 ], [ 150.579013820189516, -35.03679860133736, 0.0 ], [ 150.579008270669846, -35.036759320211956, 0.0 ], [ 150.579005251389304, -35.036720204085668, 0.0 ], [ 150.579004762748355, -35.036681276404636, 0.0 ], [ 150.57900680626949, -35.036642559735732, 0.0 ], [ 150.579011256314828, -35.036604894437737, 0.0 ], [ 150.579018304127146, -35.036566665302118, 0.0 ], [ 150.579027874349691, -35.036528717296981, 0.0 ], [ 150.579039963001691, -35.036491073780169, 0.0 ], [ 150.579054562869544, -35.036453756241976, 0.0 ], [ 150.579071663400441, -35.036416787908792, 0.0 ], [ 150.579091255137058, -35.036380192028673, 0.0 ], [ 150.579113326484617, -35.036343990004013, 0.0 ], [ 150.57913731522703, -35.03630896029091, 0.0 ], [ 150.579164252075685, -35.036273601795571, 0.0 ], [ 150.579193622771442, -35.036238702044258, 0.0 ], [ 150.579225411365172, -35.036204281450388, 0.0 ], [ 150.579259597473225, -35.036170362141689, 0.0 ], [ 150.579335079922203, -35.036104105057021, 0.0 ], [ 150.579418936440533, -35.036040760926852, 0.0 ], [ 150.579512767809746, -35.03597912037101, 0.0 ], [ 150.579615494752801, -35.035920027228826, 0.0 ], [ 150.579726866471503, -35.035863623410549, 0.0 ], [ 150.579845296338533, -35.035810601102497, 0.0 ], [ 150.579973046793128, -35.035759948017287, 0.0 ], [ 150.580108575697693, -35.035712371650384, 0.0 ], [ 150.580251556308951, -35.035667988054989, 0.0 ], [ 150.580400010146747, -35.035627323848296, 0.0 ], [ 150.580556768074246, -35.035589603438822, 0.0 ], [ 150.580719892681827, -35.035555373193297, 0.0 ], [ 150.580888988091687, -35.035524715335541, 0.0 ], [ 150.581061759037112, -35.03549797258831, 0.0 ], [ 150.581241502060664, -35.035474633750511, 0.0 ], [ 150.581425953027406, -35.035455063801841, 0.0 ], [ 150.581614665596476, -35.035439309710945, 0.0 ], [ 150.581805114746345, -35.03542751492261, 0.0 ], [ 150.582000935991005, -35.03541945533631, 0.0 ], [ 150.582199625554665, -35.035415297359087, 0.0 ], [ 150.582400703112427, -35.035415051234004, 0.0 ], [ 150.58260151259401, -35.035418658594885, 0.0 ], [ 150.582805886974569, -35.035426186829142, 0.0 ], [ 150.583011179378843, -35.035437600293321, 0.0 ], [ 150.583216895235751, -35.035452871999226, 0.0 ], [ 150.583420348242385, -35.035471741979578, 0.0 ], [ 150.583625421980599, -35.035494568885532, 0.0 ], [ 150.583829429456273, -35.03552111617698, 0.0 ], [ 150.584031877207934, -35.035551319039719, 0.0 ], [ 150.584230155796945, -35.03558472615218, 0.0 ], [ 150.584428048521062, -35.035621975407892, 0.0 ], [ 150.584622931115376, -35.035662635024657, 0.0 ], [ 150.584814332971405, -35.035706608202823, 0.0 ], [ 150.584999817448079, -35.035753269498542, 0.0 ], [ 150.5851829247853, -35.035803508865698, 0.0 ], [ 150.585361193683013, -35.035856719301663, 0.0 ], [ 150.585534193881642, -35.035912773268279, 0.0 ], [ 150.585699756167031, -35.035970895613708, 0.0 ], [ 150.585861040608222, -35.036032194974709, 0.0 ], [ 150.586015845717043, -35.036095912684857, 0.0 ], [ 150.586163795741754, -35.036161893449624, 0.0 ], [ 150.586303073484828, -35.036229242931476, 0.0 ], [ 150.586436338398386, -35.036299247292625, 0.0 ], [ 150.586561729121058, -35.036371023034199, 0.0 ], [ 150.586678943887875, -35.036444395601293, 0.0 ], [ 150.586786585549248, -35.036518386169881, 0.0 ], [ 150.586886708198193, -35.036594404963104, 0.0 ], [ 150.586977866246571, -35.036671480303291, 0.0 ], [ 150.587059840470033, -35.036749425752511, 0.0 ], [ 150.587131707562264, -35.036827212416704, 0.0 ], [ 150.587194840982221, -35.036906325307626, 0.0 ], [ 150.587248263588805, -35.036985739864782, 0.0 ], [ 150.587271292380052, -35.03702549917184, 0.0 ], [ 150.58729184623806, -35.037065262420668, 0.0 ], [ 150.587309913851811, -35.037105004146419, 0.0 ], [ 150.587325177664809, -35.037143857134048, 0.0 ], [ 150.587338293440638, -35.037183486814726, 0.0 ], [ 150.587348894356893, -35.037223024091475, 0.0 ], [ 150.587356974553046, -35.037262444508762, 0.0 ], [ 150.587362528115392, -35.037301725412732, 0.0 ], [ 150.58736555140058, -35.037340841490199, 0.0 ], [ 150.587366043998571, -35.03737976929505, 0.0 ], [ 150.587364004377321, -35.037418486260172, 0.0 ], [ 150.587359558084415, -35.037456152014322, 0.0 ], [ 150.587352514031096, -35.037494381784754, 0.0 ], [ 150.587342946387395, -35.037532330571878, 0.0 ], [ 150.587330861315792, -35.037569975059576, 0.0 ], [ 150.587316266021389, -35.037607293755244, 0.0 ], [ 150.587299168857754, -35.037644263386049, 0.0 ], [ 150.587279580369369, -35.037680860722602, 0.0 ], [ 150.587257512143196, -35.037717064359022, 0.0 ], [ 150.58723352632569, -35.037752095796179, 0.0 ], [ 150.587206592325458, -35.037787456198771, 0.0 ], [ 150.587177224329707, -35.037822357999886, 0.0 ], [ 150.587145438281112, -35.037856780781226, 0.0 ], [ 150.587111254556987, -35.037890702409705, 0.0 ], [ 150.587035776370072, -35.037956964508226, 0.0 ], [ 150.586951922276143, -35.038020314028032, 0.0 ], [ 150.586858093725937, -35.038081960456857, 0.0 ], [ 150.586755369927545, -35.038141059842665, 0.0 ], [ 150.586643999468578, -35.038197470171298, 0.0 ], [ 150.586525568963509, -35.038250499120743, 0.0 ], [ 150.586397819264675, -35.038301159122625, 0.0 ], [ 150.586262289217643, -35.038348742478611, 0.0 ], [ 150.586119306672089, -35.038393133089691, 0.0 ], [ 150.585970850186158, -35.038433803296066, 0.0 ], [ 150.585814088785639, -35.038471531473455, 0.0 ], [ 150.585650960017688, -35.038505768411369, 0.0 ], [ 150.585481859773921, -35.038536432722076, 0.0 ], [ 150.585309083429053, -35.038563181556732, 0.0 ], [ 150.585129333281373, -35.038586526166455, 0.0 ], [ 150.584944875769764, -35.038606101491943, 0.0 ], [ 150.584756157298472, -35.038621860512471, 0.0 ], [ 150.58456569975101, -35.038633659626441, 0.0 ], [ 150.584369871908592, -35.038641723072999, 0.0 ], [ 150.584171174412035, -35.038645884292904, 0.0 ], [ 150.583970088758321, -35.038646133033509, 0.0 ], [ 150.583769271183371, -35.038642527618293, 0.0 ], [ 150.583564888616507, -35.038635000682788, 0.0 ], [ 150.583359588098944, -35.038623587833484, 0.0 ], [ 150.58315386430678, -35.038608315151649, 0.0 ], [ 150.582950403621339, -35.038589445319857, 0.0 ] ] ] ] } }
]
}
