{
"type": "FeatureCollection",
"name": "JBR2HR_Study area",
"crs": { "type": "name", "properties": { "name": "urn:ogc:def:crs:OGC:1.3:CRS84" } },
"xy_coordinate_resolution": 1e-15,
"features": [
{ "type": "Feature", "properties": { "OBJECTID": 1, "Comments": "Jervis Bay Rd to Hawken Road Study Area Proposed (TfNSW)\r\n", "ECMLink": null, "FSource": "TfNSW", "SourceDate": "2026-02-04T00:00:00Z", "PlanAccur": null, "Supplier": "Stantec Australia Pty Ltd (3045)", "Shape_Length": 19181.717641575007, "Shape_Area": 1947263.0316048139 }, "geometry": { "type": "MultiPolygon", "coordinates": [ [ [ [ 150.58080973985625, -35.043084858830206, 0.0 ], [ 150.577677432568834, -35.04232121787058, 0.0 ], [ 150.577922059006681, -35.041076887203658, 0.0 ], [ 150.579082905956795, -35.041172802898195, 0.0 ], [ 150.579161970716115, -35.041017984067039, 0.0 ], [ 150.580094736672578, -35.039191460714044, 0.0 ], [ 150.581304591861596, -35.036822204208804, 0.0 ], [ 150.581302226824334, -35.036816361534257, 0.0 ], [ 150.579982779820483, -35.03349733752956, 0.0 ], [ 150.579519763763187, -35.032932847430892, 0.0 ], [ 150.578212358918307, -35.031988928349875, 0.0 ], [ 150.576779084918542, -35.030950374712575, 0.0 ], [ 150.576658054093599, -35.030866657957525, 0.0 ], [ 150.576495281045624, -35.030888808536993, 0.0 ], [ 150.575627619775645, -35.031006877142097, 0.0 ], [ 150.575579966684614, -35.024030078406803, 0.0 ], [ 150.575099070727362, -35.02396280810563, 0.0 ], [ 150.57530555920377, -35.022963888341629, 0.0 ], [ 150.575367611332155, -35.022663664244739, 0.0 ], [ 150.57520471484824, -35.022650404213742, 0.0 ], [ 150.575083348038419, -35.022640530818002, 0.0 ], [ 150.574745183810279, -35.022642329766484, 0.0 ], [ 150.574371003786069, -35.022630560757555, 0.0 ], [ 150.574132115795891, -35.022617228180657, 0.0 ], [ 150.573908698263807, -35.022608476615581, 0.0 ], [ 150.573737272452178, -35.022600769198341, 0.0 ], [ 150.573446144631106, -35.022594943334525, 0.0 ], [ 150.57312345196047, -35.022601328330843, 0.0 ], [ 150.57282624788877, -35.022625331390344, 0.0 ], [ 150.572559716526769, -35.022667067267932, 0.0 ], [ 150.57224564276396, -35.022733529094147, 0.0 ], [ 150.572237335916213, -35.022735803079982, 0.0 ], [ 150.572202005670107, -35.022510126944965, 0.0 ], [ 150.572120691266122, -35.021990708298922, 0.0 ], [ 150.57383617742795, -35.021892290410705, 0.0 ], [ 150.575489546279783, -35.021797412162712, 0.0 ], [ 150.575726040238578, -35.020905395120977, 0.0 ], [ 150.578563489535327, -35.019981913374679, 0.0 ], [ 150.578869996702707, -35.019320569776241, 0.0 ], [ 150.578888787687987, -35.019280023787232, 0.0 ], [ 150.578974093131905, -35.018843966406145, 0.0 ], [ 150.579140029393159, -35.018868290580393, 0.0 ], [ 150.57947936035356, -35.01891741522374, 0.0 ], [ 150.579656353939527, -35.018083566762435, 0.0 ], [ 150.57965490035167, -35.018083363774906, 0.0 ], [ 150.579301383764658, -35.018034081890924, 0.0 ], [ 150.579301784623141, -35.018032007507713, 0.0 ], [ 150.579584316581958, -35.016571259155647, 0.0 ], [ 150.57946664820642, -35.016216026422178, 0.0 ], [ 150.579326245104852, -35.016196450130458, 0.0 ], [ 150.579434626643348, -35.015670390635975, 0.0 ], [ 150.579307388321155, -35.015221630903874, 0.0 ], [ 150.578399037476402, -35.015108117250108, 0.0 ], [ 150.578558850448871, -35.01433523746114, 0.0 ], [ 150.5800810506679, -35.014525973138809, 0.0 ], [ 150.580175886334473, -35.014099234557428, 0.0 ], [ 150.580361644496804, -35.013263354913377, 0.0 ], [ 150.58076814260113, -35.011434117128879, 0.0 ], [ 150.579407054677176, -35.011222106135541, 0.0 ], [ 150.57960804305867, -35.010144092005852, 0.0 ], [ 150.580193283950734, -35.010225253420479, 0.0 ], [ 150.58079909882909, -35.010309264401037, 0.0 ], [ 150.581888454978213, -35.005019810884257, 0.0 ], [ 150.581888696089749, -35.005018654601024, 0.0 ], [ 150.579392454552902, -35.004671314477697, 0.0 ], [ 150.579668498398973, -35.003272264419579, 0.0 ], [ 150.581020221562454, -35.003559685654714, 0.0 ], [ 150.581042298299167, -35.003564718815277, 0.0 ], [ 150.581064149389789, -35.003570383006796, 0.0 ], [ 150.581085747700172, -35.003576669575203, 0.0 ], [ 150.581107066016386, -35.003583572569248, 0.0 ], [ 150.581128078325634, -35.003591082455742, 0.0 ], [ 150.581148760778433, -35.003599190646149, 0.0 ], [ 150.581169086293414, -35.003607886684584, 0.0 ], [ 150.58118903216905, -35.003617160202474, 0.0 ], [ 150.581208572418888, -35.003627000765754, 0.0 ], [ 150.581227684420867, -35.003637395303073, 0.0 ], [ 150.581246343336517, -35.003648331600374, 0.0 ], [ 150.581264528706953, -35.003659797530887, 0.0 ], [ 150.581282216921181, -35.003671776397688, 0.0 ], [ 150.581299386425428, -35.003684256052267, 0.0 ], [ 150.581316017961797, -35.003697220785888, 0.0 ], [ 150.58133208898758, -35.003710654824459, 0.0 ], [ 150.581347582487666, -35.003724540701135, 0.0 ], [ 150.581362476987778, -35.003738863564507, 0.0 ], [ 150.581376756620728, -35.00375360416767, 0.0 ], [ 150.58139040327643, -35.003768745021944, 0.0 ], [ 150.581403399939745, -35.003784268660432, 0.0 ], [ 150.581415730743373, -35.00380015583621, 0.0 ], [ 150.581427380941534, -35.003816386423239, 0.0 ], [ 150.58143833685682, -35.003832941218249, 0.0 ], [ 150.581448584811795, -35.003849801017942, 0.0 ], [ 150.581458112303437, -35.003866943938014, 0.0 ], [ 150.581466907870634, -35.003884349917897, 0.0 ], [ 150.581474961200229, -35.003901997116934, 0.0 ], [ 150.581482260857626, -35.003919864573575, 0.0 ], [ 150.581488799787877, -35.003937931413589, 0.0 ], [ 150.581494569920693, -35.003956174038009, 0.0 ], [ 150.581499563132724, -35.003974570649859, 0.0 ], [ 150.581503774558911, -35.003993100418469, 0.0 ], [ 150.581507198345264, -35.004011738887584, 0.0 ], [ 150.581509829653299, -35.004030464325645, 0.0 ], [ 150.58151166695572, -35.004049254165544, 0.0 ], [ 150.581512706561938, -35.004068084895643, 0.0 ], [ 150.58151294801317, -35.004086934871545, 0.0 ], [ 150.581512390930186, -35.004105779746105, 0.0 ], [ 150.581511035975609, -35.004124596995858, 0.0 ], [ 150.581508884907095, -35.004143364119102, 0.0 ], [ 150.581505939508759, -35.004162057713245, 0.0 ], [ 150.581443727084235, -35.004509357863192, 0.0 ], [ 150.581832467473731, -35.004563632698634, 0.0 ], [ 150.581887942200439, -35.004488859278808, 0.0 ], [ 150.581936798740657, -35.00442300374435, 0.0 ], [ 150.581993232769634, -35.00434693595426, 0.0 ], [ 150.582066703943923, -35.00416600290778, 0.0 ], [ 150.581557777402111, -35.003614270908393, 0.0 ], [ 150.581598466906996, -35.003318692352636, 0.0 ], [ 150.582389832193286, -35.003372499733608, 0.0 ], [ 150.58280050081413, -35.00148984344915, 0.0 ], [ 150.581899235545762, -35.001369634501167, 0.0 ], [ 150.581922317758966, -35.001231225339133, 0.0 ], [ 150.581630625236755, -35.001190552419132, 0.0 ], [ 150.581363007982191, -35.002487703082096, 0.0 ], [ 150.579862830642128, -35.002287316267257, 0.0 ], [ 150.579936030029444, -35.001916306660767, 0.0 ], [ 150.580154317728699, -35.000800005061045, 0.0 ], [ 150.581952428307858, -35.001050595402404, 0.0 ], [ 150.581983076723702, -35.000854218523273, 0.0 ], [ 150.581995246397355, -35.000776234444785, 0.0 ], [ 150.582859912508866, -35.000882498776164, 0.0 ], [ 150.583208612015341, -34.996445586021402, 0.0 ], [ 150.582608259281557, -34.99636195025569, 0.0 ], [ 150.58296729349567, -34.993788927237063, 0.0 ], [ 150.583438900058809, -34.993854392321012, 0.0 ], [ 150.583833068829989, -34.991935748708293, 0.0 ], [ 150.583261120174285, -34.991856153961862, 0.0 ], [ 150.58339849215352, -34.99128699374841, 0.0 ], [ 150.583580098475664, -34.990461819026002, 0.0 ], [ 150.583826418759315, -34.989342577870033, 0.0 ], [ 150.583975353419078, -34.988665841076802, 0.0 ], [ 150.583975773103703, -34.988663935613999, 0.0 ], [ 150.58397442401909, -34.988663734768885, 0.0 ], [ 150.584000380965136, -34.988552114231837, 0.0 ], [ 150.584124278731565, -34.987989103801048, 0.0 ], [ 150.584268355326202, -34.987334391759731, 0.0 ], [ 150.584325002040259, -34.987156148693387, 0.0 ], [ 150.584632054691127, -34.987198102539303, 0.0 ], [ 150.584632063545683, -34.987198062149417, 0.0 ], [ 150.584832770029806, -34.986303209818225, 0.0 ], [ 150.585061131734449, -34.986334431944385, 0.0 ], [ 150.585736781156243, -34.986426804630675, 0.0 ], [ 150.586344843955573, -34.986499386968013, 0.0 ], [ 150.586558928647037, -34.98550021060057, 0.0 ], [ 150.586937270040067, -34.985595182805177, 0.0 ], [ 150.587027556977347, -34.985341323923052, 0.0 ], [ 150.587665154297412, -34.984339822155292, 0.0 ], [ 150.587984186573607, -34.983710468417257, 0.0 ], [ 150.588339381205969, -34.983836263392689, 0.0 ], [ 150.587703238263799, -34.985210921992426, 0.0 ], [ 150.58871293439779, -34.985404546412717, 0.0 ], [ 150.588813408458776, -34.985847538747485, 0.0 ], [ 150.587695280832804, -34.986046147434088, 0.0 ], [ 150.587346972828499, -34.986619000605209, 0.0 ], [ 150.587927592318039, -34.986688298852229, 0.0 ], [ 150.588549068415233, -34.986778213384554, 0.0 ], [ 150.588516710405656, -34.986925376336941, 0.0 ], [ 150.588484295880221, -34.987072743687449, 0.0 ], [ 150.588419488513949, -34.987367472466971, 0.0 ], [ 150.588289844220412, -34.987957024825889, 0.0 ], [ 150.588160200786774, -34.988546587794829, 0.0 ], [ 150.588153325196856, -34.988579279972022, 0.0 ], [ 150.588023655192529, -34.989168851190726, 0.0 ], [ 150.587893984413398, -34.989758414056027, 0.0 ], [ 150.587764304720025, -34.990347984632578, 0.0 ], [ 150.587761773019793, -34.990347618787645, 0.0 ], [ 150.586347922428303, -34.990143182781267, 0.0 ], [ 150.585967666982611, -34.991913025569964, 0.0 ], [ 150.585929272830413, -34.992091723492372, 0.0 ], [ 150.585042040411565, -34.996220847966988, 0.0 ], [ 150.586451650948902, -34.996438144778175, 0.0 ], [ 150.586202449203057, -34.997605075850679, 0.0 ], [ 150.586204965841063, -34.997605439629758, 0.0 ], [ 150.586079536918248, -34.998195396529177, 0.0 ], [ 150.586078782020593, -34.998195287757021, 0.0 ], [ 150.586078748894778, -34.998195445756409, 0.0 ], [ 150.585598178455029, -35.000558703812459, 0.0 ], [ 150.585308701787568, -35.001974375613955, 0.0 ], [ 150.58518900412156, -35.002140021375467, 0.0 ], [ 150.584905731340484, -35.003584470985075, 0.0 ], [ 150.584787691836397, -35.004186354064167, 0.0 ], [ 150.584779187106705, -35.00418522468766, 0.0 ], [ 150.584003741639236, -35.004082259212879, 0.0 ], [ 150.584000795678293, -35.004094808467251, 0.0 ], [ 150.583348710959882, -35.00702077348457, 0.0 ], [ 150.582766339004394, -35.00693823079488, 0.0 ], [ 150.582613168379879, -35.007653623247357, 0.0 ], [ 150.582582106849202, -35.007798271109628, 0.0 ], [ 150.582759920641223, -35.007931628210109, 0.0 ], [ 150.582921270186205, -35.008051865207172, 0.0 ], [ 150.582970802856579, -35.008088652054411, 0.0 ], [ 150.584437048612557, -35.008882245759608, 0.0 ], [ 150.584571111816246, -35.008928655253762, 0.0 ], [ 150.585899150277413, -35.009394122328175, 0.0 ], [ 150.585777567548689, -35.009548693228396, 0.0 ], [ 150.58433250755786, -35.009042791386875, 0.0 ], [ 150.583971996569943, -35.008845852308419, 0.0 ], [ 150.582834787417312, -35.00823305141769, 0.0 ], [ 150.582808855898662, -35.008211678392399, 0.0 ], [ 150.58250918710641, -35.007993731639601, 0.0 ], [ 150.582503810597359, -35.008019717444888, 0.0 ], [ 150.582347864520813, -35.008776520609381, 0.0 ], [ 150.582138755968998, -35.009801283903194, 0.0 ], [ 150.582007878723658, -35.010442594324637, 0.0 ], [ 150.581858377173461, -35.01124261855535, 0.0 ], [ 150.581594093268137, -35.012657225372813, 0.0 ], [ 150.58158589559855, -35.012701109356776, 0.0 ], [ 150.581537188319345, -35.012961804927933, 0.0 ], [ 150.581758248595946, -35.012992526727615, 0.0 ], [ 150.581694410591354, -35.013282587055137, 0.0 ], [ 150.581334642968386, -35.014917205532235, 0.0 ], [ 150.58177335535018, -35.014973141382001, 0.0 ], [ 150.582333187726164, -35.015040907382307, 0.0 ], [ 150.582332541445084, -35.01504443545808, 0.0 ], [ 150.582332933336403, -35.015044485637802, 0.0 ], [ 150.582299263415649, -35.015226222508844, 0.0 ], [ 150.582264261692359, -35.015417420742601, 0.0 ], [ 150.581516315119728, -35.015331786062809, 0.0 ], [ 150.581201586433565, -35.016900034095919, 0.0 ], [ 150.581079430109241, -35.017508700381704, 0.0 ], [ 150.580487641715251, -35.020603255522758, 0.0 ], [ 150.580896325407338, -35.020640047583058, 0.0 ], [ 150.580671842973516, -35.022458011264526, 0.0 ], [ 150.579671325214775, -35.022322613134499, 0.0 ], [ 150.579575912557942, -35.023459782845769, 0.0 ], [ 150.580013839731919, -35.026256604843638, 0.0 ], [ 150.580031779773009, -35.026258969459434, 0.0 ], [ 150.581764686417102, -35.026488501378331, 0.0 ], [ 150.582241445917163, -35.028979654830174, 0.0 ], [ 150.582695781272946, -35.031257357755599, 0.0 ], [ 150.582727910989547, -35.031421908606625, 0.0 ], [ 150.582789826104545, -35.031739007441693, 0.0 ], [ 150.582916735489107, -35.032388963561104, 0.0 ], [ 150.583267534770272, -35.033452743223329, 0.0 ], [ 150.583168512975931, -35.033547984604297, 0.0 ], [ 150.583357059008279, -35.033724215381184, 0.0 ], [ 150.583468600950255, -35.03382847111974, 0.0 ], [ 150.583906892254703, -35.034238130769531, 0.0 ], [ 150.584477287181727, -35.035329083558324, 0.0 ], [ 150.584473924830974, -35.035464386669645, 0.0 ], [ 150.584470302240732, -35.035600710460095, 0.0 ], [ 150.584433411395338, -35.037176686630104, 0.0 ], [ 150.58443316879783, -35.037186377036292, 0.0 ], [ 150.583565700769782, -35.038957920904586, 0.0 ], [ 150.583480227520624, -35.039159670625658, 0.0 ], [ 150.581956950470186, -35.041440702210387, 0.0 ], [ 150.581849445095003, -35.041601680715118, 0.0 ], [ 150.581617273222406, -35.04193231427417, 0.0 ], [ 150.58080973985625, -35.043084858830206, 0.0 ] ] ] ] } }
]
}
