{
"type": "FeatureCollection",
"name": "Scattered trees",
"crs": { "type": "name", "properties": { "name": "urn:ogc:def:crs:OGC:1.3:CRS84" } },
"features": [
{ "type": "Feature", "properties": { "OBJECTID": 1, "Tree": "1", "Type": "Native - Eucalyptus sp.", "Comments": null, "ECMLink": null, "FSource": "Smartphone via Esri Field Maps", "SourceDate": "2026-02-04T00:00:00Z", "PlanAccur": 5.0, "Supplier": "Stantec Australia Pty Ltd (3045)" }, "geometry": { "type": "Point", "coordinates": [ 150.584207350566629, -34.989399354789391, 0.0 ] } },
{ "type": "Feature", "properties": { "OBJECTID": 2, "Tree": "2", "Type": "Native - Eucalyptus sp.", "Comments": null, "ECMLink": null, "FSource": "Smartphone via Esri Field Maps", "SourceDate": "2026-02-04T00:00:00Z", "PlanAccur": 5.0, "Supplier": "Stantec Australia Pty Ltd (3045)" }, "geometry": { "type": "Point", "coordinates": [ 150.584782174699342, -34.989577100780572, 0.0 ] } },
{ "type": "Feature", "properties": { "OBJECTID": 3, "Tree": "3", "Type": "Native - Eucalyptus sp.", "Comments": null, "ECMLink": null, "FSource": "Smartphone via Esri Field Maps", "SourceDate": "2026-02-04T00:00:00Z", "PlanAccur": 5.0, "Supplier": "Stantec Australia Pty Ltd (3045)" }, "geometry": { "type": "Point", "coordinates": [ 150.584907250499725, -34.98956833364263, 0.0 ] } },
{ "type": "Feature", "properties": { "OBJECTID": 4, "Tree": "4", "Type": "Unknown", "Comments": null, "ECMLink": null, "FSource": "Smartphone via Esri Field Maps", "SourceDate": "2026-02-04T00:00:00Z", "PlanAccur": 5.0, "Supplier": "Stantec Australia Pty Ltd (3045)" }, "geometry": { "type": "Point", "coordinates": [ 150.584474035909977, -34.989923705616874, 0.0 ] } },
{ "type": "Feature", "properties": { "OBJECTID": 5, "Tree": "5", "Type": "Native - Eucalyptus sp.", "Comments": null, "ECMLink": null, "FSource": "Smartphone via Esri Field Maps", "SourceDate": "2026-02-04T00:00:00Z", "PlanAccur": 5.0, "Supplier": "Stantec Australia Pty Ltd (3045)" }, "geometry": { "type": "Point", "coordinates": [ 150.584859750659461, -34.990559414549374, 0.0 ] } },
{ "type": "Feature", "properties": { "OBJECTID": 6, "Tree": "6", "Type": "Native - Eucalyptus sp.", "Comments": null, "ECMLink": null, "FSource": "Smartphone via Esri Field Maps", "SourceDate": "2026-02-04T00:00:00Z", "PlanAccur": 5.0, "Supplier": "Stantec Australia Pty Ltd (3045)" }, "geometry": { "type": "Point", "coordinates": [ 150.585164540553933, -34.99038070839255, 0.0 ] } },
{ "type": "Feature", "properties": { "OBJECTID": 7, "Tree": "7", "Type": "Native - Eucalyptus sp.", "Comments": null, "ECMLink": null, "FSource": "Smartphone via Esri Field Maps", "SourceDate": "2026-02-04T00:00:00Z", "PlanAccur": 5.0, "Supplier": "Stantec Australia Pty Ltd (3045)" }, "geometry": { "type": "Point", "coordinates": [ 150.583991347621321, -34.994572153422737, 0.0 ] } },
{ "type": "Feature", "properties": { "OBJECTID": 8, "Tree": "8", "Type": "Native - Eucalyptus sp.", "Comments": null, "ECMLink": null, "FSource": "Smartphone via Esri Field Maps", "SourceDate": "2026-02-04T00:00:00Z", "PlanAccur": 5.0, "Supplier": "Stantec Australia Pty Ltd (3045)" }, "geometry": { "type": "Point", "coordinates": [ 150.584950773449719, -34.994199895776951, 0.0 ] } },
{ "type": "Feature", "properties": { "OBJECTID": 9, "Tree": "9", "Type": "Native - Amenity", "Comments": null, "ECMLink": null, "FSource": "Smartphone via Esri Field Maps", "SourceDate": "2026-02-04T00:00:00Z", "PlanAccur": 5.0, "Supplier": "Stantec Australia Pty Ltd (3045)" }, "geometry": { "type": "Point", "coordinates": [ 150.58542897583817, -34.997602537510552, 0.0 ] } },
{ "type": "Feature", "properties": { "OBJECTID": 10, "Tree": "10", "Type": "Native - Amenity", "Comments": null, "ECMLink": null, "FSource": "Smartphone via Esri Field Maps", "SourceDate": "2026-02-04T00:00:00Z", "PlanAccur": 5.0, "Supplier": "Stantec Australia Pty Ltd (3045)" }, "geometry": { "type": "Point", "coordinates": [ 150.585196171095873, -34.997533491572987, 0.0 ] } },
{ "type": "Feature", "properties": { "OBJECTID": 11, "Tree": "11", "Type": "Native - Amenity", "Comments": null, "ECMLink": null, "FSource": "Smartphone via Esri Field Maps", "SourceDate": "2026-02-04T00:00:00Z", "PlanAccur": 5.0, "Supplier": "Stantec Australia Pty Ltd (3045)" }, "geometry": { "type": "Point", "coordinates": [ 150.584980086845036, -34.99756139649223, 0.0 ] } },
{ "type": "Feature", "properties": { "OBJECTID": 12, "Tree": "12", "Type": "Native - Amenity", "Comments": null, "ECMLink": null, "FSource": "Smartphone via Esri Field Maps", "SourceDate": "2026-02-04T00:00:00Z", "PlanAccur": 5.0, "Supplier": "Stantec Australia Pty Ltd (3045)" }, "geometry": { "type": "Point", "coordinates": [ 150.584936659700759, -34.997485383868074, 0.0 ] } },
{ "type": "Feature", "properties": { "OBJECTID": 13, "Tree": "13", "Type": "Native - Amenity", "Comments": null, "ECMLink": null, "FSource": "Smartphone via Esri Field Maps", "SourceDate": "2026-02-04T00:00:00Z", "PlanAccur": 5.0, "Supplier": "Stantec Australia Pty Ltd (3045)" }, "geometry": { "type": "Point", "coordinates": [ 150.584800700202408, -34.997450470728296, 0.0 ] } },
{ "type": "Feature", "properties": { "OBJECTID": 14, "Tree": "14", "Type": "Native - Amenity", "Comments": null, "ECMLink": null, "FSource": "Smartphone via Esri Field Maps", "SourceDate": "2026-02-04T00:00:00Z", "PlanAccur": 5.0, "Supplier": "Stantec Australia Pty Ltd (3045)" }, "geometry": { "type": "Point", "coordinates": [ 150.584619104892056, -34.99741464893664, 0.0 ] } },
{ "type": "Feature", "properties": { "OBJECTID": 15, "Tree": "15", "Type": "Native - Amenity", "Comments": null, "ECMLink": null, "FSource": "Smartphone via Esri Field Maps", "SourceDate": "2026-02-04T00:00:00Z", "PlanAccur": 5.0, "Supplier": "Stantec Australia Pty Ltd (3045)" }, "geometry": { "type": "Point", "coordinates": [ 150.584475994859417, -34.997401064256302, 0.0 ] } },
{ "type": "Feature", "properties": { "OBJECTID": 16, "Tree": "16", "Type": "Native - Acacia sp.", "Comments": null, "ECMLink": null, "FSource": "Smartphone via Esri Field Maps", "SourceDate": "2026-02-04T00:00:00Z", "PlanAccur": 5.0, "Supplier": "Stantec Australia Pty Ltd (3045)" }, "geometry": { "type": "Point", "coordinates": [ 150.581286231923599, -35.015120932373733, 0.0 ] } },
{ "type": "Feature", "properties": { "OBJECTID": 17, "Tree": "17", "Type": "Native - Acacia sp.", "Comments": null, "ECMLink": null, "FSource": "Smartphone via Esri Field Maps", "SourceDate": "2026-02-04T00:00:00Z", "PlanAccur": 5.0, "Supplier": "Stantec Australia Pty Ltd (3045)" }, "geometry": { "type": "Point", "coordinates": [ 150.581188579589991, -35.015113616942507, 0.0 ] } },
{ "type": "Feature", "properties": { "OBJECTID": 18, "Tree": "18", "Type": "Native - Eucalyptus sp.", "Comments": null, "ECMLink": null, "FSource": "Smartphone via Esri Field Maps", "SourceDate": "2026-02-04T00:00:00Z", "PlanAccur": 5.0, "Supplier": "Stantec Australia Pty Ltd (3045)" }, "geometry": { "type": "Point", "coordinates": [ 150.580960315049708, -35.014888986671643, 0.0 ] } }
]
}
