{
"type": "FeatureCollection",
"name": "Assessment area",
"crs": { "type": "name", "properties": { "name": "urn:ogc:def:crs:OGC:1.3:CRS84" } },
"features": [
{ "type": "Feature", "properties": { "OBJECTID": 1, "Comments": "Assessment Area", "ECMLink": null, "FSource": "TfNSW", "SourceDate": "2026-02-04T00:00:00Z", "PlanAccur": null, "Supplier": "Stantec Australia Pty Ltd (3045)", "Shape_Length": 17630.403250906416, "Shape_Area": 9392091.9507282153 }, "geometry": { "type": "MultiPolygon", "coordinates": [ [ [ [ 150.579650479627105, -35.046588419592183, 0.0 ], [ 150.579292514681299, -35.046571623526646, 0.0 ], [ 150.578936653056985, -35.046535607787384, 0.0 ], [ 150.578584417345382, -35.046480528106933, 0.0 ], [ 150.578237317897162, -35.046406620220431, 0.0 ], [ 150.577896839645064, -35.046314200503126, 0.0 ], [ 150.577564441056694, -35.046203664145246, 0.0 ], [ 150.577241546461977, -35.046075484997424, 0.0 ], [ 150.576929537391834, -35.045930211790242, 0.0 ], [ 150.576629751506147, -35.045768467209463, 0.0 ], [ 150.576343471742575, -35.045590944071499, 0.0 ], [ 150.576071924230206, -35.045398401673772, 0.0 ], [ 150.575816271715382, -35.0451916656612, 0.0 ], [ 150.575577609392155, -35.044971620728873, 0.0 ], [ 150.575500606692287, -35.04489403118, 0.0 ], [ 150.575226338831499, -35.044611313570769, 0.0 ], [ 150.575082691496306, -35.044456491688038, 0.0 ], [ 150.574880999298273, -35.044212709229626, 0.0 ], [ 150.574699126784566, -35.043958600004302, 0.0 ], [ 150.574537852795572, -35.043695251513128, 0.0 ], [ 150.574397868318982, -35.043423792763228, 0.0 ], [ 150.574279772378077, -35.043145385169204, 0.0 ], [ 150.574184070966709, -35.042861221628876, 0.0 ], [ 150.574111172885011, -35.042572519227093, 0.0 ], [ 150.574061389930733, -35.042280512928095, 0.0 ], [ 150.574034934740126, -35.041986454630333, 0.0 ], [ 150.574031922208263, -35.041691602376702, 0.0 ], [ 150.574052362948464, -35.0413972193221, 0.0 ], [ 150.57409617117915, -35.041104566679508, 0.0 ], [ 150.574163157273915, -35.040814896359741, 0.0 ], [ 150.574253034366421, -35.04052945020274, 0.0 ], [ 150.574365417579287, -35.040249449145435, 0.0 ], [ 150.574499826246324, -35.039976092366032, 0.0 ], [ 150.574655684103192, -35.03971055097891, 0.0 ], [ 150.574832323885943, -35.039453960916632, 0.0 ], [ 150.575028988456211, -35.039207422052648, 0.0 ], [ 150.57524483545177, -35.038971989281748, 0.0 ], [ 150.575295302347996, -35.03892129418746, 0.0 ], [ 150.577620885659599, -35.036619451017273, 0.0 ], [ 150.577657230912649, -35.036539311383869, 0.0 ], [ 150.577638042799293, -35.036293406831831, 0.0 ], [ 150.576895958284297, -35.0356126110403, 0.0 ], [ 150.576769659271207, -35.035492552077208, 0.0 ], [ 150.57654902861907, -35.035260143677313, 0.0 ], [ 150.576347352890878, -35.035016364066827, 0.0 ], [ 150.576329359737514, -35.034992846810752, 0.0 ], [ 150.576179291810263, -35.034795350821497, 0.0 ], [ 150.576165845262864, -35.034782951996689, 0.0 ], [ 150.576099092252008, -35.034715888604069, 0.0 ], [ 150.575576152722334, -35.034180077769086, 0.0 ], [ 150.575459290048229, -35.034055969279216, 0.0 ], [ 150.575313514180323, -35.033895454907224, 0.0 ], [ 150.575221633606731, -35.033811859764612, 0.0 ], [ 150.575005420731742, -35.033655653732474, 0.0 ], [ 150.574909608452231, -35.033584773286577, 0.0 ], [ 150.574653994059929, -35.033378036076705, 0.0 ], [ 150.57441536747362, -35.033157989994528, 0.0 ], [ 150.574194749636064, -35.032925577755748, 0.0 ], [ 150.573993086467368, -35.032681794661968, 0.0 ], [ 150.573811240210432, -35.032427684819588, 0.0 ], [ 150.573649989593207, -35.03216433573229, 0.0 ], [ 150.573510025503367, -35.031892876409692, 0.0 ], [ 150.573391946877024, -35.031614468268828, 0.0 ], [ 150.57329625963385, -35.031330304209838, 0.0 ], [ 150.573270576420697, -35.031238874288491, 0.0 ], [ 150.573269571796374, -35.031235119430768, 0.0 ], [ 150.573267239488075, -35.031231788736825, 0.0 ], [ 150.573204775240271, -35.031140135739427, 0.0 ], [ 150.573111083054528, -35.030992389073745, 0.0 ], [ 150.573001083510604, -35.030810814980782, 0.0 ], [ 150.572933529650811, -35.030695211832231, 0.0 ], [ 150.572793570196751, -35.030423751821566, 0.0 ], [ 150.572675495859414, -35.030145343106945, 0.0 ], [ 150.572636982236276, -35.030039434804948, 0.0 ], [ 150.572633992741203, -35.030030832720733, 0.0 ], [ 150.572629669940824, -35.030022623130023, 0.0 ], [ 150.572545873720657, -35.029854252160455, 0.0 ], [ 150.572427800942052, -35.029575843248566, 0.0 ], [ 150.57233211903818, -35.02929167857495, 0.0 ], [ 150.572268737443125, -35.029046678963105, 0.0 ], [ 150.572142027790875, -35.028479932972587, 0.0 ], [ 150.572037268746641, -35.028397657997978, 0.0 ], [ 150.571853574005019, -35.028246373267265, 0.0 ], [ 150.571614969367403, -35.028026322418654, 0.0 ], [ 150.571394372701803, -35.027793905791384, 0.0 ], [ 150.571192729837577, -35.02755011870584, 0.0 ], [ 150.571010902930766, -35.027296005285464, 0.0 ], [ 150.570849670626444, -35.027032653049197, 0.0 ], [ 150.570709723733813, -35.026761191020185, 0.0 ], [ 150.570591661115429, -35.026482780627006, 0.0 ], [ 150.570495988622383, -35.02619861477941, 0.0 ], [ 150.570423114931373, -35.025909910571997, 0.0 ], [ 150.570373351735924, -35.025617902976784, 0.0 ], [ 150.570346911587905, -35.025323843897688, 0.0 ], [ 150.570342390402487, -35.025166547435838, 0.0 ], [ 150.570334303223405, -35.024090485497887, 0.0 ], [ 150.570335822023225, -35.023952929420588, 0.0 ], [ 150.570356267728357, -35.023658546566146, 0.0 ], [ 150.570400075770891, -35.023365894631262, 0.0 ], [ 150.570467056525956, -35.023076225523639, 0.0 ], [ 150.57055692315015, -35.022790781078022, 0.0 ], [ 150.570620005486916, -35.022626119721785, 0.0 ], [ 150.570621472689851, -35.02262253244389, 0.0 ], [ 150.570621536499118, -35.022618747581575, 0.0 ], [ 150.570622632570831, -35.022571571689646, 0.0 ], [ 150.570643076605677, -35.02227718866957, 0.0 ], [ 150.570686882595652, -35.02198453649828, 0.0 ], [ 150.570753860924725, -35.021694867084527, 0.0 ], [ 150.570843724759953, -35.021409422264348, 0.0 ], [ 150.570906512263122, -35.021245479564698, 0.0 ], [ 150.571029325972688, -35.020944927872591, 0.0 ], [ 150.571078902612385, -35.020828871206909, 0.0 ], [ 150.571213286279033, -35.020555516421744, 0.0 ], [ 150.571369113820452, -35.020289977413086, 0.0 ], [ 150.571545718102612, -35.020033390103336, 0.0 ], [ 150.571742342139373, -35.019786854354216, 0.0 ], [ 150.571958143742336, -35.019551425047247, 0.0 ], [ 150.572192199956419, -35.019328110371632, 0.0 ], [ 150.572443507221095, -35.019117866420899, 0.0 ], [ 150.572710990238619, -35.018921593766713, 0.0 ], [ 150.572993503228929, -35.01874013207749, 0.0 ], [ 150.573289836526129, -35.018574259350991, 0.0 ], [ 150.573498872474858, -35.018473035896967, 0.0 ], [ 150.573566416491502, -35.018127884467823, 0.0 ], [ 150.573629594460158, -35.0178578393921, 0.0 ], [ 150.573719443408919, -35.017572391694912, 0.0 ], [ 150.573831792229754, -35.017292388956754, 0.0 ], [ 150.573890763176934, -35.017171949338397, 0.0 ], [ 150.573767670702324, -35.016970886762898, 0.0 ], [ 150.573627729104402, -35.016699427999306, 0.0 ], [ 150.573509668829558, -35.016421020214466, 0.0 ], [ 150.573413995718965, -35.016136856306929, 0.0 ], [ 150.573341118452134, -35.015848153363038, 0.0 ], [ 150.573291348738024, -35.015556146349404, 0.0 ], [ 150.573264899156612, -35.015262087167407, 0.0 ], [ 150.573261884578642, -35.014967233863757, 0.0 ], [ 150.573282315627267, -35.014672849597808, 0.0 ], [ 150.573319884312752, -35.014413733564183, 0.0 ], [ 150.573353106394961, -35.014230010102615, 0.0 ], [ 150.57338546165613, -35.014051066873449, 0.0 ], [ 150.573417346325698, -35.013874731163575, 0.0 ], [ 150.57342356981593, -35.013841185089696, 0.0 ], [ 150.573490530189844, -35.013551513142943, 0.0 ], [ 150.573580373996151, -35.013266065191246, 0.0 ], [ 150.573692716500261, -35.012986062179294, 0.0 ], [ 150.573827077210296, -35.01271270329368, 0.0 ], [ 150.573982880067746, -35.012447159657924, 0.0 ], [ 150.57415945804425, -35.012190567214255, 0.0 ], [ 150.574356054266502, -35.011944025846425, 0.0 ], [ 150.574571826665135, -35.011708590460046, 0.0 ], [ 150.574805852410009, -35.011485269270366, 0.0 ], [ 150.575057128071222, -35.011275018398877, 0.0 ], [ 150.57532457848626, -35.011078738446884, 0.0 ], [ 150.575491049479552, -35.010971795002604, 0.0 ], [ 150.575549102357172, -35.010695198708966, 0.0 ], [ 150.575561731866031, -35.010637281414951, 0.0 ], [ 150.575803488058028, -35.009568798352284, 0.0 ], [ 150.576078783616026, -35.008255879053323, 0.0 ], [ 150.57595415744359, -35.008178564531875, 0.0 ], [ 150.575682729445731, -35.007986025268892, 0.0 ], [ 150.575427188868588, -35.007779292070111, 0.0 ], [ 150.575188630426652, -35.007559249618481, 0.0 ], [ 150.574968074771164, -35.00732684061407, 0.0 ], [ 150.574766467555662, -35.007083060344527, 0.0 ], [ 150.574584670783963, -35.006828952904065, 0.0 ], [ 150.57442346297222, -35.006565605786015, 0.0 ], [ 150.5742835348249, -35.006294147991483, 0.0 ], [ 150.574165485124354, -35.006015740930877, 0.0 ], [ 150.574069819666647, -35.005731577499645, 0.0 ], [ 150.573996947098692, -35.005442874782077, 0.0 ], [ 150.573947179109496, -35.005150867743758, 0.0 ], [ 150.573920728271787, -35.004856808286235, 0.0 ], [ 150.573917709461568, -35.004561954457323, 0.0 ], [ 150.573938133320496, -35.004267569418701, 0.0 ], [ 150.573981914138784, -35.003974914391847, 0.0 ], [ 150.573986915432954, -35.003949099988219, 0.0 ], [ 150.574263047494327, -35.002550065750448, 0.0 ], [ 150.574324992263683, -35.002286206784063, 0.0 ], [ 150.574391729112307, -35.002067220264827, 0.0 ], [ 150.574393478440157, -35.00206203575533, 0.0 ], [ 150.574393813522619, -35.002056661607952, 0.0 ], [ 150.574408663515243, -35.001883598601495, 0.0 ], [ 150.574452440881629, -35.001590943179366, 0.0 ], [ 150.574457441891752, -35.001565126933258, 0.0 ], [ 150.57453005004021, -35.001197239122192, 0.0 ], [ 150.574747797900955, -35.000084068650999, 0.0 ], [ 150.574810963594359, -34.999813974805932, 0.0 ], [ 150.574900784947232, -34.999528524484504, 0.0 ], [ 150.575013101390368, -34.999248518718765, 0.0 ], [ 150.575147432543474, -34.998975156707139, 0.0 ], [ 150.575303202474828, -34.998709609586598, 0.0 ], [ 150.575479744297041, -34.99845301331429, 0.0 ], [ 150.575676301291935, -34.99820646779046, 0.0 ], [ 150.575892031558055, -34.997971027938561, 0.0 ], [ 150.576126012445599, -34.997747701992992, 0.0 ], [ 150.576377240716937, -34.997537446095677, 0.0 ], [ 150.576644641412344, -34.997341160869489, 0.0 ], [ 150.576927069104215, -34.997159686036731, 0.0 ], [ 150.577223314491931, -34.996993799651612, 0.0 ], [ 150.577532108992131, -34.996844210982147, 0.0 ], [ 150.577852131305576, -34.996711560643483, 0.0 ], [ 150.577976408340504, -34.996668182162345, 0.0 ], [ 150.577975988219521, -34.996663518600862, 0.0 ], [ 150.57797295336448, -34.996368663927477, 0.0 ], [ 150.577993358912636, -34.996074277166272, 0.0 ], [ 150.578037119232448, -34.995781619546086, 0.0 ], [ 150.578048346546751, -34.995724917825328, 0.0 ], [ 150.578153379830894, -34.995214985644076, 0.0 ], [ 150.578209077460144, -34.994982010725543, 0.0 ], [ 150.578298880851662, -34.994696556981268, 0.0 ], [ 150.578351143111178, -34.994563460869259, 0.0 ], [ 150.578367806208519, -34.994487227327177, 0.0 ], [ 150.578387183834735, -34.994398578864683, 0.0 ], [ 150.5783871952016, -34.994398527707915, 0.0 ], [ 150.578406570511106, -34.994309881898552, 0.0 ], [ 150.578406579290032, -34.994309844212133, 0.0 ], [ 150.578416274451769, -34.994265489002572, 0.0 ], [ 150.578435662125145, -34.994176792950228, 0.0 ], [ 150.578445345911064, -34.994132487992012, 0.0 ], [ 150.578445354689904, -34.994132450305592, 0.0 ], [ 150.578464732445013, -34.994043791007897, 0.0 ], [ 150.578464743811736, -34.994043739851115, 0.0 ], [ 150.578484130059252, -34.993955050969454, 0.0 ], [ 150.578493822644333, -34.99391070561451, 0.0 ], [ 150.578513193638514, -34.993822085833834, 0.0 ], [ 150.578513211355414, -34.993822005055357, 0.0 ], [ 150.578522886267677, -34.993777737771595, 0.0 ], [ 150.578522903984521, -34.99377765699311, 0.0 ], [ 150.578542291423389, -34.993688960006885, 0.0 ], [ 150.578561678920977, -34.993600259410918, 0.0 ], [ 150.578571362420007, -34.993555958937911, 0.0 ], [ 150.578571373786588, -34.993555907781108, 0.0 ], [ 150.578590748645382, -34.993467261914859, 0.0 ], [ 150.578590758704763, -34.993467217943703, 0.0 ], [ 150.57861014597745, -34.993378520936503, 0.0 ], [ 150.578629524450577, -34.993289860708821, 0.0 ], [ 150.578629533202673, -34.993289823923305, 0.0 ], [ 150.578648910507013, -34.993201164568724, 0.0 ], [ 150.578648917978455, -34.993201134067931, 0.0 ], [ 150.578658611642453, -34.993156782402806, 0.0 ], [ 150.578678000056186, -34.993068078188976, 0.0 ], [ 150.578687683412966, -34.993023777698035, 0.0 ], [ 150.578687694779404, -34.993023726541196, 0.0 ], [ 150.578707069353555, -34.992935080639029, 0.0 ], [ 150.578707076984244, -34.992935044732604, 0.0 ], [ 150.578718707693696, -34.9928818324274, 0.0 ], [ 150.578730339666691, -34.992828613835329, 0.0 ], [ 150.57874197159606, -34.992775396142029, 0.0 ], [ 150.578753603534892, -34.992722177545645, 0.0 ], [ 150.578765235430069, -34.992668959848032, 0.0 ], [ 150.57877686733471, -34.992615741247334, 0.0 ], [ 150.578788499195724, -34.992562523545416, 0.0 ], [ 150.578800131066203, -34.992509304940398, 0.0 ], [ 150.578811762893025, -34.992456087234167, 0.0 ], [ 150.578822185522142, -34.992408402944854, 0.0 ], [ 150.578762459603865, -34.99228645414609, 0.0 ], [ 150.578644411727112, -34.992008051062605, 0.0 ], [ 150.578548743950762, -34.991723890600731, 0.0 ], [ 150.578475864931988, -34.991435189832089, 0.0 ], [ 150.578426086387566, -34.991143183713923, 0.0 ], [ 150.578399620935727, -34.990849124143857, 0.0 ], [ 150.578396583514859, -34.99055426917014, 0.0 ], [ 150.578416984846854, -34.990259881959474, 0.0 ], [ 150.578460739318245, -34.989967223742568, 0.0 ], [ 150.578486802099746, -34.989841724981225, 0.0 ], [ 150.578579293669407, -34.989431356552885, 0.0 ], [ 150.578530230083146, -34.989143539381118, 0.0 ], [ 150.578503764469616, -34.988849479756531, 0.0 ], [ 150.578500726315724, -34.988554624684596, 0.0 ], [ 150.578521126346487, -34.988260237332412, 0.0 ], [ 150.578564878954069, -34.987967578931347, 0.0 ], [ 150.578596769963951, -34.9878166253567, 0.0 ], [ 150.578947441200256, -34.986309058517186, 0.0 ], [ 150.57898246460573, -34.986170334394352, 0.0 ], [ 150.579072253862137, -34.985884879196199, 0.0 ], [ 150.579184534849986, -34.985604867649776, 0.0 ], [ 150.57931882734087, -34.985331498978297, 0.0 ], [ 150.579474555568794, -34.985065944347298, 0.0 ], [ 150.579651052824971, -34.984809339746157, 0.0 ], [ 150.579847562582131, -34.984562785110867, 0.0 ], [ 150.580063243141268, -34.984327335403954, 0.0 ], [ 150.580297172065144, -34.984103998902022, 0.0 ], [ 150.580548346338873, -34.983893731792314, 0.0 ], [ 150.580815691233767, -34.983697434745736, 0.0 ], [ 150.581098061561192, -34.983515947535281, 0.0 ], [ 150.581394248266037, -34.98335004826815, 0.0 ], [ 150.581702983016157, -34.983200446267638, 0.0 ], [ 150.581916457021038, -34.983109548360012, 0.0 ], [ 150.581918673918153, -34.983108655006895, 0.0 ], [ 150.58191998524299, -34.983106934089307, 0.0 ], [ 150.582081500808556, -34.982906929654817, 0.0 ], [ 150.58229717057074, -34.982671475477694, 0.0 ], [ 150.582531088694367, -34.982448134170944, 0.0 ], [ 150.582782252210734, -34.982237861942387, 0.0 ], [ 150.582808629858874, -34.982217575129013, 0.0 ], [ 150.582931419201429, -34.981975375528826, 0.0 ], [ 150.582978126881642, -34.981885974056475, 0.0 ], [ 150.583133836360929, -34.98162041384002, 0.0 ], [ 150.583310314456639, -34.981363803012222, 0.0 ], [ 150.583506804723697, -34.981117241535742, 0.0 ], [ 150.583722465546401, -34.980881784402435, 0.0 ], [ 150.58395637457204, -34.980658439920717, 0.0 ], [ 150.584207528870905, -34.980448164312016, 0.0 ], [ 150.584474853799833, -34.980251858283665, 0.0 ], [ 150.584757204255567, -34.980070361647073, 0.0 ], [ 150.585053371268174, -34.979904452549896, 0.0 ], [ 150.585362086589697, -34.979754840357479, 0.0 ], [ 150.585682029259686, -34.979622165785614, 0.0 ], [ 150.586011827897494, -34.979506997342177, 0.0 ], [ 150.586350071750985, -34.979409827942717, 0.0 ], [ 150.586695311813685, -34.979331074032693, 0.0 ], [ 150.58704606968297, -34.979271072159115, 0.0 ], [ 150.587400845218014, -34.979230079123809, 0.0 ], [ 150.58775811768183, -34.979208270204005, 0.0 ], [ 150.588116358845468, -34.97920574031486, 0.0 ], [ 150.588474034235531, -34.979222498625553, 0.0 ], [ 150.588829611700902, -34.97925847503987, 0.0 ], [ 150.58918157034924, -34.979313514063101, 0.0 ], [ 150.589528401478105, -34.979387380228715, 0.0 ], [ 150.589868621731682, -34.979479757457426, 0.0 ], [ 150.590148191181243, -34.979571359374809, 0.0 ], [ 150.590503371993094, -34.979697147497617, 0.0 ], [ 150.590555955119697, -34.979716038854527, 0.0 ], [ 150.590878617842293, -34.979844174055771, 0.0 ], [ 150.591190409602035, -34.979989403601643, 0.0 ], [ 150.591489993909022, -34.980151105179893, 0.0 ], [ 150.591776088866197, -34.980328586354354, 0.0 ], [ 150.592047469251099, -34.980521088210146, 0.0 ], [ 150.59230297308244, -34.980727785481747, 0.0 ], [ 150.592541505787068, -34.980947793845395, 0.0 ], [ 150.592762046741512, -34.981180170948043, 0.0 ], [ 150.592963650209185, -34.981423921832707, 0.0 ], [ 150.593145453993685, -34.981678002713828, 0.0 ], [ 150.593306679282705, -34.981941326381104, 0.0 ], [ 150.593446634976658, -34.98221276408632, 0.0 ], [ 150.593564721807041, -34.982491154638133, 0.0 ], [ 150.593660433408559, -34.982775305323273, 0.0 ], [ 150.593733360491228, -34.983063999199743, 0.0 ], [ 150.593783190660673, -34.983356001402584, 0.0 ], [ 150.593809710585731, -34.983650060087555, 0.0 ], [ 150.593813684290325, -34.983763887526173, 0.0 ], [ 150.593813748866381, -34.983767181884041, 0.0 ], [ 150.593815200104075, -34.983770252226662, 0.0 ], [ 150.593820281092263, -34.983781035418929, 0.0 ], [ 150.593938371146464, -34.984059425684201, 0.0 ], [ 150.594034085560111, -34.984343576134073, 0.0 ], [ 150.594095034342615, -34.984577596004762, 0.0 ], [ 150.59419553695227, -34.985020585073372, 0.0 ], [ 150.59420751775545, -34.98507525888796, 0.0 ], [ 150.594257350413557, -34.985367260925599, 0.0 ], [ 150.594283872260007, -34.985661319513184, 0.0 ], [ 150.594286967613073, -34.985956176616853, 0.0 ], [ 150.594266624998113, -34.986250569043513, 0.0 ], [ 150.594222929279255, -34.986543235496733, 0.0 ], [ 150.59415606911648, -34.986832923936575, 0.0 ], [ 150.594066330376364, -34.98711839235127, 0.0 ], [ 150.593954096915184, -34.987398419591145, 0.0 ], [ 150.593819848367531, -34.98767180622751, 0.0 ], [ 150.593664159966011, -34.987937380860721, 0.0 ], [ 150.59348769795497, -34.988194007242697, 0.0 ], [ 150.593291218472444, -34.988440585157889, 0.0 ], [ 150.593208938660354, -34.988534247724843, 0.0 ], [ 150.593207658231535, -34.98853566648495, 0.0 ], [ 150.593207632764717, -34.988537433765096, 0.0 ], [ 150.593206429593835, -34.988592469064649, 0.0 ], [ 150.593186081897585, -34.988886861009568, 0.0 ], [ 150.59314238038624, -34.98917952674411, 0.0 ], [ 150.593125335666087, -34.989264030617868, 0.0 ], [ 150.592992191757304, -34.989887356700173, 0.0 ], [ 150.592942369035086, -34.990092540210995, 0.0 ], [ 150.592852621889705, -34.990378007271708, 0.0 ], [ 150.592740379237171, -34.990658032902118, 0.0 ], [ 150.592606120751412, -34.990931417680407, 0.0 ], [ 150.592450421707611, -34.991196990214924, 0.0 ], [ 150.592273948395672, -34.991453614266476, 0.0 ], [ 150.592077457001977, -34.991700189629569, 0.0 ], [ 150.591861788969197, -34.991935661056829, 0.0 ], [ 150.591627866565915, -34.99215901997615, 0.0 ], [ 150.591376692729625, -34.992369309898564, 0.0 ], [ 150.59110934220331, -34.992565629850368, 0.0 ], [ 150.590899252757055, -34.992702975163326, 0.0 ], [ 150.590898737264581, -34.992703295767889, 0.0 ], [ 150.590876378527838, -34.992807940734799, 0.0 ], [ 150.590457327350066, -34.994769161431933, 0.0 ], [ 150.590628463982, -34.994949463477106, 0.0 ], [ 150.590830092253611, -34.995193218519987, 0.0 ], [ 150.591011917171699, -34.995447303043719, 0.0 ], [ 150.591173159833204, -34.995710629822348, 0.0 ], [ 150.591313129064076, -34.995982070094442, 0.0 ], [ 150.591431225537633, -34.996260462657631, 0.0 ], [ 150.591526942847139, -34.996544614790075, 0.0 ], [ 150.59159987167817, -34.996833309543639, 0.0 ], [ 150.591649699628562, -34.997125312049583, 0.0 ], [ 150.591676213376644, -34.997419370462367, 0.0 ], [ 150.591679297274965, -34.99771422674884, 0.0 ], [ 150.591658939898053, -34.998008617719456, 0.0 ], [ 150.59161522617282, -34.998301282083887, 0.0 ], [ 150.591599015821714, -34.998381850986696, 0.0 ], [ 150.591473623802727, -34.99897181492355, 0.0 ], [ 150.591422952047083, -34.999180931649363, 0.0 ], [ 150.591333187858396, -34.999466396577319, 0.0 ], [ 150.591220925826008, -34.999746419703492, 0.0 ], [ 150.591191090796883, -34.999811814923817, 0.0 ], [ 150.591189824818514, -34.999814526650191, 0.0 ], [ 150.591189942361154, -34.99981742991271, 0.0 ], [ 150.591191383922222, -35.000076125282412, 0.0 ], [ 150.591171023707147, -35.000370515971674, 0.0 ], [ 150.591127306490677, -35.000663179934548, 0.0 ], [ 150.591117070216626, -35.000715092440352, 0.0 ], [ 150.590706844964643, -35.002721207394714, 0.0 ], [ 150.59065019286345, -35.00295897972827, 0.0 ], [ 150.590560421102907, -35.003244443645023, 0.0 ], [ 150.590448150537981, -35.003524465579694, 0.0 ], [ 150.590313860961913, -35.003797846126218, 0.0 ], [ 150.590195285691436, -35.004000049461219, 0.0 ], [ 150.590182661354788, -35.004064907277311, 0.0 ], [ 150.590119000028494, -35.004337787465062, 0.0 ], [ 150.590029224648731, -35.004623250793053, 0.0 ], [ 150.589916950133215, -35.004903272027576, 0.0 ], [ 150.589782656292101, -35.005176651765588, 0.0 ], [ 150.589626918551915, -35.005442218636944, 0.0 ], [ 150.589450403368119, -35.005698836426681, 0.0 ], [ 150.589312779523539, -35.005871495942941, 0.0 ], [ 150.58933709341494, -35.005886575662181, 0.0 ], [ 150.589608548633976, -35.00607908543698, 0.0 ], [ 150.589864121690994, -35.006285790035243, 0.0 ], [ 150.590102717716178, -35.006505805101881, 0.0 ], [ 150.590323315815112, -35.00673818825527, 0.0 ], [ 150.590524970006072, -35.006981944512539, 0.0 ], [ 150.590706817875656, -35.0072360300653, 0.0 ], [ 150.590868080422467, -35.007499357683294, 0.0 ], [ 150.591008066387076, -35.00777079860142, 0.0 ], [ 150.59112617637112, -35.008049191614667, 0.0 ], [ 150.591221903909798, -35.008333343999233, 0.0 ], [ 150.591294839644831, -35.008622038805953, 0.0 ], [ 150.591344671144412, -35.008914041165866, 0.0 ], [ 150.591371185071637, -35.009208099234094, 0.0 ], [ 150.591374265777745, -35.009502954978934, 0.0 ], [ 150.591353901851164, -35.009797345213173, 0.0 ], [ 150.591310178246431, -35.010090008649598, 0.0 ], [ 150.591243283743182, -35.010379693261299, 0.0 ], [ 150.591153504354793, -35.01066515705282, 0.0 ], [ 150.591041224111137, -35.010945178894204, 0.0 ], [ 150.590906922846813, -35.011218559379778, 0.0 ], [ 150.590751176020149, -35.011484127136207, 0.0 ], [ 150.590574650125376, -35.011740745944735, 0.0 ], [ 150.590497137602881, -35.011842230600003, 0.0 ], [ 150.590375559354243, -35.011996806258942, 0.0 ], [ 150.590256522877155, -35.012141891140573, 0.0 ], [ 150.590040792588042, -35.012377356211438, 0.0 ], [ 150.589806803847466, -35.012600708363408, 0.0 ], [ 150.589555559877169, -35.012810991136448, 0.0 ], [ 150.589288135720381, -35.013007303587379, 0.0 ], [ 150.589005676987341, -35.013188805675931, 0.0 ], [ 150.588709393258114, -35.013354719037352, 0.0 ], [ 150.588400553488583, -35.013504334104894, 0.0 ], [ 150.588080479438162, -35.01363700998121, 0.0 ], [ 150.587750543370788, -35.013752178000388, 0.0 ], [ 150.587593257120602, -35.013797342577732, 0.0 ], [ 150.587656094561055, -35.013983881555546, 0.0 ], [ 150.587729021452361, -35.014272577956518, 0.0 ], [ 150.587778842400553, -35.014564581157899, 0.0 ], [ 150.587805344114003, -35.014858639311186, 0.0 ], [ 150.587808410995905, -35.015153494384201, 0.0 ], [ 150.587788031694117, -35.015447883192657, 0.0 ], [ 150.587747521066717, -35.015723329371227, 0.0 ], [ 150.587713862679834, -35.015905068203779, 0.0 ], [ 150.587713839182385, -35.015905196646223, 0.0 ], [ 150.587688446429297, -35.016042278016478, 0.0 ], [ 150.587685240059955, -35.016059364654815, 0.0 ], [ 150.587618326748697, -35.016349046288717, 0.0 ], [ 150.587528527133145, -35.016634506361846, 0.0 ], [ 150.587416225329605, -35.01691452376015, 0.0 ], [ 150.587281901264959, -35.017187899096896, 0.0 ], [ 150.587126130495193, -35.017453461020807, 0.0 ], [ 150.586949579616942, -35.017710073338044, 0.0 ], [ 150.586753005149035, -35.017956635893242, 0.0 ], [ 150.586537248889783, -35.018192093493816, 0.0 ], [ 150.58639762233193, -35.018328882926696, 0.0 ], [ 150.586395262463697, -35.018331104057864, 0.0 ], [ 150.586394121754779, -35.018333899342679, 0.0 ], [ 150.586344021366699, -35.018451303676606, 0.0 ], [ 150.586209690977114, -35.018724677514648, 0.0 ], [ 150.58605391360291, -35.018990237739764, 0.0 ], [ 150.585877355868973, -35.019246848165359, 0.0 ], [ 150.585690078942122, -35.019481739572988, 0.0 ], [ 150.585032413324114, -35.022690340659423, 0.0 ], [ 150.585030984362305, -35.022710973791938, 0.0 ], [ 150.585017085870106, -35.022803934712947, 0.0 ], [ 150.584977405827857, -35.023514601720166, 0.0 ], [ 150.585058307976539, -35.024338623720766, 0.0 ], [ 150.585309544771974, -35.025202014404904, 0.0 ], [ 150.585379069289019, -35.025479091804243, 0.0 ], [ 150.585428886225287, -35.025771095415912, 0.0 ], [ 150.585455380692451, -35.026065153392075, 0.0 ], [ 150.585458437124458, -35.026360007701285, 0.0 ], [ 150.585438044213845, -35.026654395162552, 0.0 ], [ 150.585394287038753, -35.026947054500432, 0.0 ], [ 150.585327354522633, -35.027236733705585, 0.0 ], [ 150.585237532841518, -35.027522190805627, 0.0 ], [ 150.585125206206186, -35.027802204699171, 0.0 ], [ 150.584990854649533, -35.028075576014494, 0.0 ], [ 150.584936532055252, -35.028168167295881, 0.0 ], [ 150.585081925968979, -35.028441198013304, 0.0 ], [ 150.585216337639736, -35.028692474814427, 0.0 ], [ 150.585218910899698, -35.028695862370341, 0.0 ], [ 150.585593751374176, -35.02908315906577, 0.0 ], [ 150.585623448469022, -35.029114120606941, 0.0 ], [ 150.587476087548481, -35.031063022885228, 0.0 ], [ 150.587586076413913, -35.031182780752445, 0.0 ], [ 150.587787777934466, -35.031426542776487, 0.0 ], [ 150.587809640612733, -35.031455154713925, 0.0 ], [ 150.588152051029311, -35.03190701709422, 0.0 ], [ 150.588312078922286, -35.032132495343781, 0.0 ], [ 150.588445471811184, -35.032347066095525, 0.0 ], [ 150.588643612089413, -35.03268797893957, 0.0 ], [ 150.588671518246827, -35.032736739641372, 0.0 ], [ 150.588795110155957, -35.032973625633566, 0.0 ], [ 150.589249948249062, -35.03391914130377, 0.0 ], [ 150.589266373308163, -35.033953699137591, 0.0 ], [ 150.589384509654707, -35.034232094041137, 0.0 ], [ 150.589480256198271, -35.03451624767677, 0.0 ], [ 150.589553203499207, -35.034804943090002, 0.0 ], [ 150.589603039075769, -35.035096945409379, 0.0 ], [ 150.589629549573431, -35.035391002790163, 0.0 ], [ 150.58963282522555, -35.035678589179348, 0.0 ], [ 150.589590459484754, -35.037223704869362, 0.0 ], [ 150.589590253600619, -35.037230972891493, 0.0 ], [ 150.589569870437771, -35.037525361058705, 0.0 ], [ 150.589526119791742, -35.037818021772665, 0.0 ], [ 150.589459190558159, -35.038107703018092, 0.0 ], [ 150.589369368898872, -35.038393162813882, 0.0 ], [ 150.589288710502473, -35.038600195191783, 0.0 ], [ 150.588769393762902, -35.039830202857878, 0.0 ], [ 150.588737721289732, -35.039903187526008, 0.0 ], [ 150.588603359287447, -35.040176562032414, 0.0 ], [ 150.588447544558079, -35.040442123137566, 0.0 ], [ 150.588270943886215, -35.040698734651073, 0.0 ], [ 150.588074314003933, -35.040945296421008, 0.0 ], [ 150.588011081478271, -35.041017663943421, 0.0 ], [ 150.587533734861438, -35.041552718933978, 0.0 ], [ 150.587381148356371, -35.041715807555477, 0.0 ], [ 150.587312029066112, -35.041784878996047, 0.0 ], [ 150.586243399415963, -35.042831396991225, 0.0 ], [ 150.586189433291878, -35.042883437846982, 0.0 ], [ 150.58392495383174, -35.045033795262491, 0.0 ], [ 150.583813945137763, -35.045136021319273, 0.0 ], [ 150.583562581841619, -35.045346285965252, 0.0 ], [ 150.583295033338828, -35.04554257933728, 0.0 ], [ 150.583012445772425, -35.045724061476754, 0.0 ], [ 150.582716029274309, -35.045889954104183, 0.0 ], [ 150.582407053369138, -35.046039547741564, 0.0 ], [ 150.582086840399256, -35.046172201583119, 0.0 ], [ 150.581756763224348, -35.046287347057337, 0.0 ], [ 150.581418234156871, -35.046384491213772, 0.0 ], [ 150.581072703836043, -35.046463217603616, 0.0 ], [ 150.580721652352992, -35.046523189709845, 0.0 ], [ 150.580366581577408, -35.046564150795056, 0.0 ], [ 150.580009014003906, -35.046585925682308, 0.0 ], [ 150.579650479627105, -35.046588419592183, 0.0 ] ] ] ] } }
]
}
