{
"type": "FeatureCollection",
"name": "Hollow bearing trees",
"crs": { "type": "name", "properties": { "name": "urn:ogc:def:crs:OGC:1.3:CRS84" } },
"features": [
{ "type": "Feature", "properties": { "OBJECTID": 1, "sciname": "Corymbia maculata", "commonname": "Spotted Gum", "condition": "Good", "dbh_cm": 50.0, "height_m": 10.0, "htrunk40": 0, "htrunk100": 1, "htrunk150": 0, "htrunk300": 0, "htrunkbig": 0, "hlimb40": 0, "hlimb100": 0, "hlimb150": 0, "hlimb300": 0, "hlimbbig": 0, "hfiss40": 0, "hfiss100": 0, "hfiss150": 0, "hfiss300": 0, "hfissbig": 0, "datesurvey": "2021-06-07T00:00:00Z", "observe": "Basal Hollow", "Comments": null, "ECMLink": null, "FSource": "Smartphone via Esri Field Maps", "SourceDate": "2026-02-04T00:00:00Z", "PlanAccur": 5.0, "Supplier": "Stantec Australia Pty Ltd (3045)" }, "geometry": { "type": "Point", "coordinates": [ 150.579119999529496, -35.01983666659617 ] } },
{ "type": "Feature", "properties": { "OBJECTID": 2, "sciname": "Eucalyptus botryoides", "commonname": "Bangalay", "condition": "Very Good", "dbh_cm": 70.0, "height_m": 20.0, "htrunk40": 0, "htrunk100": 0, "htrunk150": 0, "htrunk300": 1, "htrunkbig": 1, "hlimb40": 0, "hlimb100": 0, "hlimb150": 0, "hlimb300": 2, "hlimbbig": 0, "hfiss40": 0, "hfiss100": 0, "hfiss150": 0, "hfiss300": 0, "hfissbig": 0, "datesurvey": "2021-06-07T00:00:00Z", "observe": "Hollows 6-12m above ground", "Comments": null, "ECMLink": null, "FSource": "Smartphone via Esri Field Maps", "SourceDate": "2026-02-04T00:00:00Z", "PlanAccur": 5.0, "Supplier": "Stantec Australia Pty Ltd (3045)" }, "geometry": { "type": "Point", "coordinates": [ 150.578441620288601, -35.045246528626556 ] } },
{ "type": "Feature", "properties": { "OBJECTID": 3, "sciname": "Eucalyptus botryoides", "commonname": "Bangalay", "condition": "Very Good", "dbh_cm": 63.0, "height_m": 12.0, "htrunk40": 0, "htrunk100": 0, "htrunk150": 0, "htrunk300": 0, "htrunkbig": 0, "hlimb40": 0, "hlimb100": 0, "hlimb150": 1, "hlimb300": 2, "hlimbbig": 0, "hfiss40": 0, "hfiss100": 0, "hfiss150": 0, "hfiss300": 0, "hfissbig": 0, "datesurvey": "2021-06-07T00:00:00Z", "observe": "Hollows 6-12m above ground", "Comments": null, "ECMLink": null, "FSource": "Smartphone via Esri Field Maps", "SourceDate": "2026-02-04T00:00:00Z", "PlanAccur": 5.0, "Supplier": "Stantec Australia Pty Ltd (3045)" }, "geometry": { "type": "Point", "coordinates": [ 150.57908869808719, -35.044825601534619 ] } },
{ "type": "Feature", "properties": { "OBJECTID": 4, "sciname": "Corymbia maculata", "commonname": "Spotted Gum", "condition": "Very Good", "dbh_cm": 89.0, "height_m": 20.0, "htrunk40": 0, "htrunk100": 0, "htrunk150": 0, "htrunk300": 0, "htrunkbig": 0, "hlimb40": 0, "hlimb100": 0, "hlimb150": 2, "hlimb300": 0, "hlimbbig": 0, "hfiss40": 0, "hfiss100": 0, "hfiss150": 0, "hfiss300": 0, "hfissbig": 0, "datesurvey": "2021-06-07T00:00:00Z", "observe": "Hollows 10 m above ground", "Comments": null, "ECMLink": null, "FSource": "Smartphone via Esri Field Maps", "SourceDate": "2026-02-04T00:00:00Z", "PlanAccur": 5.0, "Supplier": "Stantec Australia Pty Ltd (3045)" }, "geometry": { "type": "Point", "coordinates": [ 150.580983851545454, -35.027001724244194 ] } },
{ "type": "Feature", "properties": { "OBJECTID": 5, "sciname": "Eucalyptus sclerophylla", "commonname": "Scribbly Gum", "condition": "Good", "dbh_cm": 72.0, "height_m": 12.0, "htrunk40": 0, "htrunk100": 0, "htrunk150": 0, "htrunk300": 0, "htrunkbig": 1, "hlimb40": 0, "hlimb100": 0, "hlimb150": 1, "hlimb300": 0, "hlimbbig": 0, "hfiss40": 0, "hfiss100": 0, "hfiss150": 0, "hfiss300": 0, "hfissbig": 0, "datesurvey": "2021-06-07T00:00:00Z", "observe": "Hollows 10 m above ground - limb vertical", "Comments": null, "ECMLink": null, "FSource": "Smartphone via Esri Field Maps", "SourceDate": "2026-02-04T00:00:00Z", "PlanAccur": 5.0, "Supplier": "Stantec Australia Pty Ltd (3045)" }, "geometry": { "type": "Point", "coordinates": [ 150.5832103689973, -35.006482267690664 ] } },
{ "type": "Feature", "properties": { "OBJECTID": 6, "sciname": "Corymbia maculata", "commonname": "Spotted Gum", "condition": "Very Good", "dbh_cm": 110.0, "height_m": 20.0, "htrunk40": 0, "htrunk100": 0, "htrunk150": 0, "htrunk300": 0, "htrunkbig": 0, "hlimb40": 0, "hlimb100": 2, "hlimb150": 0, "hlimb300": 0, "hlimbbig": 0, "hfiss40": 0, "hfiss100": 0, "hfiss150": 0, "hfiss300": 0, "hfissbig": 0, "datesurvey": "2021-06-07T00:00:00Z", "observe": " -", "Comments": null, "ECMLink": null, "FSource": "Smartphone via Esri Field Maps", "SourceDate": "2026-02-04T00:00:00Z", "PlanAccur": 5.0, "Supplier": "Stantec Australia Pty Ltd (3045)" }, "geometry": { "type": "Point", "coordinates": [ 150.582984290402862, -35.00154098449503 ] } },
{ "type": "Feature", "properties": { "OBJECTID": 7, "sciname": "Eucalyptus pilularis", "commonname": "Blackbutt", "condition": "Good", "dbh_cm": 45.0, "height_m": 8.0, "htrunk40": 0, "htrunk100": 0, "htrunk150": 0, "htrunk300": 0, "htrunkbig": 0, "hlimb40": 0, "hlimb100": 1, "hlimb150": 0, "hlimb300": 0, "hlimbbig": 0, "hfiss40": 0, "hfiss100": 0, "hfiss150": 0, "hfiss300": 0, "hfissbig": 0, "datesurvey": "2021-06-07T00:00:00Z", "observe": "Broken Limb", "Comments": null, "ECMLink": null, "FSource": "Smartphone via Esri Field Maps", "SourceDate": "2026-02-04T00:00:00Z", "PlanAccur": 5.0, "Supplier": "Stantec Australia Pty Ltd (3045)" }, "geometry": { "type": "Point", "coordinates": [ 150.580390743323278, -35.040366897282304 ] } },
{ "type": "Feature", "properties": { "OBJECTID": 8, "sciname": "Corymbia maculata", "commonname": "Spotted Gum", "condition": "Good", "dbh_cm": 42.0, "height_m": 8.0, "htrunk40": 1, "htrunk100": 0, "htrunk150": 0, "htrunk300": 0, "htrunkbig": 0, "hlimb40": 0, "hlimb100": 0, "hlimb150": 0, "hlimb300": 0, "hlimbbig": 0, "hfiss40": 0, "hfiss100": 0, "hfiss150": 0, "hfiss300": 0, "hfissbig": 0, "datesurvey": "2021-06-07T00:00:00Z", "observe": " -", "Comments": null, "ECMLink": null, "FSource": "Smartphone via Esri Field Maps", "SourceDate": "2026-02-04T00:00:00Z", "PlanAccur": 5.0, "Supplier": "Stantec Australia Pty Ltd (3045)" }, "geometry": { "type": "Point", "coordinates": [ 150.579368563732686, -35.021126400567795 ] } },
{ "type": "Feature", "properties": { "OBJECTID": 9, "sciname": "Stag", "commonname": "Stag", "condition": "Poor", "dbh_cm": 40.0, "height_m": 8.0, "htrunk40": 0, "htrunk100": 0, "htrunk150": 0, "htrunk300": 1, "htrunkbig": 0, "hlimb40": 0, "hlimb100": 0, "hlimb150": 0, "hlimb300": 0, "hlimbbig": 0, "hfiss40": 0, "hfiss100": 0, "hfiss150": 0, "hfiss300": 0, "hfissbig": 0, "datesurvey": "2021-06-07T00:00:00Z", "observe": " -", "Comments": null, "ECMLink": null, "FSource": "Smartphone via Esri Field Maps", "SourceDate": "2026-02-04T00:00:00Z", "PlanAccur": 5.0, "Supplier": "Stantec Australia Pty Ltd (3045)" }, "geometry": { "type": "Point", "coordinates": [ 150.572944285556702, -35.024986026312718 ] } },
{ "type": "Feature", "properties": { "OBJECTID": 10, "sciname": "Stag", "commonname": "Stag", "condition": "Poor", "dbh_cm": 65.0, "height_m": 10.0, "htrunk40": 0, "htrunk100": 0, "htrunk150": 1, "htrunk300": 1, "htrunkbig": 1, "hlimb40": 0, "hlimb100": 0, "hlimb150": 0, "hlimb300": 0, "hlimbbig": 0, "hfiss40": 0, "hfiss100": 0, "hfiss150": 0, "hfiss300": 0, "hfissbig": 0, "datesurvey": "2021-06-07T00:00:00Z", "observe": " -", "Comments": null, "ECMLink": null, "FSource": "Smartphone via Esri Field Maps", "SourceDate": "2026-02-04T00:00:00Z", "PlanAccur": 5.0, "Supplier": "Stantec Australia Pty Ltd (3045)" }, "geometry": { "type": "Point", "coordinates": [ 150.57293999913847, -35.025044999834975 ] } },
{ "type": "Feature", "properties": { "OBJECTID": 11, "sciname": "Stag", "commonname": "Stag", "condition": "Poor", "dbh_cm": 60.0, "height_m": 10.0, "htrunk40": 0, "htrunk100": 0, "htrunk150": 0, "htrunk300": 2, "htrunkbig": 0, "hlimb40": 0, "hlimb100": 0, "hlimb150": 0, "hlimb300": 0, "hlimbbig": 0, "hfiss40": 0, "hfiss100": 0, "hfiss150": 0, "hfiss300": 0, "hfissbig": 0, "datesurvey": "2021-06-07T00:00:00Z", "observe": " -", "Comments": null, "ECMLink": null, "FSource": "Smartphone via Esri Field Maps", "SourceDate": "2026-02-04T00:00:00Z", "PlanAccur": 5.0, "Supplier": "Stantec Australia Pty Ltd (3045)" }, "geometry": { "type": "Point", "coordinates": [ 150.579760595990564, -35.02463926024717 ] } },
{ "type": "Feature", "properties": { "OBJECTID": 12, "sciname": "Eucalyptus pilularis", "commonname": "Blackbutt", "condition": "Poor", "dbh_cm": 60.0, "height_m": 8.0, "htrunk40": 0, "htrunk100": 0, "htrunk150": 0, "htrunk300": 1, "htrunkbig": 0, "hlimb40": 0, "hlimb100": 0, "hlimb150": 0, "hlimb300": 0, "hlimbbig": 0, "hfiss40": 0, "hfiss100": 0, "hfiss150": 0, "hfiss300": 0, "hfissbig": 0, "datesurvey": "2021-06-07T00:00:00Z", "observe": "Vertical hollow in crown", "Comments": null, "ECMLink": null, "FSource": "Smartphone via Esri Field Maps", "SourceDate": "2026-02-04T00:00:00Z", "PlanAccur": 5.0, "Supplier": "Stantec Australia Pty Ltd (3045)" }, "geometry": { "type": "Point", "coordinates": [ 150.575383333081561, -35.0244516670462 ] } },
{ "type": "Feature", "properties": { "OBJECTID": 13, "sciname": "Stag", "commonname": "Stag", "condition": "Very Poor", "dbh_cm": 42.0, "height_m": 8.0, "htrunk40": 0, "htrunk100": 0, "htrunk150": 1, "htrunk300": 0, "htrunkbig": 0, "hlimb40": 0, "hlimb100": 0, "hlimb150": 1, "hlimb300": 0, "hlimbbig": 0, "hfiss40": 0, "hfiss100": 0, "hfiss150": 0, "hfiss300": 0, "hfissbig": 0, "datesurvey": "2021-06-07T00:00:00Z", "observe": "Verical hollow", "Comments": null, "ECMLink": null, "FSource": "Smartphone via Esri Field Maps", "SourceDate": "2026-02-04T00:00:00Z", "PlanAccur": 5.0, "Supplier": "Stantec Australia Pty Ltd (3045)" }, "geometry": { "type": "Point", "coordinates": [ 150.575415324842112, -35.025109196238532 ] } },
{ "type": "Feature", "properties": { "OBJECTID": 14, "sciname": "Corymbia gummiffera", "commonname": "Red Bloodwood", "condition": "Poor", "dbh_cm": 42.0, "height_m": 10.0, "htrunk40": 0, "htrunk100": 0, "htrunk150": 0, "htrunk300": 0, "htrunkbig": 0, "hlimb40": 0, "hlimb100": 0, "hlimb150": 1, "hlimb300": 0, "hlimbbig": 0, "hfiss40": 0, "hfiss100": 0, "hfiss150": 0, "hfiss300": 0, "hfissbig": 0, "datesurvey": "2021-06-07T00:00:00Z", "observe": "Burnt out limb", "Comments": null, "ECMLink": null, "FSource": "Smartphone via Esri Field Maps", "SourceDate": "2026-02-04T00:00:00Z", "PlanAccur": 5.0, "Supplier": "Stantec Australia Pty Ltd (3045)" }, "geometry": { "type": "Point", "coordinates": [ 150.575216666999921, -35.025431666946908 ] } },
{ "type": "Feature", "properties": { "OBJECTID": 15, "sciname": "Stag", "commonname": "Stag", "condition": "Very Poor", "dbh_cm": 55.0, "height_m": 6.0, "htrunk40": 0, "htrunk100": 0, "htrunk150": 0, "htrunk300": 1, "htrunkbig": 0, "hlimb40": 0, "hlimb100": 0, "hlimb150": 1, "hlimb300": 0, "hlimbbig": 0, "hfiss40": 0, "hfiss100": 0, "hfiss150": 0, "hfiss300": 0, "hfissbig": 0, "datesurvey": "2021-06-07T00:00:00Z", "observe": "Large vertical in crown and one small in limb", "Comments": null, "ECMLink": null, "FSource": "Smartphone via Esri Field Maps", "SourceDate": "2026-02-04T00:00:00Z", "PlanAccur": 5.0, "Supplier": "Stantec Australia Pty Ltd (3045)" }, "geometry": { "type": "Point", "coordinates": [ 150.574533332952939, -35.025661666107226 ] } },
{ "type": "Feature", "properties": { "OBJECTID": 16, "sciname": "Eucalyptus pilularis", "commonname": "Blackbutt", "condition": "Good", "dbh_cm": 50.0, "height_m": 8.0, "htrunk40": 0, "htrunk100": 0, "htrunk150": 0, "htrunk300": 0, "htrunkbig": 0, "hlimb40": 0, "hlimb100": 1, "hlimb150": 0, "hlimb300": 0, "hlimbbig": 0, "hfiss40": 0, "hfiss100": 0, "hfiss150": 0, "hfiss300": 0, "hfissbig": 0, "datesurvey": "2021-06-07T00:00:00Z", "observe": "Broken limb", "Comments": null, "ECMLink": null, "FSource": "Smartphone via Esri Field Maps", "SourceDate": "2026-02-04T00:00:00Z", "PlanAccur": 5.0, "Supplier": "Stantec Australia Pty Ltd (3045)" }, "geometry": { "type": "Point", "coordinates": [ 150.574133999211142, -35.026356547928216 ] } },
{ "type": "Feature", "properties": { "OBJECTID": 17, "sciname": "Stag", "commonname": "Stag", "condition": "Very Poor", "dbh_cm": 60.0, "height_m": 10.0, "htrunk40": 0, "htrunk100": 0, "htrunk150": 0, "htrunk300": 1, "htrunkbig": 1, "hlimb40": 0, "hlimb100": 0, "hlimb150": 0, "hlimb300": 0, "hlimbbig": 0, "hfiss40": 0, "hfiss100": 0, "hfiss150": 0, "hfiss300": 0, "hfissbig": 0, "datesurvey": "2021-06-07T00:00:00Z", "observe": "Verical", "Comments": null, "ECMLink": null, "FSource": "Smartphone via Esri Field Maps", "SourceDate": "2026-02-04T00:00:00Z", "PlanAccur": 5.0, "Supplier": "Stantec Australia Pty Ltd (3045)" }, "geometry": { "type": "Point", "coordinates": [ 150.573914374109251, -35.027094054693535 ] } },
{ "type": "Feature", "properties": { "OBJECTID": 18, "sciname": "Eucalyptus botryoides", "commonname": "Bangalay", "condition": "Good", "dbh_cm": 120.0, "height_m": 15.0, "htrunk40": 0, "htrunk100": 0, "htrunk150": 0, "htrunk300": 1, "htrunkbig": 0, "hlimb40": 0, "hlimb100": 0, "hlimb150": 0, "hlimb300": 2, "hlimbbig": 0, "hfiss40": 0, "hfiss100": 0, "hfiss150": 0, "hfiss300": 0, "hfissbig": 0, "datesurvey": "2021-06-07T00:00:00Z", "observe": "-", "Comments": null, "ECMLink": null, "FSource": "Smartphone via Esri Field Maps", "SourceDate": "2026-02-04T00:00:00Z", "PlanAccur": 5.0, "Supplier": "Stantec Australia Pty Ltd (3045)" }, "geometry": { "type": "Point", "coordinates": [ 150.577979159109645, -35.041334613375689 ] } },
{ "type": "Feature", "properties": { "OBJECTID": 19, "sciname": "Eucalyptus sclerophylla", "commonname": "Scribbly Gum", "condition": "Good", "dbh_cm": 60.0, "height_m": 10.0, "htrunk40": 0, "htrunk100": 0, "htrunk150": 0, "htrunk300": 0, "htrunkbig": 0, "hlimb40": 0, "hlimb100": 0, "hlimb150": 0, "hlimb300": 1, "hlimbbig": 0, "hfiss40": 0, "hfiss100": 0, "hfiss150": 0, "hfiss300": 0, "hfissbig": 0, "datesurvey": "2021-06-07T00:00:00Z", "observe": "Off broken limb - 8m above ground", "Comments": null, "ECMLink": null, "FSource": "Smartphone via Esri Field Maps", "SourceDate": "2026-02-04T00:00:00Z", "PlanAccur": 5.0, "Supplier": "Stantec Australia Pty Ltd (3045)" }, "geometry": { "type": "Point", "coordinates": [ 150.584898918113822, -34.991271053036954 ] } },
{ "type": "Feature", "properties": { "OBJECTID": 20, "sciname": "Eucalyptus racemosa", "commonname": "Scribbly Gum", "condition": "Good", "dbh_cm": 65.0, "height_m": 10.0, "htrunk40": 0, "htrunk100": 0, "htrunk150": 0, "htrunk300": 1, "htrunkbig": 0, "hlimb40": 0, "hlimb100": 0, "hlimb150": 0, "hlimb300": 0, "hlimbbig": 0, "hfiss40": 0, "hfiss100": 0, "hfiss150": 0, "hfiss300": 0, "hfissbig": 0, "datesurvey": "2021-06-07T00:00:00Z", "observe": "8m above ground", "Comments": null, "ECMLink": null, "FSource": "Smartphone via Esri Field Maps", "SourceDate": "2026-02-04T00:00:00Z", "PlanAccur": 5.0, "Supplier": "Stantec Australia Pty Ltd (3045)" }, "geometry": { "type": "Point", "coordinates": [ 150.585105930792736, -34.99380517840882 ] } },
{ "type": "Feature", "properties": { "OBJECTID": 21, "sciname": "Eucalyptus racemosa", "commonname": "Scribbly Gum", "condition": "Good", "dbh_cm": 57.0, "height_m": 8.0, "htrunk40": 0, "htrunk100": 0, "htrunk150": 0, "htrunk300": 0, "htrunkbig": 0, "hlimb40": 0, "hlimb100": 1, "hlimb150": 0, "hlimb300": 0, "hlimbbig": 0, "hfiss40": 0, "hfiss100": 0, "hfiss150": 0, "hfiss300": 0, "hfissbig": 0, "datesurvey": "2021-06-07T00:00:00Z", "observe": "8m above ground", "Comments": null, "ECMLink": null, "FSource": "Smartphone via Esri Field Maps", "SourceDate": "2026-02-04T00:00:00Z", "PlanAccur": 5.0, "Supplier": "Stantec Australia Pty Ltd (3045)" }, "geometry": { "type": "Point", "coordinates": [ 150.582864479152789, -34.995125779373296 ] } },
{ "type": "Feature", "properties": { "OBJECTID": 22, "sciname": "Eucalyptus racemosa", "commonname": "Scribbly Gum", "condition": "Good", "dbh_cm": 55.0, "height_m": 10.0, "htrunk40": 0, "htrunk100": 0, "htrunk150": 0, "htrunk300": 0, "htrunkbig": 0, "hlimb40": 0, "hlimb100": 0, "hlimb150": 1, "hlimb300": 0, "hlimbbig": 0, "hfiss40": 0, "hfiss100": 0, "hfiss150": 0, "hfiss300": 0, "hfissbig": 0, "datesurvey": "2021-06-07T00:00:00Z", "observe": "8m above ground", "Comments": null, "ECMLink": null, "FSource": "Smartphone via Esri Field Maps", "SourceDate": "2026-02-04T00:00:00Z", "PlanAccur": 5.0, "Supplier": "Stantec Australia Pty Ltd (3045)" }, "geometry": { "type": "Point", "coordinates": [ 150.584213633227307, -34.995375623074366 ] } },
{ "type": "Feature", "properties": { "OBJECTID": 23, "sciname": "Eucalyptus punctata", "commonname": "Grey Gum", "condition": "Good", "dbh_cm": 65.0, "height_m": 20.0, "htrunk40": 0, "htrunk100": 0, "htrunk150": 0, "htrunk300": 1, "htrunkbig": 0, "hlimb40": 0, "hlimb100": 0, "hlimb150": 0, "hlimb300": 0, "hlimbbig": 0, "hfiss40": 0, "hfiss100": 0, "hfiss150": 0, "hfiss300": 0, "hfissbig": 0, "datesurvey": "2021-06-07T00:00:00Z", "observe": "Split of crown", "Comments": null, "ECMLink": null, "FSource": "Smartphone via Esri Field Maps", "SourceDate": "2026-02-04T00:00:00Z", "PlanAccur": 5.0, "Supplier": "Stantec Australia Pty Ltd (3045)" }, "geometry": { "type": "Point", "coordinates": [ 150.584791842539147, -34.995232855093072 ] } },
{ "type": "Feature", "properties": { "OBJECTID": 24, "sciname": "Corymbia maculata", "commonname": "Spotted Gum", "condition": "Poor", "dbh_cm": 75.0, "height_m": 20.0, "htrunk40": 0, "htrunk100": 0, "htrunk150": 0, "htrunk300": 0, "htrunkbig": 0, "hlimb40": 0, "hlimb100": 0, "hlimb150": 0, "hlimb300": 0, "hlimbbig": 0, "hfiss40": 0, "hfiss100": 1, "hfiss150": 0, "hfiss300": 0, "hfissbig": 0, "datesurvey": "2021-06-07T00:00:00Z", "observe": "10m above ground", "Comments": null, "ECMLink": null, "FSource": "Smartphone via Esri Field Maps", "SourceDate": "2026-02-04T00:00:00Z", "PlanAccur": 5.0, "Supplier": "Stantec Australia Pty Ltd (3045)" }, "geometry": { "type": "Point", "coordinates": [ 150.584028035189078, -34.997517138060658 ] } },
{ "type": "Feature", "properties": { "OBJECTID": 25, "sciname": "Corymbia maculata", "commonname": "Spotted Gum", "condition": "Good", "dbh_cm": 75.0, "height_m": 15.0, "htrunk40": 0, "htrunk100": 0, "htrunk150": 0, "htrunk300": 0, "htrunkbig": 0, "hlimb40": 0, "hlimb100": 0, "hlimb150": 1, "hlimb300": 1, "hlimbbig": 0, "hfiss40": 0, "hfiss100": 0, "hfiss150": 0, "hfiss300": 0, "hfissbig": 0, "datesurvey": "2021-06-07T00:00:00Z", "observe": " ", "Comments": null, "ECMLink": null, "FSource": "Smartphone via Esri Field Maps", "SourceDate": "2026-02-04T00:00:00Z", "PlanAccur": 5.0, "Supplier": "Stantec Australia Pty Ltd (3045)" }, "geometry": { "type": "Point", "coordinates": [ 150.585598178455029, -35.000558703812459 ] } },
{ "type": "Feature", "properties": { "OBJECTID": 26, "sciname": "Corymbia gummiffera", "commonname": "Red Bloodwood", "condition": "Good", "dbh_cm": 65.0, "height_m": 15.0, "htrunk40": 0, "htrunk100": 0, "htrunk150": 0, "htrunk300": 1, "htrunkbig": 0, "hlimb40": 0, "hlimb100": 0, "hlimb150": 0, "hlimb300": 0, "hlimbbig": 0, "hfiss40": 0, "hfiss100": 0, "hfiss150": 0, "hfiss300": 0, "hfissbig": 0, "datesurvey": "2021-06-07T00:00:00Z", "observe": "8m above ground", "Comments": null, "ECMLink": null, "FSource": "Smartphone via Esri Field Maps", "SourceDate": "2026-02-04T00:00:00Z", "PlanAccur": 5.0, "Supplier": "Stantec Australia Pty Ltd (3045)" }, "geometry": { "type": "Point", "coordinates": [ 150.58377105332886, -35.003875058188456 ] } },
{ "type": "Feature", "properties": { "OBJECTID": 27, "sciname": "Eucalyptus racemosa", "commonname": "Scribbly Gum", "condition": "Good", "dbh_cm": 74.0, "height_m": 12.0, "htrunk40": 0, "htrunk100": 0, "htrunk150": 0, "htrunk300": 0, "htrunkbig": 0, "hlimb40": 0, "hlimb100": 1, "hlimb150": 2, "hlimb300": 0, "hlimbbig": 0, "hfiss40": 0, "hfiss100": 0, "hfiss150": 0, "hfiss300": 0, "hfissbig": 0, "datesurvey": "2021-06-07T00:00:00Z", "observe": "8 m above ground in broken limbs", "Comments": null, "ECMLink": null, "FSource": "Smartphone via Esri Field Maps", "SourceDate": "2026-02-04T00:00:00Z", "PlanAccur": 5.0, "Supplier": "Stantec Australia Pty Ltd (3045)" }, "geometry": { "type": "Point", "coordinates": [ 150.583495035888944, -35.004465164472002 ] } },
{ "type": "Feature", "properties": { "OBJECTID": 28, "sciname": "Eucalyptus pilularis", "commonname": "Blackbutt", "condition": "Poor", "dbh_cm": 45.0, "height_m": 10.0, "htrunk40": 0, "htrunk100": 0, "htrunk150": 0, "htrunk300": 0, "htrunkbig": 0, "hlimb40": 0, "hlimb100": 0, "hlimb150": 1, "hlimb300": 0, "hlimbbig": 0, "hfiss40": 0, "hfiss100": 0, "hfiss150": 0, "hfiss300": 0, "hfissbig": 0, "datesurvey": "2021-06-07T00:00:00Z", "observe": "Broken limb", "Comments": null, "ECMLink": null, "FSource": "Smartphone via Esri Field Maps", "SourceDate": "2026-02-04T00:00:00Z", "PlanAccur": 5.0, "Supplier": "Stantec Australia Pty Ltd (3045)" }, "geometry": { "type": "Point", "coordinates": [ 150.583342750801705, -35.004569859955375 ] } },
{ "type": "Feature", "properties": { "OBJECTID": 29, "sciname": "Corymbia gummiffera\r\n", "commonname": "Red Bloodwood\r\n", "condition": "Poor", "dbh_cm": 55.0, "height_m": 10.0, "htrunk40": 0, "htrunk100": 0, "htrunk150": 1, "htrunk300": 0, "htrunkbig": 0, "hlimb40": 0, "hlimb100": 0, "hlimb150": 0, "hlimb300": 0, "hlimbbig": 0, "hfiss40": 0, "hfiss100": 0, "hfiss150": 0, "hfiss300": 0, "hfissbig": 0, "datesurvey": "2021-06-07T00:00:00Z", "observe": "6m above ground", "Comments": null, "ECMLink": null, "FSource": "Smartphone via Esri Field Maps", "SourceDate": "2026-02-04T00:00:00Z", "PlanAccur": 5.0, "Supplier": "Stantec Australia Pty Ltd (3045)" }, "geometry": { "type": "Point", "coordinates": [ 150.58151532491965, -35.00760605251503 ] } },
{ "type": "Feature", "properties": { "OBJECTID": 30, "sciname": "Eucalyptus racemosa\r\n", "commonname": "Scribbly Gum\r\n", "condition": "Poor", "dbh_cm": 46.0, "height_m": 8.0, "htrunk40": 0, "htrunk100": 0, "htrunk150": 0, "htrunk300": 0, "htrunkbig": 0, "hlimb40": 0, "hlimb100": 1, "hlimb150": 0, "hlimb300": 0, "hlimbbig": 0, "hfiss40": 0, "hfiss100": 0, "hfiss150": 0, "hfiss300": 0, "hfissbig": 0, "datesurvey": "2021-06-07T00:00:00Z", "observe": "dead limb", "Comments": null, "ECMLink": null, "FSource": "Smartphone via Esri Field Maps", "SourceDate": "2026-02-04T00:00:00Z", "PlanAccur": 5.0, "Supplier": "Stantec Australia Pty Ltd (3045)" }, "geometry": { "type": "Point", "coordinates": [ 150.581448699717413, -35.008376997783593 ] } },
{ "type": "Feature", "properties": { "OBJECTID": 31, "sciname": "Corymbia gummiffera\r\n", "commonname": "Red Bloodwood\r\n", "condition": "Good\r\n", "dbh_cm": 65.0, "height_m": 10.0, "htrunk40": 0, "htrunk100": 0, "htrunk150": 0, "htrunk300": 1, "htrunkbig": 0, "hlimb40": 0, "hlimb100": 0, "hlimb150": 0, "hlimb300": 0, "hlimbbig": 0, "hfiss40": 0, "hfiss100": 0, "hfiss150": 0, "hfiss300": 0, "hfissbig": 0, "datesurvey": "2021-06-07T00:00:00Z", "observe": " ", "Comments": null, "ECMLink": null, "FSource": "Smartphone via Esri Field Maps", "SourceDate": "2026-02-04T00:00:00Z", "PlanAccur": 5.0, "Supplier": "Stantec Australia Pty Ltd (3045)" }, "geometry": { "type": "Point", "coordinates": [ 150.580963289995424, -35.013973489829738 ] } },
{ "type": "Feature", "properties": { "OBJECTID": 32, "sciname": "Eucalyptus pilularis\r\n", "commonname": "Blackbutt\r\n", "condition": "Good", "dbh_cm": 85.0, "height_m": 15.0, "htrunk40": 1, "htrunk100": 0, "htrunk150": 1, "htrunk300": 0, "htrunkbig": 1, "hlimb40": 0, "hlimb100": 0, "hlimb150": 1, "hlimb300": 1, "hlimbbig": 0, "hfiss40": 0, "hfiss100": 0, "hfiss150": 0, "hfiss300": 0, "hfissbig": 0, "datesurvey": "2021-06-07T00:00:00Z", "observe": " ", "Comments": null, "ECMLink": null, "FSource": "Smartphone via Esri Field Maps", "SourceDate": "2026-02-04T00:00:00Z", "PlanAccur": 5.0, "Supplier": "Stantec Australia Pty Ltd (3045)" }, "geometry": { "type": "Point", "coordinates": [ 150.580896664425467, -35.014078186105358 ] } },
{ "type": "Feature", "properties": { "OBJECTID": 33, "sciname": "Eucalyptus racemosa\r\n", "commonname": "Scribbly Gum\r\n", "condition": "Good", "dbh_cm": 52.0, "height_m": 10.0, "htrunk40": 0, "htrunk100": 0, "htrunk150": 0, "htrunk300": 0, "htrunkbig": 0, "hlimb40": 0, "hlimb100": 0, "hlimb150": 0, "hlimb300": 1, "hlimbbig": 0, "hfiss40": 0, "hfiss100": 0, "hfiss150": 0, "hfiss300": 0, "hfissbig": 0, "datesurvey": "2021-06-07T00:00:00Z", "observe": " ", "Comments": null, "ECMLink": null, "FSource": "Smartphone via Esri Field Maps", "SourceDate": "2026-02-04T00:00:00Z", "PlanAccur": 5.0, "Supplier": "Stantec Australia Pty Ltd (3045)" }, "geometry": { "type": "Point", "coordinates": [ 150.580858593690834, -35.014401793033606 ] } },
{ "type": "Feature", "properties": { "OBJECTID": 34, "sciname": "Eucalyptus racemosa\r\n", "commonname": "Scribbly Gum", "condition": "Good", "dbh_cm": 40.0, "height_m": 10.0, "htrunk40": 0, "htrunk100": 0, "htrunk150": 0, "htrunk300": 0, "htrunkbig": 0, "hlimb40": 0, "hlimb100": 0, "hlimb150": 0, "hlimb300": 1, "hlimbbig": 0, "hfiss40": 0, "hfiss100": 0, "hfiss150": 0, "hfiss300": 0, "hfissbig": 0, "datesurvey": "2021-06-07T00:00:00Z", "observe": " ", "Comments": null, "ECMLink": null, "FSource": "Smartphone via Esri Field Maps", "SourceDate": "2026-02-04T00:00:00Z", "PlanAccur": 5.0, "Supplier": "Stantec Australia Pty Ltd (3045)" }, "geometry": { "type": "Point", "coordinates": [ 150.578193597473955, -35.020531284378258 ] } },
{ "type": "Feature", "properties": { "OBJECTID": 35, "sciname": "Corymbia maculata\r\n", "commonname": "Spotted Gum", "condition": "Good", "dbh_cm": 62.0, "height_m": 12.0, "htrunk40": 0, "htrunk100": 0, "htrunk150": 0, "htrunk300": 0, "htrunkbig": 0, "hlimb40": 0, "hlimb100": 0, "hlimb150": 1, "hlimb300": 0, "hlimbbig": 0, "hfiss40": 0, "hfiss100": 0, "hfiss150": 0, "hfiss300": 0, "hfissbig": 0, "datesurvey": "2021-06-07T00:00:00Z", "observe": " ", "Comments": null, "ECMLink": null, "FSource": "Smartphone via Esri Field Maps", "SourceDate": "2026-02-04T00:00:00Z", "PlanAccur": 5.0, "Supplier": "Stantec Australia Pty Ltd (3045)" }, "geometry": { "type": "Point", "coordinates": [ 150.577889025983183, -35.02264424659942 ] } }
]
}
