{
"type": "FeatureCollection",
"name": "Subject land",
"crs": { "type": "name", "properties": { "name": "urn:ogc:def:crs:OGC:1.3:CRS84" } },
"features": [
{ "type": "Feature", "properties": { "OBJECTID": 1, "Comments": "Final Construction Boundary", "ECMLink": null, "FSource": "TfNSW", "SourceDate": "2026-02-04T00:00:00Z", "PlanAccur": null, "Supplier": "Stantec Australia Pty Ltd (3045)", "Shape_Length": 18528.758393454395, "Shape_Area": 868169.87543514068 }, "geometry": { "type": "MultiPolygon", "coordinates": [ [ [ [ 150.579783417920737, -35.042083765939267, 0.0 ], [ 150.579509143524064, -35.041801057685113, 0.0 ], [ 150.582429025053727, -35.038910818352555, 0.0 ], [ 150.583148909704249, -35.037323284590848, 0.0 ], [ 150.583185380728708, -35.03703059423092, 0.0 ], [ 150.583086763049522, -35.035767859532292, 0.0 ], [ 150.58309052687639, -35.035271236397399, 0.0 ], [ 150.582972339134926, -35.034752832788975, 0.0 ], [ 150.582254570521457, -35.033778612672521, 0.0 ], [ 150.581768782385012, -35.033332889050399, 0.0 ], [ 150.580974921921609, -35.032604630302032, 0.0 ], [ 150.580417550862649, -35.031871159925316, 0.0 ], [ 150.58037109002143, -35.03189505024838, 0.0 ], [ 150.579848138346733, -35.031359257214476, 0.0 ], [ 150.579549018496635, -35.031029914889679, 0.0 ], [ 150.578579522849026, -35.030299975522929, 0.0 ], [ 150.578421167879753, -35.029485640445017, 0.0 ], [ 150.578041136948684, -35.028982537443902, 0.0 ], [ 150.578014055425115, -35.028982619532634, 0.0 ], [ 150.577904047184688, -35.028801049501887, 0.0 ], [ 150.577776291361118, -35.028251349683323, 0.0 ], [ 150.577656318811449, -35.028231558898483, 0.0 ], [ 150.577185042883627, -35.026124220950116, 0.0 ], [ 150.576680387902684, -35.025814260745619, 0.0 ], [ 150.575820004060489, -35.025138568039196, 0.0 ], [ 150.575811844977949, -35.024062503528548, 0.0 ], [ 150.576071275189918, -35.024098796224244, 0.0 ], [ 150.576350461438381, -35.022748101525394, 0.0 ], [ 150.576098564582679, -35.022681129113963, 0.0 ], [ 150.576221362053076, -35.02238057153729, 0.0 ], [ 150.576481963116152, -35.022451673221504, 0.0 ], [ 150.576687572861573, -35.022541429429211, 0.0 ], [ 150.576884259637893, -35.022627289398116, 0.0 ], [ 150.577034606533743, -35.022690342120029, 0.0 ], [ 150.577119364456877, -35.02272306816009, 0.0 ], [ 150.577300031034724, -35.022793185210077, 0.0 ], [ 150.577403036822261, -35.022823691953711, 0.0 ], [ 150.577513892085989, -35.022847518688359, 0.0 ], [ 150.577627503145465, -35.022865749086201, 0.0 ], [ 150.577706330443448, -35.022872198508196, 0.0 ], [ 150.577801694779453, -35.022872233382223, 0.0 ], [ 150.577922847429505, -35.022864397748428, 0.0 ], [ 150.57804991534573, -35.022854855549205, 0.0 ], [ 150.578213443038265, -35.022844268037581, 0.0 ], [ 150.578332438015082, -35.022841331635441, 0.0 ], [ 150.578484380065561, -35.022551101932031, 0.0 ], [ 150.578976978177252, -35.020229936987171, 0.0 ], [ 150.578709872672192, -35.020194572957031, 0.0 ], [ 150.578974093131905, -35.018843966406145, 0.0 ], [ 150.579140029393159, -35.018868290580393, 0.0 ], [ 150.579478399172189, -35.018915117140544, 0.0 ], [ 150.579655238831435, -35.018081769527754, 0.0 ], [ 150.579301784623141, -35.018032007507713, 0.0 ], [ 150.579584316581958, -35.016571259155647, 0.0 ], [ 150.57946664820642, -35.016216026422178, 0.0 ], [ 150.579326245104852, -35.016196450130458, 0.0 ], [ 150.579534005577813, -35.015188023834263, 0.0 ], [ 150.578737320363842, -35.015076651623623, 0.0 ], [ 150.578770532203635, -35.014892914521461, 0.0 ], [ 150.578802877313933, -35.014713964910015, 0.0 ], [ 150.578834749436425, -35.014537635414904, 0.0 ], [ 150.5800810506679, -35.014525973138809, 0.0 ], [ 150.580361644496804, -35.013263354913377, 0.0 ], [ 150.580557701024645, -35.013312665985829, 0.0 ], [ 150.580946048067631, -35.011461827877397, 0.0 ], [ 150.581193786175248, -35.01036226583691, 0.0 ], [ 150.582300889008252, -35.00507596011871, 0.0 ], [ 150.579390906962601, -35.004669587941031, 0.0 ], [ 150.579666664937633, -35.00327187446689, 0.0 ], [ 150.581020221562454, -35.003559685654714, 0.0 ], [ 150.581237881367144, -35.003642070779577, 0.0 ], [ 150.581404735006402, -35.003783539847113, 0.0 ], [ 150.581498291815649, -35.003965023112414, 0.0 ], [ 150.581505939508759, -35.004162057713245, 0.0 ], [ 150.581372633436757, -35.004874803202981, 0.0 ], [ 150.581734667845581, -35.00492305692697, 0.0 ], [ 150.581832467473731, -35.004563632698634, 0.0 ], [ 150.582423182505011, -35.003767397490755, 0.0 ], [ 150.582870019168496, -35.00149911544144, 0.0 ], [ 150.581899235545762, -35.001369634501167, 0.0 ], [ 150.581922471978885, -35.00123030350754, 0.0 ], [ 150.581630625236755, -35.001190552419132, 0.0 ], [ 150.581363007982191, -35.002487703082096, 0.0 ], [ 150.580730250225884, -35.002403184896494, 0.0 ], [ 150.580851872143825, -35.00178203485099, 0.0 ], [ 150.580362624490647, -35.001497369649321, 0.0 ], [ 150.580026496981134, -35.001447934136195, 0.0 ], [ 150.580141896753702, -35.00085708069242, 0.0 ], [ 150.581942341099449, -35.001106400711883, 0.0 ], [ 150.58198307998191, -35.000854219489675, 0.0 ], [ 150.582864946120964, -35.000947370399743, 0.0 ], [ 150.583281058659821, -34.998530309833171, 0.0 ], [ 150.583457257445247, -34.997528333813833, 0.0 ], [ 150.583551287998205, -34.997016903503841, 0.0 ], [ 150.58349669772079, -34.997009291415971, 0.0 ], [ 150.583601698136363, -34.996499364991671, 0.0 ], [ 150.583447169175543, -34.996477818917199, 0.0 ], [ 150.583552170457239, -34.995967880789486, 0.0 ], [ 150.583606158944434, -34.995975407835033, 0.0 ], [ 150.584738629839421, -34.990792588219357, 0.0 ], [ 150.583870413910176, -34.990663389351361, 0.0 ], [ 150.584013901053396, -34.990026577541585, 0.0 ], [ 150.584154065786237, -34.989389496481841, 0.0 ], [ 150.584923655875826, -34.989504123075932, 0.0 ], [ 150.585093844304907, -34.988830223693455, 0.0 ], [ 150.58397442401909, -34.988663734768885, 0.0 ], [ 150.584267264052784, -34.987332091119697, 0.0 ], [ 150.584325002040259, -34.987156148693387, 0.0 ], [ 150.586012770680327, -34.9873865165629, 0.0 ], [ 150.586262574457976, -34.986883347998827, 0.0 ], [ 150.586558928647037, -34.98550021060057, 0.0 ], [ 150.586937270040067, -34.985595182805177, 0.0 ], [ 150.587027556977347, -34.985341323923052, 0.0 ], [ 150.587665154297412, -34.984339822155292, 0.0 ], [ 150.587984186573607, -34.983710468417257, 0.0 ], [ 150.588339381205969, -34.983836263392689, 0.0 ], [ 150.587703238263799, -34.985210921992426, 0.0 ], [ 150.58871293439779, -34.985404546412717, 0.0 ], [ 150.588813408458776, -34.985847538747485, 0.0 ], [ 150.587695280832804, -34.986046147434088, 0.0 ], [ 150.586875324801554, -34.987394694347593, 0.0 ], [ 150.586800634717434, -34.987741750635927, 0.0 ], [ 150.587028598089887, -34.988382025890417, 0.0 ], [ 150.588158482584276, -34.988545303304036, 0.0 ], [ 150.588021465633091, -34.989167316635864, 0.0 ], [ 150.586275244238777, -34.988914590802231, 0.0 ], [ 150.586267421734959, -34.988950070293583, 0.0 ], [ 150.586026582964791, -34.98948666314628, 0.0 ], [ 150.585521721097592, -34.991848928510869, 0.0 ], [ 150.585483555333894, -34.992027501908588, 0.0 ], [ 150.584726719599416, -34.995568445658911, 0.0 ], [ 150.584589127459509, -34.996155274193427, 0.0 ], [ 150.584401207381688, -34.997344874196003, 0.0 ], [ 150.586204965841063, -34.997605439629758, 0.0 ], [ 150.586079536918248, -34.998195396529177, 0.0 ], [ 150.58432879601699, -34.997942328291288, 0.0 ], [ 150.584138608363361, -34.999136817822311, 0.0 ], [ 150.584130368115041, -34.99973776427013, 0.0 ], [ 150.585716897158534, -34.999967309794194, 0.0 ], [ 150.585306545874118, -35.001973401487852, 0.0 ], [ 150.585185938465656, -35.002141036708238, 0.0 ], [ 150.585015499365994, -35.002118420310026, 0.0 ], [ 150.584775272062188, -35.003352182626131, 0.0 ], [ 150.58420858988606, -35.003277688876196, 0.0 ], [ 150.583949494755814, -35.002841707212028, 0.0 ], [ 150.583607558444868, -35.002805933017186, 0.0 ], [ 150.583352364294115, -35.003997668495202, 0.0 ], [ 150.582940666192712, -35.006049209739658, 0.0 ], [ 150.582766351757442, -35.006938169749255, 0.0 ], [ 150.582613168379879, -35.007653623247357, 0.0 ], [ 150.582581791982562, -35.007799736930075, 0.0 ], [ 150.582970802856579, -35.008088652054411, 0.0 ], [ 150.584437048612557, -35.008882245759608, 0.0 ], [ 150.584571111816246, -35.008928655253762, 0.0 ], [ 150.585899150277413, -35.009394122328175, 0.0 ], [ 150.585777567548689, -35.009548693228396, 0.0 ], [ 150.58433250755786, -35.009042791386875, 0.0 ], [ 150.583971996569943, -35.008845852308419, 0.0 ], [ 150.582834787417312, -35.00823305141769, 0.0 ], [ 150.582808855872145, -35.008211679293346, 0.0 ], [ 150.582509168862714, -35.00799371865552, 0.0 ], [ 150.582136502877944, -35.009802227904316, 0.0 ], [ 150.581838293742862, -35.011240333243606, 0.0 ], [ 150.581482997761697, -35.012953849932565, 0.0 ], [ 150.581082626480907, -35.014885073168422, 0.0 ], [ 150.582332933336403, -35.015044485637802, 0.0 ], [ 150.582299263415649, -35.015226222508844, 0.0 ], [ 150.582273861962904, -35.015363302399386, 0.0 ], [ 150.581529080487229, -35.015268178064723, 0.0 ], [ 150.581201586433565, -35.016900034095919, 0.0 ], [ 150.580679592450622, -35.01682727861084, 0.0 ], [ 150.579556519643972, -35.022304875557921, 0.0 ], [ 150.579575426209061, -35.022307433494767, 0.0 ], [ 150.579556219447483, -35.02240137940953, 0.0 ], [ 150.579489618586905, -35.023592786318837, 0.0 ], [ 150.579632449070431, -35.025048571025387, 0.0 ], [ 150.579982221829226, -35.026250862666068, 0.0 ], [ 150.579147313333976, -35.02614019687104, 0.0 ], [ 150.579110217557627, -35.026777173320163, 0.0 ], [ 150.579208819884144, -35.0278572691224, 0.0 ], [ 150.579249981999027, -35.028704931630557, 0.0 ], [ 150.57974331681234, -35.029646529131526, 0.0 ], [ 150.580065935731142, -35.030252439102128, 0.0 ], [ 150.580361317732695, -35.030804703259264, 0.0 ], [ 150.580738698729789, -35.031301458755436, 0.0 ], [ 150.581307870935291, -35.031889582136301, 0.0 ], [ 150.583160462225976, -35.03383854794631, 0.0 ], [ 150.583502855397455, -35.034290422662608, 0.0 ], [ 150.583700978851454, -35.034631342843213, 0.0 ], [ 150.584155765100945, -35.035576875382496, 0.0 ], [ 150.584113296421663, -35.037121984991991, 0.0 ], [ 150.583593914058156, -35.038351967981413, 0.0 ], [ 150.583116556222137, -35.038887005247474, 0.0 ], [ 150.582047915231499, -35.039933486062154, 0.0 ], [ 150.579783417920737, -35.042083765939267, 0.0 ] ] ] ] } }
]
}
