{
"type": "FeatureCollection",
"name": "JBR2HR_New culverts",
"crs": { "type": "name", "properties": { "name": "urn:ogc:def:crs:OGC:1.3:CRS84" } },
"xy_coordinate_resolution": 1e-15,
"features": [
{ "type": "Feature", "properties": { "OBJECTID": 803, "Discipline": "UT", "SubDiscipline": "UD", "FSource": "PHUP-MRBJV-JBR2HR-SD-M2D-000002-DRAINAGE.dwg", "Comments": "Converted from \"PHUP-MRBJV-JBR2HR-SD-M2D-000002-DRAINAGE.dwg\" using FME workbench.", "ECMLink": null, "SourceDate": "20250922", "PlanAccur": "", "Supplier": "BENG", "LineWt": null, "HatchName": null, "Layer": "D_DRAIN_PIPE", "Text": null, "LineType": null, "Thickness": "0", "Color": "160", "_source_file_name": null, "_download_path": null, "Last_Updated": null, "_rootname": "PHUP-MRBJV-JBR2HR-SD-M2D-000002-DRAINAGE", "fme_rejection_code": null, "LayerColor": null, "SHAPE_Length": 6.0434864653319034 }, "geometry": { "type": "MultiLineString", "coordinates": [ [ [ 150.581107194678879, -35.013337856013351 ], [ 150.581042088666663, -35.013327996511329 ] ] ] } },
{ "type": "Feature", "properties": { "OBJECTID": 806, "Discipline": "UT", "SubDiscipline": "UD", "FSource": "PHUP-MRBJV-JBR2HR-SD-M2D-000002-DRAINAGE.dwg", "Comments": "Converted from \"PHUP-MRBJV-JBR2HR-SD-M2D-000002-DRAINAGE.dwg\" using FME workbench.", "ECMLink": null, "SourceDate": "20250922", "PlanAccur": "", "Supplier": "BENG", "LineWt": null, "HatchName": null, "Layer": "D_DRAIN_PIPE", "Text": null, "LineType": null, "Thickness": "0", "Color": "160", "_source_file_name": null, "_download_path": null, "Last_Updated": null, "_rootname": "PHUP-MRBJV-JBR2HR-SD-M2D-000002-DRAINAGE", "fme_rejection_code": null, "LayerColor": null, "SHAPE_Length": 34.148362422065375 }, "geometry": { "type": "MultiLineString", "coordinates": [ [ [ 150.581029055001238, -35.013326589036218 ], [ 150.580661570340453, -35.013269150542882 ] ] ] } },
{ "type": "Feature", "properties": { "OBJECTID": 808, "Discipline": "UT", "SubDiscipline": "UD", "FSource": "PHUP-MRBJV-JBR2HR-SD-M2D-000002-DRAINAGE.dwg", "Comments": "Converted from \"PHUP-MRBJV-JBR2HR-SD-M2D-000002-DRAINAGE.dwg\" using FME workbench.", "ECMLink": null, "SourceDate": "20250922", "PlanAccur": "", "Supplier": "BENG", "LineWt": null, "HatchName": null, "Layer": "D_DRAIN_PIPE", "Text": null, "LineType": null, "Thickness": "0", "Color": "160", "_source_file_name": null, "_download_path": null, "Last_Updated": null, "_rootname": "PHUP-MRBJV-JBR2HR-SD-M2D-000002-DRAINAGE", "fme_rejection_code": null, "LayerColor": null, "SHAPE_Length": 43.678994174167038 }, "geometry": { "type": "MultiLineString", "coordinates": [ [ [ 150.57948157678743, -35.018950873136319 ], [ 150.579928749038118, -35.018810809062799 ] ] ] } },
{ "type": "Feature", "properties": { "OBJECTID": 823, "Discipline": "UT", "SubDiscipline": "UD", "FSource": "PHUP-MRBJV-JBR2HR-SD-M2D-000002-DRAINAGE.dwg", "Comments": "Converted from \"PHUP-MRBJV-JBR2HR-SD-M2D-000002-DRAINAGE.dwg\" using FME workbench.", "ECMLink": null, "SourceDate": "20250922", "PlanAccur": "", "Supplier": "BENG", "LineWt": null, "HatchName": null, "Layer": "D_DRAIN_PIPE", "Text": null, "LineType": null, "Thickness": "0", "Color": "160", "_source_file_name": null, "_download_path": null, "Last_Updated": null, "_rootname": "PHUP-MRBJV-JBR2HR-SD-M2D-000002-DRAINAGE", "fme_rejection_code": null, "LayerColor": null, "SHAPE_Length": 7.8572474028977854 }, "geometry": { "type": "MultiLineString", "coordinates": [ [ [ 150.579166342819633, -35.025440245884937 ], [ 150.579080678532165, -35.025433293996414 ] ] ] } },
{ "type": "Feature", "properties": { "OBJECTID": 826, "Discipline": "UT", "SubDiscipline": "UD", "FSource": "PHUP-MRBJV-JBR2HR-SD-M2D-000002-DRAINAGE.dwg", "Comments": "Converted from \"PHUP-MRBJV-JBR2HR-SD-M2D-000002-DRAINAGE.dwg\" using FME workbench.", "ECMLink": null, "SourceDate": "20250922", "PlanAccur": "", "Supplier": "BENG", "LineWt": null, "HatchName": null, "Layer": "D_DRAIN_PIPE", "Text": null, "LineType": null, "Thickness": "0", "Color": "160", "_source_file_name": null, "_download_path": null, "Last_Updated": null, "_rootname": "PHUP-MRBJV-JBR2HR-SD-M2D-000002-DRAINAGE", "fme_rejection_code": null, "LayerColor": null, "SHAPE_Length": 29.695187758287002 }, "geometry": { "type": "MultiLineString", "coordinates": [ [ [ 150.579073342044751, -35.025434692664327 ], [ 150.578751778253803, -35.025394112662042 ] ] ] } },
{ "type": "Feature", "properties": { "OBJECTID": 829, "Discipline": "UT", "SubDiscipline": "UD", "FSource": "PHUP-MRBJV-JBR2HR-SD-M2D-000002-DRAINAGE.dwg", "Comments": "Converted from \"PHUP-MRBJV-JBR2HR-SD-M2D-000002-DRAINAGE.dwg\" using FME workbench.", "ECMLink": null, "SourceDate": "20250922", "PlanAccur": "", "Supplier": "BENG", "LineWt": null, "HatchName": null, "Layer": "D_DRAIN_PIPE", "Text": null, "LineType": null, "Thickness": "0", "Color": "160", "_source_file_name": null, "_download_path": null, "Last_Updated": null, "_rootname": "PHUP-MRBJV-JBR2HR-SD-M2D-000002-DRAINAGE", "fme_rejection_code": null, "LayerColor": null, "SHAPE_Length": 44.048528467791598 }, "geometry": { "type": "MultiLineString", "coordinates": [ [ [ 150.578738680274512, -35.025393187705632 ], [ 150.578257841527829, -35.025359558175708 ] ] ] } },
{ "type": "Feature", "properties": { "OBJECTID": 832, "Discipline": "UT", "SubDiscipline": "UD", "FSource": "PHUP-MRBJV-JBR2HR-SD-M2D-000002-DRAINAGE.dwg", "Comments": "Converted from \"PHUP-MRBJV-JBR2HR-SD-M2D-000002-DRAINAGE.dwg\" using FME workbench.", "ECMLink": null, "SourceDate": "20250922", "PlanAccur": "", "Supplier": "BENG", "LineWt": null, "HatchName": null, "Layer": "D_DRAIN_PIPE", "Text": null, "LineType": null, "Thickness": "0", "Color": "160", "_source_file_name": null, "_download_path": null, "Last_Updated": null, "_rootname": "PHUP-MRBJV-JBR2HR-SD-M2D-000002-DRAINAGE", "fme_rejection_code": null, "LayerColor": null, "SHAPE_Length": 61.007106225016386 }, "geometry": { "type": "MultiLineString", "coordinates": [ [ [ 150.57824470130052, -35.025358802699095 ], [ 150.577582133527727, -35.025286561313557 ] ] ] } },
{ "type": "Feature", "properties": { "OBJECTID": 838, "Discipline": "UT", "SubDiscipline": "UD", "FSource": "PHUP-MRBJV-JBR2HR-SD-M2D-000002-DRAINAGE.dwg", "Comments": "Converted from \"PHUP-MRBJV-JBR2HR-SD-M2D-000002-DRAINAGE.dwg\" using FME workbench.", "ECMLink": null, "SourceDate": "20250922", "PlanAccur": "", "Supplier": "BENG", "LineWt": null, "HatchName": null, "Layer": "D_DRAIN_PIPE", "Text": null, "LineType": null, "Thickness": "0", "Color": "160", "_source_file_name": null, "_download_path": null, "Last_Updated": null, "_rootname": "PHUP-MRBJV-JBR2HR-SD-M2D-000002-DRAINAGE", "fme_rejection_code": null, "LayerColor": null, "SHAPE_Length": 61.270714645122851 }, "geometry": { "type": "MultiLineString", "coordinates": [ [ [ 150.578165254499595, -35.026055193249341 ], [ 150.577494002489374, -35.026053171318161 ] ] ] } },
{ "type": "Feature", "properties": { "OBJECTID": 853, "Discipline": "UT", "SubDiscipline": "UD", "FSource": "PHUP-MRBJV-JBR2HR-SD-M2D-000002-DRAINAGE.dwg", "Comments": "Converted from \"PHUP-MRBJV-JBR2HR-SD-M2D-000002-DRAINAGE.dwg\" using FME workbench.", "ECMLink": null, "SourceDate": "20250922", "PlanAccur": "", "Supplier": "BENG", "LineWt": null, "HatchName": null, "Layer": "D_DRAIN_PIPE", "Text": null, "LineType": null, "Thickness": "0", "Color": "160", "_source_file_name": null, "_download_path": null, "Last_Updated": null, "_rootname": "PHUP-MRBJV-JBR2HR-SD-M2D-000002-DRAINAGE", "fme_rejection_code": null, "LayerColor": null, "SHAPE_Length": 34.494999588267845 }, "geometry": { "type": "MultiLineString", "coordinates": [ [ [ 150.579429529029994, -35.030075817652325 ], [ 150.579067911593285, -35.030166168591492 ] ] ] } },
{ "type": "Feature", "properties": { "OBJECTID": 865, "Discipline": "UT", "SubDiscipline": "UD", "FSource": "PHUP-MRBJV-JBR2HR-SD-M2D-000002-DRAINAGE.dwg", "Comments": "Converted from \"PHUP-MRBJV-JBR2HR-SD-M2D-000002-DRAINAGE.dwg\" using FME workbench.", "ECMLink": null, "SourceDate": "20250922", "PlanAccur": "", "Supplier": "BENG", "LineWt": null, "HatchName": null, "Layer": "D_DRAIN_PIPE", "Text": null, "LineType": null, "Thickness": "0", "Color": "160", "_source_file_name": null, "_download_path": null, "Last_Updated": null, "_rootname": "PHUP-MRBJV-JBR2HR-SD-M2D-000002-DRAINAGE", "fme_rejection_code": null, "LayerColor": null, "SHAPE_Length": 43.816155838869307 }, "geometry": { "type": "MultiLineString", "coordinates": [ [ [ 150.581379369501576, -35.032033643002741 ], [ 150.580992540076863, -35.03226749104288 ] ] ] } },
{ "type": "Feature", "properties": { "OBJECTID": 868, "Discipline": "UT", "SubDiscipline": "UD", "FSource": "PHUP-MRBJV-JBR2HR-SD-M2D-000002-DRAINAGE.dwg", "Comments": "Converted from \"PHUP-MRBJV-JBR2HR-SD-M2D-000002-DRAINAGE.dwg\" using FME workbench.", "ECMLink": null, "SourceDate": "20250922", "PlanAccur": "", "Supplier": "BENG", "LineWt": null, "HatchName": null, "Layer": "D_DRAIN_PIPE", "Text": null, "LineType": null, "Thickness": "0", "Color": "160", "_source_file_name": null, "_download_path": null, "Last_Updated": null, "_rootname": "PHUP-MRBJV-JBR2HR-SD-M2D-000002-DRAINAGE", "fme_rejection_code": null, "LayerColor": null, "SHAPE_Length": 30.411081918147733 }, "geometry": { "type": "MultiLineString", "coordinates": [ [ [ 150.583712536156241, -35.035960015616268 ], [ 150.583385577831706, -35.036012865504603 ] ] ] } },
{ "type": "Feature", "properties": { "OBJECTID": 871, "Discipline": "UT", "SubDiscipline": "UD", "FSource": "PHUP-MRBJV-JBR2HR-SD-M2D-000002-DRAINAGE.dwg", "Comments": "Converted from \"PHUP-MRBJV-JBR2HR-SD-M2D-000002-DRAINAGE.dwg\" using FME workbench.", "ECMLink": null, "SourceDate": "20250922", "PlanAccur": "", "Supplier": "BENG", "LineWt": null, "HatchName": null, "Layer": "D_DRAIN_PIPE", "Text": null, "LineType": null, "Thickness": "0", "Color": "160", "_source_file_name": null, "_download_path": null, "Last_Updated": null, "_rootname": "PHUP-MRBJV-JBR2HR-SD-M2D-000002-DRAINAGE", "fme_rejection_code": null, "LayerColor": null, "SHAPE_Length": 11.674297893087884 }, "geometry": { "type": "MultiLineString", "coordinates": [ [ [ 150.583369450988215, -35.036015472085687 ], [ 150.583243937084291, -35.036035759793947 ] ] ] } },
{ "type": "Feature", "properties": { "OBJECTID": 2145, "Discipline": "UT", "SubDiscipline": "UD", "FSource": "PHUP-MRBJV-JBR2HR-SD-M2D-000002-DRAINAGE.dwg", "Comments": "Converted from \"PHUP-MRBJV-JBR2HR-SD-M2D-000002-DRAINAGE.dwg\" using FME workbench.", "ECMLink": null, "SourceDate": "20250922", "PlanAccur": "", "Supplier": "BENG", "LineWt": null, "HatchName": null, "Layer": "D_DRAIN_PIPE", "Text": null, "LineType": null, "Thickness": "0", "Color": "160", "_source_file_name": null, "_download_path": null, "Last_Updated": null, "_rootname": "PHUP-MRBJV-JBR2HR-SD-M2D-000002-DRAINAGE", "fme_rejection_code": null, "LayerColor": null, "SHAPE_Length": 50.829472672865855 }, "geometry": { "type": "MultiLineString", "coordinates": [ [ [ 150.57869405991832, -35.023458313092675 ], [ 150.578161499273364, -35.023324502480207 ] ] ] } }
]
}
