{
"type": "FeatureCollection",
"name": "AHIMS Sites",
"crs": { "type": "name", "properties": { "name": "urn:ogc:def:crs:OGC:1.3:CRS84" } },
"features": [
{ "type": "Feature", "properties": { "OBJECTID": 1, "Comments": "Converted from spreasheet export from AHIMS", "FSource": "HNSW - AHIMS", "SourceDate": 20250909.0, "Supplier": "HNSW", "output_gdb_path": "C:\\Users\\bri86955\\Mott MacDonald\\MGO - Moata Geospatial - JBR2HR\\02Data/GDA2020MGA56/Property.gdb", "output_feature_class": "Heritage/JBR2HR_PP_HE_AHIMSSites_M260_HNSW_7856_20250909", "ECMLink_alias": "ECM Objective Link", "FSource_alias": "Feature Source", "SourceDate_alias": "Source Date", "PlanAccur_alias": "Planimetric Accuracy", "Site_ID": "52-5-0982", "Site_name": "JBR IF 01", "Datum": "GDA", "Zone": 56, "Easting": 279713.0, "Northing": 6125645.0, "Context": "Open site", "Site_status": "Valid", "Site_features": "Artefact : -", "Recorders": "Artefact Heritage and Environment - Pyrmont,Ms.Alyce Haast", "Permits": 5003, "Longitude_GDA94": 150.58999633789062, "Latitude_GDA94": -34.990001678466797, "fme_feature_type": "AHIMS_GDA2020Zone56", "multi_reader_full_id": 0, "multi_reader_id": 0, "multi_reader_keyword": "GEODATABASE_FILE_1", "multi_reader_type": "GEODATABASE_FILE" }, "geometry": { "type": "Point", "coordinates": [ 150.586548721423782, -34.987819810924002 ] } },
{ "type": "Feature", "properties": { "OBJECTID": 2, "Comments": "Converted from spreasheet export from AHIMS", "FSource": "HNSW - AHIMS", "SourceDate": 20250909.0, "Supplier": "HNSW", "output_gdb_path": "C:\\Users\\bri86955\\Mott MacDonald\\MGO - Moata Geospatial - JBR2HR\\02Data/GDA2020MGA56/Property.gdb", "output_feature_class": "Heritage/JBR2HR_PP_HE_AHIMSSites_M260_HNSW_7856_20250909", "ECMLink_alias": "ECM Objective Link", "FSource_alias": "Feature Source", "SourceDate_alias": "Source Date", "PlanAccur_alias": "Planimetric Accuracy", "Site_ID": "58-2-0491", "Site_name": "JBSI Mortimer Road IF 1", "Datum": "GDA", "Zone": 56, "Easting": 279462.0, "Northing": 6124093.0, "Context": "Open site", "Site_status": "Valid", "Site_features": "Artefact : -", "Recorders": "Mr.Matthew Kelleher,Kelleher Nightingale Consulting Pty Ltd (Generic users)", "Permits": null, "Longitude_GDA94": 150.58000183105469, "Latitude_GDA94": -35.0, "fme_feature_type": "AHIMS_GDA2020Zone56", "multi_reader_full_id": 0, "multi_reader_id": 0, "multi_reader_keyword": "GEODATABASE_FILE_1", "multi_reader_type": "GEODATABASE_FILE" }, "geometry": { "type": "Point", "coordinates": [ 150.583389718313242, -35.001747727202449 ] } }
]
}
