{
"type": "FeatureCollection",
"name": "Existing Culverts",
"crs": { "type": "name", "properties": { "name": "urn:ogc:def:crs:OGC:1.3:CRS84" } },
"features": [
{ "type": "Feature", "properties": { "OBJECTID": 1, "Comments": "Existing culvert locations", "FSource": "BGE", "SourceDate": 20250915.0, "Supplier": "BGE", "output_gdb_path": "C:\\Users\\bri86955\\Mott MacDonald\\MGO - Moata Geospatial - JBR2HR\\02Data/GDA2020MGA56/Environment & Planning.gdb", "output_feature_class": "Water Management/JBR2HR_EN_WA_ExistingCulverts_M260_BGE_7856_20250915", "ECMLink_alias": "ECM Objective Link", "FSource_alias": "Feature Source", "SourceDate_alias": "Source Date", "PlanAccur_alias": "Planimetric Accuracy", "ID": "EC2300", "Type": "R", "Ignore": "F", "UCS": "T", "Len_or_ANA": -1, "n_or_n_F": 0.014999999664723873, "US_Invert": 54.775001525878906, "DS_Invert": 53.976001739501953, "Form_Loss": 0, "pBlockage": "B", "Conn_No": 0, "Width_or_D": 1.2000000476837158, "Height_or_": 0.64999997615814209, "Number_of": 2, "Height_Con": 0.60000002384185791, "Width_Cont": 0.89999997615814209, "Entry_Loss": 0.5, "Exit_Loss": 1, "Notes1": null, "Notes2": "CrossDrain", "ch": 2300, "fme_feature_type": "Existing_Culverts", "multi_reader_full_id": 4, "multi_reader_id": 4, "multi_reader_keyword": "SHAPEFILE_5", "multi_reader_type": "SHAPEFILE", "shapefile_type": "shapefile_line", "SHAPE_Length": 17.957311185088916 }, "geometry": { "type": "MultiLineString", "coordinates": [ [ [ 150.582630436904935, -35.00488270803951 ], [ 150.582436663760973, -35.004854975895697 ] ] ] } },
{ "type": "Feature", "properties": { "OBJECTID": 2, "Comments": "Existing culvert locations", "FSource": "BGE", "SourceDate": 20250915.0, "Supplier": "BGE", "output_gdb_path": "C:\\Users\\bri86955\\Mott MacDonald\\MGO - Moata Geospatial - JBR2HR\\02Data/GDA2020MGA56/Environment & Planning.gdb", "output_feature_class": "Water Management/JBR2HR_EN_WA_ExistingCulverts_M260_BGE_7856_20250915", "ECMLink_alias": "ECM Objective Link", "FSource_alias": "Feature Source", "SourceDate_alias": "Source Date", "PlanAccur_alias": "Planimetric Accuracy", "ID": "ED1270", "Type": "C", "Ignore": "F", "UCS": "T", "Len_or_ANA": -1, "n_or_n_F": 0.014999999664723873, "US_Invert": 40.978000640869141, "DS_Invert": 40.930000305175781, "Form_Loss": 0, "pBlockage": "A", "Conn_No": 0, "Width_or_D": 0.52499997615814209, "Height_or_": 0.0, "Number_of": 1, "Height_Con": 0.60000002384185791, "Width_Cont": 1.0, "Entry_Loss": 0.5, "Exit_Loss": 1, "Notes1": null, "Notes2": "driveway drain", "ch": 1270, "fme_feature_type": "Existing_Culverts", "multi_reader_full_id": 4, "multi_reader_id": 4, "multi_reader_keyword": "SHAPEFILE_5", "multi_reader_type": "SHAPEFILE", "shapefile_type": "shapefile_line", "SHAPE_Length": 10.767098216619351 }, "geometry": { "type": "MultiLineString", "coordinates": [ [ [ 150.584349669687384, -34.995766937493613 ], [ 150.584358758348401, -34.995670192559707 ] ] ] } },
{ "type": "Feature", "properties": { "OBJECTID": 3, "Comments": "Existing culvert locations", "FSource": "BGE", "SourceDate": 20250915.0, "Supplier": "BGE", "output_gdb_path": "C:\\Users\\bri86955\\Mott MacDonald\\MGO - Moata Geospatial - JBR2HR\\02Data/GDA2020MGA56/Environment & Planning.gdb", "output_feature_class": "Water Management/JBR2HR_EN_WA_ExistingCulverts_M260_BGE_7856_20250915", "ECMLink_alias": "ECM Objective Link", "FSource_alias": "Feature Source", "SourceDate_alias": "Source Date", "PlanAccur_alias": "Planimetric Accuracy", "ID": "EC1270", "Type": "C", "Ignore": "F", "UCS": "T", "Len_or_ANA": -1, "n_or_n_F": 0.014999999664723873, "US_Invert": 40.425998687744141, "DS_Invert": 40.167999267578125, "Form_Loss": 0, "pBlockage": "B", "Conn_No": 0, "Width_or_D": 0.75, "Height_or_": 0.0, "Number_of": 1, "Height_Con": 0.60000002384185791, "Width_Cont": 1.0, "Entry_Loss": 0.5, "Exit_Loss": 1, "Notes1": null, "Notes2": "CrossDrain", "ch": 1270, "fme_feature_type": "Existing_Culverts", "multi_reader_full_id": 4, "multi_reader_id": 4, "multi_reader_keyword": "SHAPEFILE_5", "multi_reader_type": "SHAPEFILE", "shapefile_type": "shapefile_line", "SHAPE_Length": 17.547651950930138 }, "geometry": { "type": "MultiLineString", "coordinates": [ [ [ 150.584373006584656, -34.995665482099575 ], [ 150.584560299807293, -34.995700897472204 ] ] ] } },
{ "type": "Feature", "properties": { "OBJECTID": 4, "Comments": "Existing culvert locations", "FSource": "BGE", "SourceDate": 20250915.0, "Supplier": "BGE", "output_gdb_path": "C:\\Users\\bri86955\\Mott MacDonald\\MGO - Moata Geospatial - JBR2HR\\02Data/GDA2020MGA56/Environment & Planning.gdb", "output_feature_class": "Water Management/JBR2HR_EN_WA_ExistingCulverts_M260_BGE_7856_20250915", "ECMLink_alias": "ECM Objective Link", "FSource_alias": "Feature Source", "SourceDate_alias": "Source Date", "PlanAccur_alias": "Planimetric Accuracy", "ID": "EC6700", "Type": "C", "Ignore": "F", "UCS": "T", "Len_or_ANA": -1, "n_or_n_F": 0.014999999664723873, "US_Invert": 63.036998748779297, "DS_Invert": 62.369998931884766, "Form_Loss": 0, "pBlockage": "B", "Conn_No": 0, "Width_or_D": 1.0499999523162842, "Height_or_": 0.0, "Number_of": 1, "Height_Con": 0.60000002384185791, "Width_Cont": 1.0, "Entry_Loss": 0.5, "Exit_Loss": 1, "Notes1": null, "Notes2": "CrossDrain", "ch": 6700, "fme_feature_type": "Existing_Culverts", "multi_reader_full_id": 4, "multi_reader_id": 4, "multi_reader_keyword": "SHAPEFILE_5", "multi_reader_type": "SHAPEFILE", "shapefile_type": "shapefile_line", "SHAPE_Length": 47.77575506009174 }, "geometry": { "type": "MultiLineString", "coordinates": [ [ [ 150.580181186860159, -35.041711171153018 ], [ 150.579743000600729, -35.041475580467527 ] ] ] } },
{ "type": "Feature", "properties": { "OBJECTID": 5, "Comments": "Existing culvert locations", "FSource": "BGE", "SourceDate": 20250915.0, "Supplier": "BGE", "output_gdb_path": "C:\\Users\\bri86955\\Mott MacDonald\\MGO - Moata Geospatial - JBR2HR\\02Data/GDA2020MGA56/Environment & Planning.gdb", "output_feature_class": "Water Management/JBR2HR_EN_WA_ExistingCulverts_M260_BGE_7856_20250915", "ECMLink_alias": "ECM Objective Link", "FSource_alias": "Feature Source", "SourceDate_alias": "Source Date", "PlanAccur_alias": "Planimetric Accuracy", "ID": "EC5240", "Type": "C", "Ignore": "F", "UCS": "T", "Len_or_ANA": -1, "n_or_n_F": 0.014999999664723873, "US_Invert": 87.864997863769531, "DS_Invert": 82.725997924804688, "Form_Loss": 0, "pBlockage": "B", "Conn_No": 0, "Width_or_D": 0.75, "Height_or_": 0.0, "Number_of": 1, "Height_Con": 0.60000002384185791, "Width_Cont": 1.0, "Entry_Loss": 0.5, "Exit_Loss": 1, "Notes1": null, "Notes2": "CrossDrain", "ch": 5240, "fme_feature_type": "Existing_Culverts", "multi_reader_full_id": 4, "multi_reader_id": 4, "multi_reader_keyword": "SHAPEFILE_5", "multi_reader_type": "SHAPEFILE", "shapefile_type": "shapefile_line", "SHAPE_Length": 41.894058980925656 }, "geometry": { "type": "MultiLineString", "coordinates": [ [ [ 150.580000154600981, -35.030105198546792 ], [ 150.579545246447964, -35.030155481734454 ] ] ] } },
{ "type": "Feature", "properties": { "OBJECTID": 6, "Comments": "Existing culvert locations", "FSource": "BGE", "SourceDate": 20250915.0, "Supplier": "BGE", "output_gdb_path": "C:\\Users\\bri86955\\Mott MacDonald\\MGO - Moata Geospatial - JBR2HR\\02Data/GDA2020MGA56/Environment & Planning.gdb", "output_feature_class": "Water Management/JBR2HR_EN_WA_ExistingCulverts_M260_BGE_7856_20250915", "ECMLink_alias": "ECM Objective Link", "FSource_alias": "Feature Source", "SourceDate_alias": "Source Date", "PlanAccur_alias": "Planimetric Accuracy", "ID": "EC5500", "Type": "C", "Ignore": "F", "UCS": "T", "Len_or_ANA": -1, "n_or_n_F": 0.014999999664723873, "US_Invert": 94.36199951171875, "DS_Invert": 94.126998901367188, "Form_Loss": 0, "pBlockage": "B", "Conn_No": 0, "Width_or_D": 0.75, "Height_or_": 0.0, "Number_of": 1, "Height_Con": 0.60000002384185791, "Width_Cont": 1.0, "Entry_Loss": 0.5, "Exit_Loss": 1, "Notes1": "Inv estimated from DEM", "Notes2": "CrossDrain", "ch": 5500, "fme_feature_type": "Existing_Culverts", "multi_reader_full_id": 4, "multi_reader_id": 4, "multi_reader_keyword": "SHAPEFILE_5", "multi_reader_type": "SHAPEFILE", "shapefile_type": "shapefile_line", "SHAPE_Length": 33.910140718845156 }, "geometry": { "type": "MultiLineString", "coordinates": [ [ [ 150.581299999636343, -35.031939999948079 ], [ 150.581070000170655, -35.032180000357208 ] ] ] } },
{ "type": "Feature", "properties": { "OBJECTID": 7, "Comments": "Existing culvert locations", "FSource": "BGE", "SourceDate": 20250915.0, "Supplier": "BGE", "output_gdb_path": "C:\\Users\\bri86955\\Mott MacDonald\\MGO - Moata Geospatial - JBR2HR\\02Data/GDA2020MGA56/Environment & Planning.gdb", "output_feature_class": "Water Management/JBR2HR_EN_WA_ExistingCulverts_M260_BGE_7856_20250915", "ECMLink_alias": "ECM Objective Link", "FSource_alias": "Feature Source", "SourceDate_alias": "Source Date", "PlanAccur_alias": "Planimetric Accuracy", "ID": "EC4600", "Type": "C", "Ignore": "F", "UCS": "T", "Len_or_ANA": -1, "n_or_n_F": 0.014999999664723873, "US_Invert": 94.147003173828125, "DS_Invert": 92.290000915527344, "Form_Loss": 0, "pBlockage": "A", "Conn_No": 0, "Width_or_D": 0.44999998807907104, "Height_or_": 0.0, "Number_of": 1, "Height_Con": 0.60000002384185791, "Width_Cont": 1.0, "Entry_Loss": 0.5, "Exit_Loss": 1, "Notes1": "Inv estimated from DEM", "Notes2": "CrossDrain", "ch": 4600, "fme_feature_type": "Existing_Culverts", "multi_reader_full_id": 4, "multi_reader_id": 4, "multi_reader_keyword": "SHAPEFILE_5", "multi_reader_type": "SHAPEFILE", "shapefile_type": "shapefile_line", "SHAPE_Length": 35.319051876791399 }, "geometry": { "type": "MultiLineString", "coordinates": [ [ [ 150.578719999476704, -35.025079999715587 ], [ 150.578339999989339, -35.025020000127363 ] ] ] } },
{ "type": "Feature", "properties": { "OBJECTID": 8, "Comments": "Existing culvert locations", "FSource": "BGE", "SourceDate": 20250915.0, "Supplier": "BGE", "output_gdb_path": "C:\\Users\\bri86955\\Mott MacDonald\\MGO - Moata Geospatial - JBR2HR\\02Data/GDA2020MGA56/Environment & Planning.gdb", "output_feature_class": "Water Management/JBR2HR_EN_WA_ExistingCulverts_M260_BGE_7856_20250915", "ECMLink_alias": "ECM Objective Link", "FSource_alias": "Feature Source", "SourceDate_alias": "Source Date", "PlanAccur_alias": "Planimetric Accuracy", "ID": "EC5040", "Type": "C", "Ignore": "F", "UCS": "T", "Len_or_ANA": -1, "n_or_n_F": 0.014999999664723873, "US_Invert": 94.36199951171875, "DS_Invert": 94.088996887207031, "Form_Loss": 0, "pBlockage": "A", "Conn_No": 0, "Width_or_D": 0.44999998807907104, "Height_or_": 0.0, "Number_of": 1, "Height_Con": 0.60000002384185791, "Width_Cont": 1.0, "Entry_Loss": 0.5, "Exit_Loss": 1, "Notes1": "Inv estimated from DEM", "Notes2": "CrossDrain", "ch": 5040, "fme_feature_type": "Existing_Culverts", "multi_reader_full_id": 4, "multi_reader_id": 4, "multi_reader_keyword": "SHAPEFILE_5", "multi_reader_type": "SHAPEFILE", "shapefile_type": "shapefile_line", "SHAPE_Length": 19.271170593256006 }, "geometry": { "type": "MultiLineString", "coordinates": [ [ [ 150.579090000448218, -35.028310000242868 ], [ 150.578950000193629, -35.028440000130971 ] ] ] } },
{ "type": "Feature", "properties": { "OBJECTID": 9, "Comments": "Existing culvert locations", "FSource": "BGE", "SourceDate": 20250915.0, "Supplier": "BGE", "output_gdb_path": "C:\\Users\\bri86955\\Mott MacDonald\\MGO - Moata Geospatial - JBR2HR\\02Data/GDA2020MGA56/Environment & Planning.gdb", "output_feature_class": "Water Management/JBR2HR_EN_WA_ExistingCulverts_M260_BGE_7856_20250915", "ECMLink_alias": "ECM Objective Link", "FSource_alias": "Feature Source", "SourceDate_alias": "Source Date", "PlanAccur_alias": "Planimetric Accuracy", "ID": "ED3890", "Type": "C", "Ignore": "F", "UCS": "T", "Len_or_ANA": -1, "n_or_n_F": 0.014999999664723873, "US_Invert": 81.890998840332031, "DS_Invert": 81.754997253417969, "Form_Loss": 0, "pBlockage": "A", "Conn_No": 0, "Width_or_D": 0.44999998807907104, "Height_or_": 0.0, "Number_of": 1, "Height_Con": 0.60000002384185791, "Width_Cont": 1.0, "Entry_Loss": 0.5, "Exit_Loss": 1, "Notes1": null, "Notes2": "driveway drain", "ch": 3890, "fme_feature_type": "Existing_Culverts", "multi_reader_full_id": 4, "multi_reader_id": 4, "multi_reader_keyword": "SHAPEFILE_5", "multi_reader_type": "SHAPEFILE", "shapefile_type": "shapefile_line", "SHAPE_Length": 22.875699026842618 }, "geometry": { "type": "MultiLineString", "coordinates": [ [ [ 150.579480218409543, -35.018949187334393 ], [ 150.579532347091458, -35.018747541405666 ] ] ] } },
{ "type": "Feature", "properties": { "OBJECTID": 10, "Comments": "Existing culvert locations", "FSource": "BGE", "SourceDate": 20250915.0, "Supplier": "BGE", "output_gdb_path": "C:\\Users\\bri86955\\Mott MacDonald\\MGO - Moata Geospatial - JBR2HR\\02Data/GDA2020MGA56/Environment & Planning.gdb", "output_feature_class": "Water Management/JBR2HR_EN_WA_ExistingCulverts_M260_BGE_7856_20250915", "ECMLink_alias": "ECM Objective Link", "FSource_alias": "Feature Source", "SourceDate_alias": "Source Date", "PlanAccur_alias": "Planimetric Accuracy", "ID": "EC4640", "Type": "C", "Ignore": "F", "UCS": "T", "Len_or_ANA": -1, "n_or_n_F": 0.014999999664723873, "US_Invert": 93.516998291015625, "DS_Invert": 92.367996215820312, "Form_Loss": 0, "pBlockage": "B", "Conn_No": 0, "Width_or_D": 1.2000000476837158, "Height_or_": 0.0, "Number_of": 1, "Height_Con": 0.60000002384185791, "Width_Cont": 1.0, "Entry_Loss": 0.5, "Exit_Loss": 1, "Notes1": "Inv estimated from DEM", "Notes2": "CrossDrain", "ch": 4640, "fme_feature_type": "Existing_Culverts", "multi_reader_full_id": 4, "multi_reader_id": 4, "multi_reader_keyword": "SHAPEFILE_5", "multi_reader_type": "SHAPEFILE", "shapefile_type": "shapefile_line", "SHAPE_Length": 34.703532523098069 }, "geometry": { "type": "MultiLineString", "coordinates": [ [ [ 150.578720000442132, -35.02541000029192 ], [ 150.578340000225211, -35.025400000328979 ] ] ] } },
{ "type": "Feature", "properties": { "OBJECTID": 11, "Comments": "Existing culvert locations", "FSource": "BGE", "SourceDate": 20250915.0, "Supplier": "BGE", "output_gdb_path": "C:\\Users\\bri86955\\Mott MacDonald\\MGO - Moata Geospatial - JBR2HR\\02Data/GDA2020MGA56/Environment & Planning.gdb", "output_feature_class": "Water Management/JBR2HR_EN_WA_ExistingCulverts_M260_BGE_7856_20250915", "ECMLink_alias": "ECM Objective Link", "FSource_alias": "Feature Source", "SourceDate_alias": "Source Date", "PlanAccur_alias": "Planimetric Accuracy", "ID": "EC2840", "Type": "R", "Ignore": "F", "UCS": "T", "Len_or_ANA": -1, "n_or_n_F": 0.014999999664723873, "US_Invert": 62.823001861572266, "DS_Invert": 62.599998474121094, "Form_Loss": 0, "pBlockage": "A", "Conn_No": 0, "Width_or_D": 1.2000000476837158, "Height_or_": 0.5, "Number_of": 2, "Height_Con": 0.60000002384185791, "Width_Cont": 0.89999997615814209, "Entry_Loss": 0.5, "Exit_Loss": 1, "Notes1": null, "Notes2": "CrossDrain", "ch": 2840, "fme_feature_type": "Existing_Culverts", "multi_reader_full_id": 4, "multi_reader_id": 4, "multi_reader_keyword": "SHAPEFILE_5", "multi_reader_type": "SHAPEFILE", "shapefile_type": "shapefile_line", "SHAPE_Length": 18.116635587182198 }, "geometry": { "type": "MultiLineString", "coordinates": [ [ [ 150.581635376635205, -35.009624827439076 ], [ 150.581440071329723, -35.009595927100705 ] ] ] } },
{ "type": "Feature", "properties": { "OBJECTID": 12, "Comments": "Existing culvert locations", "FSource": "BGE", "SourceDate": 20250915.0, "Supplier": "BGE", "output_gdb_path": "C:\\Users\\bri86955\\Mott MacDonald\\MGO - Moata Geospatial - JBR2HR\\02Data/GDA2020MGA56/Environment & Planning.gdb", "output_feature_class": "Water Management/JBR2HR_EN_WA_ExistingCulverts_M260_BGE_7856_20250915", "ECMLink_alias": "ECM Objective Link", "FSource_alias": "Feature Source", "SourceDate_alias": "Source Date", "PlanAccur_alias": "Planimetric Accuracy", "ID": "EC3870", "Type": "C", "Ignore": "F", "UCS": "T", "Len_or_ANA": -1, "n_or_n_F": 0.014999999664723873, "US_Invert": 80.56500244140625, "DS_Invert": 81.391998291015625, "Form_Loss": 0, "pBlockage": "A", "Conn_No": 0, "Width_or_D": 0.375, "Height_or_": 0.0, "Number_of": 2, "Height_Con": 0.60000002384185791, "Width_Cont": 1.0, "Entry_Loss": 0.5, "Exit_Loss": 1, "Notes1": null, "Notes2": "CrossDrain", "ch": 3870, "fme_feature_type": "Existing_Culverts", "multi_reader_full_id": 4, "multi_reader_id": 4, "multi_reader_keyword": "SHAPEFILE_5", "multi_reader_type": "SHAPEFILE", "shapefile_type": "shapefile_line", "SHAPE_Length": 26.709318588627404 }, "geometry": { "type": "MultiLineString", "coordinates": [ [ [ 150.579532347091458, -35.018747541405666 ], [ 150.579821221064293, -35.018785784456099 ] ] ] } },
{ "type": "Feature", "properties": { "OBJECTID": 13, "Comments": "Existing culvert locations", "FSource": "BGE", "SourceDate": 20250915.0, "Supplier": "BGE", "output_gdb_path": "C:\\Users\\bri86955\\Mott MacDonald\\MGO - Moata Geospatial - JBR2HR\\02Data/GDA2020MGA56/Environment & Planning.gdb", "output_feature_class": "Water Management/JBR2HR_EN_WA_ExistingCulverts_M260_BGE_7856_20250915", "ECMLink_alias": "ECM Objective Link", "FSource_alias": "Feature Source", "SourceDate_alias": "Source Date", "PlanAccur_alias": "Planimetric Accuracy", "ID": "ED1320", "Type": "C", "Ignore": "F", "UCS": "T", "Len_or_ANA": -1, "n_or_n_F": 0.014999999664723873, "US_Invert": 41.560001373291016, "DS_Invert": 41.486000061035156, "Form_Loss": 0, "pBlockage": "A", "Conn_No": 0, "Width_or_D": 0.60000002384185791, "Height_or_": 0.0, "Number_of": 1, "Height_Con": 0.60000002384185791, "Width_Cont": 1.0, "Entry_Loss": 0.5, "Exit_Loss": 1, "Notes1": null, "Notes2": "driveway drain", "ch": 1320, "fme_feature_type": "Existing_Culverts", "multi_reader_full_id": 4, "multi_reader_id": 4, "multi_reader_keyword": "SHAPEFILE_5", "multi_reader_type": "SHAPEFILE", "shapefile_type": "shapefile_line", "SHAPE_Length": 4.8415663785499952 }, "geometry": { "type": "MultiLineString", "coordinates": [ [ [ 150.5842753966391, -34.996161113193374 ], [ 150.584284078660431, -34.996118069661946 ] ] ] } },
{ "type": "Feature", "properties": { "OBJECTID": 14, "Comments": "Existing culvert locations", "FSource": "BGE", "SourceDate": 20250915.0, "Supplier": "BGE", "output_gdb_path": "C:\\Users\\bri86955\\Mott MacDonald\\MGO - Moata Geospatial - JBR2HR\\02Data/GDA2020MGA56/Environment & Planning.gdb", "output_feature_class": "Water Management/JBR2HR_EN_WA_ExistingCulverts_M260_BGE_7856_20250915", "ECMLink_alias": "ECM Objective Link", "FSource_alias": "Feature Source", "SourceDate_alias": "Source Date", "PlanAccur_alias": "Planimetric Accuracy", "ID": "ED350", "Type": "C", "Ignore": "F", "UCS": "T", "Len_or_ANA": -1, "n_or_n_F": 0.014999999664723873, "US_Invert": 26.260000228881836, "DS_Invert": 26.125, "Form_Loss": 0, "pBlockage": "A", "Conn_No": 0, "Width_or_D": 0.60000002384185791, "Height_or_": 0.0, "Number_of": 1, "Height_Con": 0.60000002384185791, "Width_Cont": 1.0, "Entry_Loss": 0.5, "Exit_Loss": 1, "Notes1": null, "Notes2": "driveway drain", "ch": 350, "fme_feature_type": "Existing_Culverts", "multi_reader_full_id": 4, "multi_reader_id": 4, "multi_reader_keyword": "SHAPEFILE_5", "multi_reader_type": "SHAPEFILE", "shapefile_type": "shapefile_line", "SHAPE_Length": 9.9392825695906275 }, "geometry": { "type": "MultiLineString", "coordinates": [ [ [ 150.586077904987945, -34.987556558453221 ], [ 150.586082866286688, -34.987467078093005 ] ] ] } },
{ "type": "Feature", "properties": { "OBJECTID": 15, "Comments": "Existing culvert locations", "FSource": "BGE", "SourceDate": 20250915.0, "Supplier": "BGE", "output_gdb_path": "C:\\Users\\bri86955\\Mott MacDonald\\MGO - Moata Geospatial - JBR2HR\\02Data/GDA2020MGA56/Environment & Planning.gdb", "output_feature_class": "Water Management/JBR2HR_EN_WA_ExistingCulverts_M260_BGE_7856_20250915", "ECMLink_alias": "ECM Objective Link", "FSource_alias": "Feature Source", "SourceDate_alias": "Source Date", "PlanAccur_alias": "Planimetric Accuracy", "ID": "ED570", "Type": "C", "Ignore": "F", "UCS": "T", "Len_or_ANA": -1, "n_or_n_F": 0.014999999664723873, "US_Invert": 31.858999252319336, "DS_Invert": 31.774999618530273, "Form_Loss": 0, "pBlockage": "A", "Conn_No": 0, "Width_or_D": 0.60000002384185791, "Height_or_": 0.0, "Number_of": 1, "Height_Con": 0.60000002384185791, "Width_Cont": 1.0, "Entry_Loss": 0.5, "Exit_Loss": 1, "Notes1": null, "Notes2": "driveway drain", "ch": 570, "fme_feature_type": "Existing_Culverts", "multi_reader_full_id": 4, "multi_reader_id": 4, "multi_reader_keyword": "SHAPEFILE_5", "multi_reader_type": "SHAPEFILE", "shapefile_type": "shapefile_line", "SHAPE_Length": 4.9647760267979448 }, "geometry": { "type": "MultiLineString", "coordinates": [ [ [ 150.585689776750627, -34.989457644498017 ], [ 150.585681521762467, -34.989501868606183 ] ] ] } },
{ "type": "Feature", "properties": { "OBJECTID": 16, "Comments": "Existing culvert locations", "FSource": "BGE", "SourceDate": 20250915.0, "Supplier": "BGE", "output_gdb_path": "C:\\Users\\bri86955\\Mott MacDonald\\MGO - Moata Geospatial - JBR2HR\\02Data/GDA2020MGA56/Environment & Planning.gdb", "output_feature_class": "Water Management/JBR2HR_EN_WA_ExistingCulverts_M260_BGE_7856_20250915", "ECMLink_alias": "ECM Objective Link", "FSource_alias": "Feature Source", "SourceDate_alias": "Source Date", "PlanAccur_alias": "Planimetric Accuracy", "ID": "ED660", "Type": "C", "Ignore": "F", "UCS": "T", "Len_or_ANA": -1, "n_or_n_F": 0.014999999664723873, "US_Invert": 34.522998809814453, "DS_Invert": 34.341999053955078, "Form_Loss": 0, "pBlockage": "A", "Conn_No": 0, "Width_or_D": 0.60000002384185791, "Height_or_": 0.0, "Number_of": 1, "Height_Con": 0.60000002384185791, "Width_Cont": 1.0, "Entry_Loss": 0.5, "Exit_Loss": 1, "Notes1": null, "Notes2": "driveway drain", "ch": 660, "fme_feature_type": "Existing_Culverts", "multi_reader_full_id": 4, "multi_reader_id": 4, "multi_reader_keyword": "SHAPEFILE_5", "multi_reader_type": "SHAPEFILE", "shapefile_type": "shapefile_line", "SHAPE_Length": 5.031066089875309 }, "geometry": { "type": "MultiLineString", "coordinates": [ [ [ 150.585524068617616, -34.990256510832886 ], [ 150.585512850950067, -34.990300901335431 ] ] ] } },
{ "type": "Feature", "properties": { "OBJECTID": 17, "Comments": "Existing culvert locations", "FSource": "BGE", "SourceDate": 20250915.0, "Supplier": "BGE", "output_gdb_path": "C:\\Users\\bri86955\\Mott MacDonald\\MGO - Moata Geospatial - JBR2HR\\02Data/GDA2020MGA56/Environment & Planning.gdb", "output_feature_class": "Water Management/JBR2HR_EN_WA_ExistingCulverts_M260_BGE_7856_20250915", "ECMLink_alias": "ECM Objective Link", "FSource_alias": "Feature Source", "SourceDate_alias": "Source Date", "PlanAccur_alias": "Planimetric Accuracy", "ID": "ED360", "Type": "C", "Ignore": "F", "UCS": "T", "Len_or_ANA": -1, "n_or_n_F": 0.014999999664723873, "US_Invert": 25.802000045776367, "DS_Invert": 25.802000045776367, "Form_Loss": 0, "pBlockage": "A", "Conn_No": 0, "Width_or_D": 0.44999998807907104, "Height_or_": 0.0, "Number_of": 1, "Height_Con": 0.60000002384185791, "Width_Cont": 1.0, "Entry_Loss": 0.5, "Exit_Loss": 1, "Notes1": null, "Notes2": "driveway drain", "ch": 360, "fme_feature_type": "Existing_Culverts", "multi_reader_full_id": 4, "multi_reader_id": 4, "multi_reader_keyword": "SHAPEFILE_5", "multi_reader_type": "SHAPEFILE", "shapefile_type": "shapefile_line", "SHAPE_Length": 10.302796950576093 }, "geometry": { "type": "MultiLineString", "coordinates": [ [ [ 150.585405918498736, -34.987417848203904 ], [ 150.585416138405463, -34.987325380483249 ] ] ] } },
{ "type": "Feature", "properties": { "OBJECTID": 18, "Comments": "Existing culvert locations", "FSource": "BGE", "SourceDate": 20250915.0, "Supplier": "BGE", "output_gdb_path": "C:\\Users\\bri86955\\Mott MacDonald\\MGO - Moata Geospatial - JBR2HR\\02Data/GDA2020MGA56/Environment & Planning.gdb", "output_feature_class": "Water Management/JBR2HR_EN_WA_ExistingCulverts_M260_BGE_7856_20250915", "ECMLink_alias": "ECM Objective Link", "FSource_alias": "Feature Source", "SourceDate_alias": "Source Date", "PlanAccur_alias": "Planimetric Accuracy", "ID": "ED600", "Type": "C", "Ignore": "F", "UCS": "T", "Len_or_ANA": -1, "n_or_n_F": 0.014999999664723873, "US_Invert": 33.019001007080078, "DS_Invert": 32.840999603271484, "Form_Loss": 0, "pBlockage": "A", "Conn_No": 0, "Width_or_D": 0.44999998807907104, "Height_or_": 0.0, "Number_of": 1, "Height_Con": 0.60000002384185791, "Width_Cont": 1.0, "Entry_Loss": 0.5, "Exit_Loss": 1, "Notes1": null, "Notes2": "driveway drain", "ch": 600, "fme_feature_type": "Existing_Culverts", "multi_reader_full_id": 4, "multi_reader_id": 4, "multi_reader_keyword": "SHAPEFILE_5", "multi_reader_type": "SHAPEFILE", "shapefile_type": "shapefile_line", "SHAPE_Length": 7.4605234404421692 }, "geometry": { "type": "MultiLineString", "coordinates": [ [ [ 150.585633250506419, -34.989744124601735 ], [ 150.585616867007644, -34.989809993510626 ] ] ] } },
{ "type": "Feature", "properties": { "OBJECTID": 19, "Comments": "Existing culvert locations", "FSource": "BGE", "SourceDate": 20250915.0, "Supplier": "BGE", "output_gdb_path": "C:\\Users\\bri86955\\Mott MacDonald\\MGO - Moata Geospatial - JBR2HR\\02Data/GDA2020MGA56/Environment & Planning.gdb", "output_feature_class": "Water Management/JBR2HR_EN_WA_ExistingCulverts_M260_BGE_7856_20250915", "ECMLink_alias": "ECM Objective Link", "FSource_alias": "Feature Source", "SourceDate_alias": "Source Date", "PlanAccur_alias": "Planimetric Accuracy", "ID": "ED1300", "Type": "C", "Ignore": "F", "UCS": "T", "Len_or_ANA": -1, "n_or_n_F": 0.014999999664723873, "US_Invert": 41.578998565673828, "DS_Invert": 41.402999877929688, "Form_Loss": 0, "pBlockage": "A", "Conn_No": 0, "Width_or_D": 0.375, "Height_or_": 0.0, "Number_of": 1, "Height_Con": 0.60000002384185791, "Width_Cont": 1.0, "Entry_Loss": 0.5, "Exit_Loss": 1, "Notes1": null, "Notes2": "driveway drain", "ch": 1300, "fme_feature_type": "Existing_Culverts", "multi_reader_full_id": 4, "multi_reader_id": 4, "multi_reader_keyword": "SHAPEFILE_5", "multi_reader_type": "SHAPEFILE", "shapefile_type": "shapefile_line", "SHAPE_Length": 5.670989772383332 }, "geometry": { "type": "MultiLineString", "coordinates": [ [ [ 150.584497144582343, -34.995974056178568 ], [ 150.584509080957162, -34.995923901727458 ] ] ] } },
{ "type": "Feature", "properties": { "OBJECTID": 20, "Comments": "Existing culvert locations", "FSource": "BGE", "SourceDate": 20250915.0, "Supplier": "BGE", "output_gdb_path": "C:\\Users\\bri86955\\Mott MacDonald\\MGO - Moata Geospatial - JBR2HR\\02Data/GDA2020MGA56/Environment & Planning.gdb", "output_feature_class": "Water Management/JBR2HR_EN_WA_ExistingCulverts_M260_BGE_7856_20250915", "ECMLink_alias": "ECM Objective Link", "FSource_alias": "Feature Source", "SourceDate_alias": "Source Date", "PlanAccur_alias": "Planimetric Accuracy", "ID": "ED1330", "Type": "C", "Ignore": "F", "UCS": "T", "Len_or_ANA": -1, "n_or_n_F": 0.014999999664723873, "US_Invert": 41.508998870849609, "DS_Invert": 41.508998870849609, "Form_Loss": 0, "pBlockage": "A", "Conn_No": 0, "Width_or_D": 0.375, "Height_or_": 0.0, "Number_of": 1, "Height_Con": 0.60000002384185791, "Width_Cont": 1.0, "Entry_Loss": 0.5, "Exit_Loss": 1, "Notes1": null, "Notes2": "driveway drain", "ch": 1330, "fme_feature_type": "Existing_Culverts", "multi_reader_full_id": 4, "multi_reader_id": 4, "multi_reader_keyword": "SHAPEFILE_5", "multi_reader_type": "SHAPEFILE", "shapefile_type": "shapefile_line", "SHAPE_Length": 16.768425835626971 }, "geometry": { "type": "MultiLineString", "coordinates": [ [ [ 150.584435073856298, -34.996210312279437 ], [ 150.584473804104618, -34.996062593480012 ] ] ] } },
{ "type": "Feature", "properties": { "OBJECTID": 21, "Comments": "Existing culvert locations", "FSource": "BGE", "SourceDate": 20250915.0, "Supplier": "BGE", "output_gdb_path": "C:\\Users\\bri86955\\Mott MacDonald\\MGO - Moata Geospatial - JBR2HR\\02Data/GDA2020MGA56/Environment & Planning.gdb", "output_feature_class": "Water Management/JBR2HR_EN_WA_ExistingCulverts_M260_BGE_7856_20250915", "ECMLink_alias": "ECM Objective Link", "FSource_alias": "Feature Source", "SourceDate_alias": "Source Date", "PlanAccur_alias": "Planimetric Accuracy", "ID": "ED3660", "Type": "C", "Ignore": "F", "UCS": "T", "Len_or_ANA": -1, "n_or_n_F": 0.014999999664723873, "US_Invert": 80.44000244140625, "DS_Invert": 80.097000122070312, "Form_Loss": 0, "pBlockage": "A", "Conn_No": 0, "Width_or_D": 0.44999998807907104, "Height_or_": 0.0, "Number_of": 1, "Height_Con": 0.60000002384185791, "Width_Cont": 1.0, "Entry_Loss": 0.5, "Exit_Loss": 1, "Notes1": null, "Notes2": "driveway drain", "ch": 3660, "fme_feature_type": "Existing_Culverts", "multi_reader_full_id": 4, "multi_reader_id": 4, "multi_reader_keyword": "SHAPEFILE_5", "multi_reader_type": "SHAPEFILE", "shapefile_type": "shapefile_line", "SHAPE_Length": 7.4028980808929949 }, "geometry": { "type": "MultiLineString", "coordinates": [ [ [ 150.579908550161662, -35.016958110643088 ], [ 150.579923958852817, -35.016892611138324 ] ] ] } },
{ "type": "Feature", "properties": { "OBJECTID": 22, "Comments": "Existing culvert locations", "FSource": "BGE", "SourceDate": 20250915.0, "Supplier": "BGE", "output_gdb_path": "C:\\Users\\bri86955\\Mott MacDonald\\MGO - Moata Geospatial - JBR2HR\\02Data/GDA2020MGA56/Environment & Planning.gdb", "output_feature_class": "Water Management/JBR2HR_EN_WA_ExistingCulverts_M260_BGE_7856_20250915", "ECMLink_alias": "ECM Objective Link", "FSource_alias": "Feature Source", "SourceDate_alias": "Source Date", "PlanAccur_alias": "Planimetric Accuracy", "ID": "ED3530", "Type": "C", "Ignore": "F", "UCS": "T", "Len_or_ANA": -1, "n_or_n_F": 0.014999999664723873, "US_Invert": 77.144996643066406, "DS_Invert": 77.144996643066406, "Form_Loss": 0, "pBlockage": "A", "Conn_No": 0, "Width_or_D": 0.44999998807907104, "Height_or_": 0.0, "Number_of": 1, "Height_Con": 0.60000002384185791, "Width_Cont": 1.0, "Entry_Loss": 0.5, "Exit_Loss": 1, "Notes1": null, "Notes2": "driveway drain", "ch": 3530, "fme_feature_type": "Existing_Culverts", "multi_reader_full_id": 4, "multi_reader_id": 4, "multi_reader_keyword": "SHAPEFILE_5", "multi_reader_type": "SHAPEFILE", "shapefile_type": "shapefile_line", "SHAPE_Length": 6.2321005282942226 }, "geometry": { "type": "MultiLineString", "coordinates": [ [ [ 150.580107849541719, -35.015798178407074 ], [ 150.580118786460673, -35.015742740144994 ] ] ] } },
{ "type": "Feature", "properties": { "OBJECTID": 23, "Comments": "Existing culvert locations", "FSource": "BGE", "SourceDate": 20250915.0, "Supplier": "BGE", "output_gdb_path": "C:\\Users\\bri86955\\Mott MacDonald\\MGO - Moata Geospatial - JBR2HR\\02Data/GDA2020MGA56/Environment & Planning.gdb", "output_feature_class": "Water Management/JBR2HR_EN_WA_ExistingCulverts_M260_BGE_7856_20250915", "ECMLink_alias": "ECM Objective Link", "FSource_alias": "Feature Source", "SourceDate_alias": "Source Date", "PlanAccur_alias": "Planimetric Accuracy", "ID": "ED1580", "Type": "C", "Ignore": "F", "UCS": "T", "Len_or_ANA": -1, "n_or_n_F": 0.014999999664723873, "US_Invert": 49.898998260498047, "DS_Invert": 49.783000946044922, "Form_Loss": 0, "pBlockage": "A", "Conn_No": 0, "Width_or_D": 0.44999998807907104, "Height_or_": 0.0, "Number_of": 1, "Height_Con": 0.60000002384185791, "Width_Cont": 1.0, "Entry_Loss": 0.5, "Exit_Loss": 1, "Notes1": null, "Notes2": "driveway drain", "ch": 1580, "fme_feature_type": "Existing_Culverts", "multi_reader_full_id": 4, "multi_reader_id": 4, "multi_reader_keyword": "SHAPEFILE_5", "multi_reader_type": "SHAPEFILE", "shapefile_type": "shapefile_line", "SHAPE_Length": 7.9094252642719862 }, "geometry": { "type": "MultiLineString", "coordinates": [ [ [ 150.583944948819607, -34.998490661047995 ], [ 150.583959416890622, -34.99842038224412 ] ] ] } },
{ "type": "Feature", "properties": { "OBJECTID": 24, "Comments": "Existing culvert locations", "FSource": "BGE", "SourceDate": 20250915.0, "Supplier": "BGE", "output_gdb_path": "C:\\Users\\bri86955\\Mott MacDonald\\MGO - Moata Geospatial - JBR2HR\\02Data/GDA2020MGA56/Environment & Planning.gdb", "output_feature_class": "Water Management/JBR2HR_EN_WA_ExistingCulverts_M260_BGE_7856_20250915", "ECMLink_alias": "ECM Objective Link", "FSource_alias": "Feature Source", "SourceDate_alias": "Source Date", "PlanAccur_alias": "Planimetric Accuracy", "ID": "EC3430", "Type": "C", "Ignore": "F", "UCS": "T", "Len_or_ANA": -1, "n_or_n_F": 0.014999999664723873, "US_Invert": 74.699996948242188, "DS_Invert": 74.685997009277344, "Form_Loss": 0, "pBlockage": "A", "Conn_No": 0, "Width_or_D": 0.44999998807907104, "Height_or_": 0.0, "Number_of": 3, "Height_Con": 0.60000002384185791, "Width_Cont": 1.0, "Entry_Loss": 0.5, "Exit_Loss": 1, "Notes1": null, "Notes2": "CrossDrain", "ch": 3430, "fme_feature_type": "Existing_Culverts", "multi_reader_full_id": 4, "multi_reader_id": 4, "multi_reader_keyword": "SHAPEFILE_5", "multi_reader_type": "SHAPEFILE", "shapefile_type": "shapefile_line", "SHAPE_Length": 17.493137511404033 }, "geometry": { "type": "MultiLineString", "coordinates": [ [ [ 150.580548810238042, -35.014980908020696 ], [ 150.580582224432987, -35.014825675094876 ] ] ] } },
{ "type": "Feature", "properties": { "OBJECTID": 25, "Comments": "Existing culvert locations", "FSource": "BGE", "SourceDate": 20250915.0, "Supplier": "BGE", "output_gdb_path": "C:\\Users\\bri86955\\Mott MacDonald\\MGO - Moata Geospatial - JBR2HR\\02Data/GDA2020MGA56/Environment & Planning.gdb", "output_feature_class": "Water Management/JBR2HR_EN_WA_ExistingCulverts_M260_BGE_7856_20250915", "ECMLink_alias": "ECM Objective Link", "FSource_alias": "Feature Source", "SourceDate_alias": "Source Date", "PlanAccur_alias": "Planimetric Accuracy", "ID": "ED1740", "Type": "C", "Ignore": "F", "UCS": "T", "Len_or_ANA": -1, "n_or_n_F": 0.014999999664723873, "US_Invert": 55.687000274658203, "DS_Invert": 55.256000518798828, "Form_Loss": 0, "pBlockage": "A", "Conn_No": 0, "Width_or_D": 0.375, "Height_or_": 0.0, "Number_of": 1, "Height_Con": 0.60000002384185791, "Width_Cont": 1.0, "Entry_Loss": 0.5, "Exit_Loss": 1, "Notes1": null, "Notes2": "driveway drain", "ch": 1740, "fme_feature_type": "Existing_Culverts", "multi_reader_full_id": 4, "multi_reader_id": 4, "multi_reader_keyword": "SHAPEFILE_5", "multi_reader_type": "SHAPEFILE", "shapefile_type": "shapefile_line", "SHAPE_Length": 8.3704310527065733 }, "geometry": { "type": "MultiLineString", "coordinates": [ [ [ 150.583651301471349, -34.999862968124596 ], [ 150.583664496376826, -34.999788318947751 ] ] ] } },
{ "type": "Feature", "properties": { "OBJECTID": 26, "Comments": "Existing culvert locations", "FSource": "BGE", "SourceDate": 20250915.0, "Supplier": "BGE", "output_gdb_path": "C:\\Users\\bri86955\\Mott MacDonald\\MGO - Moata Geospatial - JBR2HR\\02Data/GDA2020MGA56/Environment & Planning.gdb", "output_feature_class": "Water Management/JBR2HR_EN_WA_ExistingCulverts_M260_BGE_7856_20250915", "ECMLink_alias": "ECM Objective Link", "FSource_alias": "Feature Source", "SourceDate_alias": "Source Date", "PlanAccur_alias": "Planimetric Accuracy", "ID": "ED1520", "Type": "C", "Ignore": "F", "UCS": "T", "Len_or_ANA": -1, "n_or_n_F": 0.014999999664723873, "US_Invert": 47.268001556396484, "DS_Invert": 47.111000061035156, "Form_Loss": 0, "pBlockage": "A", "Conn_No": 0, "Width_or_D": 0.375, "Height_or_": 0.0, "Number_of": 1, "Height_Con": 0.60000002384185791, "Width_Cont": 1.0, "Entry_Loss": 0.5, "Exit_Loss": 1, "Notes1": null, "Notes2": "driveway drain", "ch": 1520, "fme_feature_type": "Existing_Culverts", "multi_reader_full_id": 4, "multi_reader_id": 4, "multi_reader_keyword": "SHAPEFILE_5", "multi_reader_type": "SHAPEFILE", "shapefile_type": "shapefile_line", "SHAPE_Length": 4.8633405180177078 }, "geometry": { "type": "MultiLineString", "coordinates": [ [ [ 150.584074209068064, -34.997899816628866 ], [ 150.584082973636953, -34.99785658546346 ] ] ] } },
{ "type": "Feature", "properties": { "OBJECTID": 27, "Comments": "Existing culvert locations", "FSource": "BGE", "SourceDate": 20250915.0, "Supplier": "BGE", "output_gdb_path": "C:\\Users\\bri86955\\Mott MacDonald\\MGO - Moata Geospatial - JBR2HR\\02Data/GDA2020MGA56/Environment & Planning.gdb", "output_feature_class": "Water Management/JBR2HR_EN_WA_ExistingCulverts_M260_BGE_7856_20250915", "ECMLink_alias": "ECM Objective Link", "FSource_alias": "Feature Source", "SourceDate_alias": "Source Date", "PlanAccur_alias": "Planimetric Accuracy", "ID": "ED460", "Type": "C", "Ignore": "F", "UCS": "T", "Len_or_ANA": -1, "n_or_n_F": 0.014999999664723873, "US_Invert": 28.222999572753906, "DS_Invert": 28.114999771118164, "Form_Loss": 0, "pBlockage": "A", "Conn_No": 0, "Width_or_D": 0.60000002384185791, "Height_or_": 0.0, "Number_of": 1, "Height_Con": 0.60000002384185791, "Width_Cont": 1.0, "Entry_Loss": 0.5, "Exit_Loss": 1, "Notes1": null, "Notes2": "driveway drain", "ch": 460, "fme_feature_type": "Existing_Culverts", "multi_reader_full_id": 4, "multi_reader_id": 4, "multi_reader_keyword": "SHAPEFILE_5", "multi_reader_type": "SHAPEFILE", "shapefile_type": "shapefile_line", "SHAPE_Length": 4.7718394779433639 }, "geometry": { "type": "MultiLineString", "coordinates": [ [ [ 150.585888607221563, -34.988514038721178 ], [ 150.585879978445774, -34.988556452476885 ] ] ] } },
{ "type": "Feature", "properties": { "OBJECTID": 28, "Comments": "Existing culvert locations", "FSource": "BGE", "SourceDate": 20250915.0, "Supplier": "BGE", "output_gdb_path": "C:\\Users\\bri86955\\Mott MacDonald\\MGO - Moata Geospatial - JBR2HR\\02Data/GDA2020MGA56/Environment & Planning.gdb", "output_feature_class": "Water Management/JBR2HR_EN_WA_ExistingCulverts_M260_BGE_7856_20250915", "ECMLink_alias": "ECM Objective Link", "FSource_alias": "Feature Source", "SourceDate_alias": "Source Date", "PlanAccur_alias": "Planimetric Accuracy", "ID": "ED1660", "Type": "C", "Ignore": "F", "UCS": "T", "Len_or_ANA": -1, "n_or_n_F": 0.014999999664723873, "US_Invert": 53.337001800537109, "DS_Invert": 52.396999359130859, "Form_Loss": 0, "pBlockage": "A", "Conn_No": 0, "Width_or_D": 0.375, "Height_or_": 0.0, "Number_of": 1, "Height_Con": 0.60000002384185791, "Width_Cont": 1.0, "Entry_Loss": 0.5, "Exit_Loss": 1, "Notes1": null, "Notes2": "driveway drain", "ch": 1660, "fme_feature_type": "Existing_Culverts", "multi_reader_full_id": 4, "multi_reader_id": 4, "multi_reader_keyword": "SHAPEFILE_5", "multi_reader_type": "SHAPEFILE", "shapefile_type": "shapefile_line", "SHAPE_Length": 18.650039195780842 }, "geometry": { "type": "MultiLineString", "coordinates": [ [ [ 150.583802024833687, -34.999165700671483 ], [ 150.583836814673958, -34.999000081694007 ] ] ] } },
{ "type": "Feature", "properties": { "OBJECTID": 29, "Comments": "Existing culvert locations", "FSource": "BGE", "SourceDate": 20250915.0, "Supplier": "BGE", "output_gdb_path": "C:\\Users\\bri86955\\Mott MacDonald\\MGO - Moata Geospatial - JBR2HR\\02Data/GDA2020MGA56/Environment & Planning.gdb", "output_feature_class": "Water Management/JBR2HR_EN_WA_ExistingCulverts_M260_BGE_7856_20250915", "ECMLink_alias": "ECM Objective Link", "FSource_alias": "Feature Source", "SourceDate_alias": "Source Date", "PlanAccur_alias": "Planimetric Accuracy", "ID": "ED1430", "Type": "C", "Ignore": "F", "UCS": "T", "Len_or_ANA": -1, "n_or_n_F": 0.014999999664723873, "US_Invert": 44.206001281738281, "DS_Invert": 44.104999542236328, "Form_Loss": 0, "pBlockage": "A", "Conn_No": 0, "Width_or_D": 0.44999998807907104, "Height_or_": 0.0, "Number_of": 1, "Height_Con": 0.60000002384185791, "Width_Cont": 1.0, "Entry_Loss": 0.5, "Exit_Loss": 1, "Notes1": null, "Notes2": "driveway drain", "ch": 1430, "fme_feature_type": "Existing_Culverts", "multi_reader_full_id": 4, "multi_reader_id": 4, "multi_reader_keyword": "SHAPEFILE_5", "multi_reader_type": "SHAPEFILE", "shapefile_type": "shapefile_line", "SHAPE_Length": 10.326418159711757 }, "geometry": { "type": "MultiLineString", "coordinates": [ [ [ 150.584061762277742, -34.997131346646199 ], [ 150.58408237536608, -34.997039843402092 ] ] ] } },
{ "type": "Feature", "properties": { "OBJECTID": 30, "Comments": "Existing culvert locations", "FSource": "BGE", "SourceDate": 20250915.0, "Supplier": "BGE", "output_gdb_path": "C:\\Users\\bri86955\\Mott MacDonald\\MGO - Moata Geospatial - JBR2HR\\02Data/GDA2020MGA56/Environment & Planning.gdb", "output_feature_class": "Water Management/JBR2HR_EN_WA_ExistingCulverts_M260_BGE_7856_20250915", "ECMLink_alias": "ECM Objective Link", "FSource_alias": "Feature Source", "SourceDate_alias": "Source Date", "PlanAccur_alias": "Planimetric Accuracy", "ID": "ED1380", "Type": "C", "Ignore": "F", "UCS": "T", "Len_or_ANA": -1, "n_or_n_F": 0.014999999664723873, "US_Invert": 42.801998138427734, "DS_Invert": 42.720001220703125, "Form_Loss": 0, "pBlockage": "A", "Conn_No": 0, "Width_or_D": 0.375, "Height_or_": 0.0, "Number_of": 1, "Height_Con": 0.60000002384185791, "Width_Cont": 1.0, "Entry_Loss": 0.5, "Exit_Loss": 1, "Notes1": null, "Notes2": "driveway drain", "ch": 1380, "fme_feature_type": "Existing_Culverts", "multi_reader_full_id": 4, "multi_reader_id": 4, "multi_reader_keyword": "SHAPEFILE_5", "multi_reader_type": "SHAPEFILE", "shapefile_type": "shapefile_line", "SHAPE_Length": 5.0475439574005652 }, "geometry": { "type": "MultiLineString", "coordinates": [ [ [ 150.584327169963046, -34.99672033320001 ], [ 150.584336812679823, -34.996675541918336 ] ] ] } },
{ "type": "Feature", "properties": { "OBJECTID": 31, "Comments": "Existing culvert locations", "FSource": "BGE", "SourceDate": 20250915.0, "Supplier": "BGE", "output_gdb_path": "C:\\Users\\bri86955\\Mott MacDonald\\MGO - Moata Geospatial - JBR2HR\\02Data/GDA2020MGA56/Environment & Planning.gdb", "output_feature_class": "Water Management/JBR2HR_EN_WA_ExistingCulverts_M260_BGE_7856_20250915", "ECMLink_alias": "ECM Objective Link", "FSource_alias": "Feature Source", "SourceDate_alias": "Source Date", "PlanAccur_alias": "Planimetric Accuracy", "ID": "ED6710", "Type": "C", "Ignore": "F", "UCS": "T", "Len_or_ANA": -1, "n_or_n_F": 0.014999999664723873, "US_Invert": 62.972999572753906, "DS_Invert": 62.972999572753906, "Form_Loss": 0, "pBlockage": "A", "Conn_No": 0, "Width_or_D": 0.44999998807907104, "Height_or_": 0.0, "Number_of": 1, "Height_Con": 0.60000002384185791, "Width_Cont": 1.0, "Entry_Loss": 0.5, "Exit_Loss": 1, "Notes1": null, "Notes2": "driveway drain", "ch": 6710, "fme_feature_type": "Existing_Culverts", "multi_reader_full_id": 4, "multi_reader_id": 4, "multi_reader_keyword": "SHAPEFILE_5", "multi_reader_type": "SHAPEFILE", "shapefile_type": "shapefile_line", "SHAPE_Length": 40.11774694014774 }, "geometry": { "type": "MultiLineString", "coordinates": [ [ [ 150.579851246350501, -35.041950081637097 ], [ 150.580181186860159, -35.041711171153018 ] ] ] } },
{ "type": "Feature", "properties": { "OBJECTID": 32, "Comments": "Existing culvert locations", "FSource": "BGE", "SourceDate": 20250915.0, "Supplier": "BGE", "output_gdb_path": "C:\\Users\\bri86955\\Mott MacDonald\\MGO - Moata Geospatial - JBR2HR\\02Data/GDA2020MGA56/Environment & Planning.gdb", "output_feature_class": "Water Management/JBR2HR_EN_WA_ExistingCulverts_M260_BGE_7856_20250915", "ECMLink_alias": "ECM Objective Link", "FSource_alias": "Feature Source", "SourceDate_alias": "Source Date", "PlanAccur_alias": "Planimetric Accuracy", "ID": "ED1440", "Type": "C", "Ignore": "F", "UCS": "T", "Len_or_ANA": -1, "n_or_n_F": 0.014999999664723873, "US_Invert": 44.262001037597656, "DS_Invert": 43.990001678466797, "Form_Loss": 0, "pBlockage": "A", "Conn_No": 0, "Width_or_D": 0.375, "Height_or_": 0.0, "Number_of": 2, "Height_Con": 0.60000002384185791, "Width_Cont": 1.0, "Entry_Loss": 0.5, "Exit_Loss": 1, "Notes1": null, "Notes2": "driveway drain", "ch": 1440, "fme_feature_type": "Existing_Culverts", "multi_reader_full_id": 4, "multi_reader_id": 4, "multi_reader_keyword": "SHAPEFILE_5", "multi_reader_type": "SHAPEFILE", "shapefile_type": "shapefile_line", "SHAPE_Length": 11.739071342515107 }, "geometry": { "type": "MultiLineString", "coordinates": [ [ [ 150.584225341720895, -34.99717903715738 ], [ 150.58424742408792, -34.997074816376148 ] ] ] } },
{ "type": "Feature", "properties": { "OBJECTID": 33, "Comments": "Existing culvert locations", "FSource": "BGE", "SourceDate": 20250915.0, "Supplier": "BGE", "output_gdb_path": "C:\\Users\\bri86955\\Mott MacDonald\\MGO - Moata Geospatial - JBR2HR\\02Data/GDA2020MGA56/Environment & Planning.gdb", "output_feature_class": "Water Management/JBR2HR_EN_WA_ExistingCulverts_M260_BGE_7856_20250915", "ECMLink_alias": "ECM Objective Link", "FSource_alias": "Feature Source", "SourceDate_alias": "Source Date", "PlanAccur_alias": "Planimetric Accuracy", "ID": "EC6590", "Type": "C", "Ignore": "F", "UCS": "T", "Len_or_ANA": -1, "n_or_n_F": 0.014999999664723873, "US_Invert": 78.227996826171875, "DS_Invert": 77.554000854492188, "Form_Loss": 0, "pBlockage": "A", "Conn_No": 0, "Width_or_D": 0.375, "Height_or_": 0.0, "Number_of": 1, "Height_Con": 0.60000002384185791, "Width_Cont": 1.0, "Entry_Loss": 0.5, "Exit_Loss": 1, "Notes1": "Inv estimated from DEM", "Notes2": "CrossDrain", "ch": 6590, "fme_feature_type": "Existing_Culverts", "multi_reader_full_id": 4, "multi_reader_id": 4, "multi_reader_keyword": "SHAPEFILE_5", "multi_reader_type": "SHAPEFILE", "shapefile_type": "shapefile_line", "SHAPE_Length": 27.579961874856725 }, "geometry": { "type": "MultiLineString", "coordinates": [ [ [ 150.580860000107037, -35.040900000171547 ], [ 150.58055999989557, -35.040869999921647 ] ] ] } },
{ "type": "Feature", "properties": { "OBJECTID": 34, "Comments": "Existing culvert locations", "FSource": "BGE", "SourceDate": 20250915.0, "Supplier": "BGE", "output_gdb_path": "C:\\Users\\bri86955\\Mott MacDonald\\MGO - Moata Geospatial - JBR2HR\\02Data/GDA2020MGA56/Environment & Planning.gdb", "output_feature_class": "Water Management/JBR2HR_EN_WA_ExistingCulverts_M260_BGE_7856_20250915", "ECMLink_alias": "ECM Objective Link", "FSource_alias": "Feature Source", "SourceDate_alias": "Source Date", "PlanAccur_alias": "Planimetric Accuracy", "ID": "EC6380", "Type": "C", "Ignore": "F", "UCS": "T", "Len_or_ANA": -1, "n_or_n_F": 0.014999999664723873, "US_Invert": 88.845001220703125, "DS_Invert": 88.605003356933594, "Form_Loss": 0, "pBlockage": "B", "Conn_No": 0, "Width_or_D": 0.89999997615814209, "Height_or_": 0.0, "Number_of": 1, "Height_Con": 0.60000002384185791, "Width_Cont": 1.0, "Entry_Loss": 0.5, "Exit_Loss": 1, "Notes1": "Inv estimated from DEM", "Notes2": "CrossDrain", "ch": 6380, "fme_feature_type": "Existing_Culverts", "multi_reader_full_id": 4, "multi_reader_id": 4, "multi_reader_keyword": "SHAPEFILE_5", "multi_reader_type": "SHAPEFILE", "shapefile_type": "shapefile_line", "SHAPE_Length": 15.860267147729228 }, "geometry": { "type": "MultiLineString", "coordinates": [ [ [ 150.582340000401132, -35.039460000341364 ], [ 150.582228943569135, -35.039350060449358 ] ] ] } },
{ "type": "Feature", "properties": { "OBJECTID": 35, "Comments": "Existing culvert locations", "FSource": "BGE", "SourceDate": 20250915.0, "Supplier": "BGE", "output_gdb_path": "C:\\Users\\bri86955\\Mott MacDonald\\MGO - Moata Geospatial - JBR2HR\\02Data/GDA2020MGA56/Environment & Planning.gdb", "output_feature_class": "Water Management/JBR2HR_EN_WA_ExistingCulverts_M260_BGE_7856_20250915", "ECMLink_alias": "ECM Objective Link", "FSource_alias": "Feature Source", "SourceDate_alias": "Source Date", "PlanAccur_alias": "Planimetric Accuracy", "ID": "EC5980", "Type": "C", "Ignore": "F", "UCS": "T", "Len_or_ANA": -1, "n_or_n_F": 0.014999999664723873, "US_Invert": 92.0989990234375, "DS_Invert": 90.069999694824219, "Form_Loss": 0, "pBlockage": "B", "Conn_No": 0, "Width_or_D": 1.0499999523162842, "Height_or_": 0.0, "Number_of": 1, "Height_Con": 0.60000002384185791, "Width_Cont": 1.0, "Entry_Loss": 0.5, "Exit_Loss": 1, "Notes1": "Inv estimated from DEM", "Notes2": "CrossDrain", "ch": 5980, "fme_feature_type": "Existing_Culverts", "multi_reader_full_id": 4, "multi_reader_id": 4, "multi_reader_keyword": "SHAPEFILE_5", "multi_reader_type": "SHAPEFILE", "shapefile_type": "shapefile_line", "SHAPE_Length": 37.570264450585192 }, "geometry": { "type": "MultiLineString", "coordinates": [ [ [ 150.584119999496238, -35.035910000049363 ], [ 150.58372000026975, -35.035990000070967 ] ] ] } },
{ "type": "Feature", "properties": { "OBJECTID": 36, "Comments": "Existing culvert locations", "FSource": "BGE", "SourceDate": 20250915.0, "Supplier": "BGE", "output_gdb_path": "C:\\Users\\bri86955\\Mott MacDonald\\MGO - Moata Geospatial - JBR2HR\\02Data/GDA2020MGA56/Environment & Planning.gdb", "output_feature_class": "Water Management/JBR2HR_EN_WA_ExistingCulverts_M260_BGE_7856_20250915", "ECMLink_alias": "ECM Objective Link", "FSource_alias": "Feature Source", "SourceDate_alias": "Source Date", "PlanAccur_alias": "Planimetric Accuracy", "ID": "EC6480", "Type": "C", "Ignore": "F", "UCS": "T", "Len_or_ANA": -1, "n_or_n_F": 0.014999999664723873, "US_Invert": 83.885002136230469, "DS_Invert": 82.525001525878906, "Form_Loss": 0, "pBlockage": "A", "Conn_No": 0, "Width_or_D": 0.44999998807907104, "Height_or_": 0.0, "Number_of": 1, "Height_Con": 0.60000002384185791, "Width_Cont": 1.0, "Entry_Loss": 0.5, "Exit_Loss": 1, "Notes1": "Inv estimated from DEM", "Notes2": "CrossDrain", "ch": 6480, "fme_feature_type": "Existing_Culverts", "multi_reader_full_id": 4, "multi_reader_id": 4, "multi_reader_keyword": "SHAPEFILE_5", "multi_reader_type": "SHAPEFILE", "shapefile_type": "shapefile_line", "SHAPE_Length": 22.020848335229147 }, "geometry": { "type": "MultiLineString", "coordinates": [ [ [ 150.581680000249349, -35.040100000017624 ], [ 150.581449999684082, -35.04016000001991 ] ] ] } },
{ "type": "Feature", "properties": { "OBJECTID": 37, "Comments": "Existing culvert locations", "FSource": "BGE", "SourceDate": 20250915.0, "Supplier": "BGE", "output_gdb_path": "C:\\Users\\bri86955\\Mott MacDonald\\MGO - Moata Geospatial - JBR2HR\\02Data/GDA2020MGA56/Environment & Planning.gdb", "output_feature_class": "Water Management/JBR2HR_EN_WA_ExistingCulverts_M260_BGE_7856_20250915", "ECMLink_alias": "ECM Objective Link", "FSource_alias": "Feature Source", "SourceDate_alias": "Source Date", "PlanAccur_alias": "Planimetric Accuracy", "ID": "ED430", "Type": "C", "Ignore": "F", "UCS": "T", "Len_or_ANA": -1, "n_or_n_F": 0.014999999664723873, "US_Invert": 27.658000946044922, "DS_Invert": 27.658000946044922, "Form_Loss": 0, "pBlockage": "A", "Conn_No": 0, "Width_or_D": 0.375, "Height_or_": 0.0, "Number_of": 1, "Height_Con": 0.60000002384185791, "Width_Cont": 1.0, "Entry_Loss": 0.5, "Exit_Loss": 1, "Notes1": null, "Notes2": "driveway drain", "ch": 430, "fme_feature_type": "Existing_Culverts", "multi_reader_full_id": 4, "multi_reader_id": 4, "multi_reader_keyword": "SHAPEFILE_5", "multi_reader_type": "SHAPEFILE", "shapefile_type": "shapefile_line", "SHAPE_Length": 3.5161690799744956 }, "geometry": { "type": "MultiLineString", "coordinates": [ [ [ 150.585936325962336, -34.988252498138301 ], [ 150.5858983365776, -34.988247334159468 ] ] ] } },
{ "type": "Feature", "properties": { "OBJECTID": 38, "Comments": "Existing culvert locations", "FSource": "BGE", "SourceDate": 20250915.0, "Supplier": "BGE", "output_gdb_path": "C:\\Users\\bri86955\\Mott MacDonald\\MGO - Moata Geospatial - JBR2HR\\02Data/GDA2020MGA56/Environment & Planning.gdb", "output_feature_class": "Water Management/JBR2HR_EN_WA_ExistingCulverts_M260_BGE_7856_20250915", "ECMLink_alias": "ECM Objective Link", "FSource_alias": "Feature Source", "SourceDate_alias": "Source Date", "PlanAccur_alias": "Planimetric Accuracy", "ID": "ED1210", "Type": "C", "Ignore": "F", "UCS": "T", "Len_or_ANA": -1, "n_or_n_F": 0.014999999664723873, "US_Invert": 41.367000579833984, "DS_Invert": 41.279998779296875, "Form_Loss": 0, "pBlockage": "A", "Conn_No": 0, "Width_or_D": 0.375, "Height_or_": 0.0, "Number_of": 1, "Height_Con": 0.60000002384185791, "Width_Cont": 1.0, "Entry_Loss": 0.5, "Exit_Loss": 1, "Notes1": null, "Notes2": "driveway drain", "ch": 1210, "fme_feature_type": "Existing_Culverts", "multi_reader_full_id": 4, "multi_reader_id": 4, "multi_reader_keyword": "SHAPEFILE_5", "multi_reader_type": "SHAPEFILE", "shapefile_type": "shapefile_line", "SHAPE_Length": 5.8037561113712659 }, "geometry": { "type": "MultiLineString", "coordinates": [ [ [ 150.584488978657021, -34.995181286463627 ], [ 150.584479319476998, -34.995232982692954 ] ] ] } },
{ "type": "Feature", "properties": { "OBJECTID": 39, "Comments": "Existing culvert locations", "FSource": "BGE", "SourceDate": 20250915.0, "Supplier": "BGE", "output_gdb_path": "C:\\Users\\bri86955\\Mott MacDonald\\MGO - Moata Geospatial - JBR2HR\\02Data/GDA2020MGA56/Environment & Planning.gdb", "output_feature_class": "Water Management/JBR2HR_EN_WA_ExistingCulverts_M260_BGE_7856_20250915", "ECMLink_alias": "ECM Objective Link", "FSource_alias": "Feature Source", "SourceDate_alias": "Source Date", "PlanAccur_alias": "Planimetric Accuracy", "ID": "ED1170", "Type": "C", "Ignore": "F", "UCS": "T", "Len_or_ANA": -1, "n_or_n_F": 0.014999999664723873, "US_Invert": 41.639999389648438, "DS_Invert": 41.521999359130859, "Form_Loss": 0, "pBlockage": "A", "Conn_No": 0, "Width_or_D": 0.30000001192092896, "Height_or_": 0.0, "Number_of": 1, "Height_Con": 0.60000002384185791, "Width_Cont": 1.0, "Entry_Loss": 0.5, "Exit_Loss": 1, "Notes1": null, "Notes2": "driveway drain", "ch": 1170, "fme_feature_type": "Existing_Culverts", "multi_reader_full_id": 4, "multi_reader_id": 4, "multi_reader_keyword": "SHAPEFILE_5", "multi_reader_type": "SHAPEFILE", "shapefile_type": "shapefile_line", "SHAPE_Length": 7.3956923280750209 }, "geometry": { "type": "MultiLineString", "coordinates": [ [ [ 150.584561115734402, -34.994817213128101 ], [ 150.584547397440446, -34.99488290048415 ] ] ] } },
{ "type": "Feature", "properties": { "OBJECTID": 40, "Comments": "Existing culvert locations", "FSource": "BGE", "SourceDate": 20250915.0, "Supplier": "BGE", "output_gdb_path": "C:\\Users\\bri86955\\Mott MacDonald\\MGO - Moata Geospatial - JBR2HR\\02Data/GDA2020MGA56/Environment & Planning.gdb", "output_feature_class": "Water Management/JBR2HR_EN_WA_ExistingCulverts_M260_BGE_7856_20250915", "ECMLink_alias": "ECM Objective Link", "FSource_alias": "Feature Source", "SourceDate_alias": "Source Date", "PlanAccur_alias": "Planimetric Accuracy", "ID": "ED640", "Type": "C", "Ignore": "F", "UCS": "T", "Len_or_ANA": -1, "n_or_n_F": 0.014999999664723873, "US_Invert": 34.127998352050781, "DS_Invert": 34.009998321533203, "Form_Loss": 0, "pBlockage": "A", "Conn_No": 0, "Width_or_D": 0.30000001192092896, "Height_or_": 0.0, "Number_of": 1, "Height_Con": 0.60000002384185791, "Width_Cont": 1.0, "Entry_Loss": 0.5, "Exit_Loss": 1, "Notes1": null, "Notes2": "driveway drain", "ch": 640, "fme_feature_type": "Existing_Culverts", "multi_reader_full_id": 4, "multi_reader_id": 4, "multi_reader_keyword": "SHAPEFILE_5", "multi_reader_type": "SHAPEFILE", "shapefile_type": "shapefile_line", "SHAPE_Length": 9.9625017444128652 }, "geometry": { "type": "MultiLineString", "coordinates": [ [ [ 150.58575501469295, -34.990067407373282 ], [ 150.585734034441259, -34.990155514233507 ] ] ] } },
{ "type": "Feature", "properties": { "OBJECTID": 41, "Comments": "Existing culvert locations", "FSource": "BGE", "SourceDate": 20250915.0, "Supplier": "BGE", "output_gdb_path": "C:\\Users\\bri86955\\Mott MacDonald\\MGO - Moata Geospatial - JBR2HR\\02Data/GDA2020MGA56/Environment & Planning.gdb", "output_feature_class": "Water Management/JBR2HR_EN_WA_ExistingCulverts_M260_BGE_7856_20250915", "ECMLink_alias": "ECM Objective Link", "FSource_alias": "Feature Source", "SourceDate_alias": "Source Date", "PlanAccur_alias": "Planimetric Accuracy", "ID": "ED760", "Type": "C", "Ignore": "F", "UCS": "T", "Len_or_ANA": -1, "n_or_n_F": 0.014999999664723873, "US_Invert": 37.022998809814453, "DS_Invert": 37.014999389648438, "Form_Loss": 0, "pBlockage": "A", "Conn_No": 0, "Width_or_D": 0.30000001192092896, "Height_or_": 0.0, "Number_of": 1, "Height_Con": 0.60000002384185791, "Width_Cont": 1.0, "Entry_Loss": 0.5, "Exit_Loss": 1, "Notes1": null, "Notes2": "driveway drain", "ch": 760, "fme_feature_type": "Existing_Culverts", "multi_reader_full_id": 4, "multi_reader_id": 4, "multi_reader_keyword": "SHAPEFILE_5", "multi_reader_type": "SHAPEFILE", "shapefile_type": "shapefile_line", "SHAPE_Length": 5.5680319680535719 }, "geometry": { "type": "MultiLineString", "coordinates": [ [ [ 150.585339363699092, -34.991135851521484 ], [ 150.585328688563919, -34.991185255947741 ] ] ] } },
{ "type": "Feature", "properties": { "OBJECTID": 42, "Comments": "Existing culvert locations", "FSource": "BGE", "SourceDate": 20250915.0, "Supplier": "BGE", "output_gdb_path": "C:\\Users\\bri86955\\Mott MacDonald\\MGO - Moata Geospatial - JBR2HR\\02Data/GDA2020MGA56/Environment & Planning.gdb", "output_feature_class": "Water Management/JBR2HR_EN_WA_ExistingCulverts_M260_BGE_7856_20250915", "ECMLink_alias": "ECM Objective Link", "FSource_alias": "Feature Source", "SourceDate_alias": "Source Date", "PlanAccur_alias": "Planimetric Accuracy", "ID": "ED1130", "Type": "C", "Ignore": "F", "UCS": "T", "Len_or_ANA": -1, "n_or_n_F": 0.014999999664723873, "US_Invert": 41.319000244140625, "DS_Invert": 41.203998565673828, "Form_Loss": 0, "pBlockage": "A", "Conn_No": 0, "Width_or_D": 0.30000001192092896, "Height_or_": 0.0, "Number_of": 1, "Height_Con": 0.60000002384185791, "Width_Cont": 1.0, "Entry_Loss": 0.5, "Exit_Loss": 1, "Notes1": null, "Notes2": "driveway drain", "ch": 1130, "fme_feature_type": "Existing_Culverts", "multi_reader_full_id": 4, "multi_reader_id": 4, "multi_reader_keyword": "SHAPEFILE_5", "multi_reader_type": "SHAPEFILE", "shapefile_type": "shapefile_line", "SHAPE_Length": 6.7277104570647355 }, "geometry": { "type": "MultiLineString", "coordinates": [ [ [ 150.584648312437395, -34.994416695646613 ], [ 150.584636278625453, -34.994476511932255 ] ] ] } },
{ "type": "Feature", "properties": { "OBJECTID": 43, "Comments": "Existing culvert locations", "FSource": "BGE", "SourceDate": 20250915.0, "Supplier": "BGE", "output_gdb_path": "C:\\Users\\bri86955\\Mott MacDonald\\MGO - Moata Geospatial - JBR2HR\\02Data/GDA2020MGA56/Environment & Planning.gdb", "output_feature_class": "Water Management/JBR2HR_EN_WA_ExistingCulverts_M260_BGE_7856_20250915", "ECMLink_alias": "ECM Objective Link", "FSource_alias": "Feature Source", "SourceDate_alias": "Source Date", "PlanAccur_alias": "Planimetric Accuracy", "ID": "ED520", "Type": "C", "Ignore": "F", "UCS": "T", "Len_or_ANA": -1, "n_or_n_F": 0.014999999664723873, "US_Invert": 30.794000625610352, "DS_Invert": 30.53700065612793, "Form_Loss": 0, "pBlockage": "A", "Conn_No": 0, "Width_or_D": 0.22499999403953552, "Height_or_": 0.0, "Number_of": 1, "Height_Con": 0.60000002384185791, "Width_Cont": 1.0, "Entry_Loss": 0.5, "Exit_Loss": 1, "Notes1": null, "Notes2": "driveway drain", "ch": 520, "fme_feature_type": "Existing_Culverts", "multi_reader_full_id": 4, "multi_reader_id": 4, "multi_reader_keyword": "SHAPEFILE_5", "multi_reader_type": "SHAPEFILE", "shapefile_type": "shapefile_line", "SHAPE_Length": 5.1734894417967423 }, "geometry": { "type": "MultiLineString", "coordinates": [ [ [ 150.58596575734677, -34.989036028093821 ], [ 150.585956824831129, -34.989082068731399 ] ] ] } },
{ "type": "Feature", "properties": { "OBJECTID": 44, "Comments": "Existing culvert locations", "FSource": "BGE", "SourceDate": 20250915.0, "Supplier": "BGE", "output_gdb_path": "C:\\Users\\bri86955\\Mott MacDonald\\MGO - Moata Geospatial - JBR2HR\\02Data/GDA2020MGA56/Environment & Planning.gdb", "output_feature_class": "Water Management/JBR2HR_EN_WA_ExistingCulverts_M260_BGE_7856_20250915", "ECMLink_alias": "ECM Objective Link", "FSource_alias": "Feature Source", "SourceDate_alias": "Source Date", "PlanAccur_alias": "Planimetric Accuracy", "ID": "ED440", "Type": "C", "Ignore": "F", "UCS": "T", "Len_or_ANA": -1, "n_or_n_F": 0.014999999664723873, "US_Invert": 27.906999588012695, "DS_Invert": 27.840999603271484, "Form_Loss": 0, "pBlockage": "A", "Conn_No": 0, "Width_or_D": 0.22499999403953552, "Height_or_": 0.0, "Number_of": 1, "Height_Con": 0.60000002384185791, "Width_Cont": 1.0, "Entry_Loss": 0.5, "Exit_Loss": 1, "Notes1": null, "Notes2": "driveway drain", "ch": 440, "fme_feature_type": "Existing_Culverts", "multi_reader_full_id": 4, "multi_reader_id": 4, "multi_reader_keyword": "SHAPEFILE_5", "multi_reader_type": "SHAPEFILE", "shapefile_type": "shapefile_line", "SHAPE_Length": 6.1683201119905329 }, "geometry": { "type": "MultiLineString", "coordinates": [ [ [ 150.586141761644342, -34.988335003891507 ], [ 150.586122702023033, -34.988388334303849 ] ] ] } },
{ "type": "Feature", "properties": { "OBJECTID": 45, "Comments": "Existing culvert locations", "FSource": "BGE", "SourceDate": 20250915.0, "Supplier": "BGE", "output_gdb_path": "C:\\Users\\bri86955\\Mott MacDonald\\MGO - Moata Geospatial - JBR2HR\\02Data/GDA2020MGA56/Environment & Planning.gdb", "output_feature_class": "Water Management/JBR2HR_EN_WA_ExistingCulverts_M260_BGE_7856_20250915", "ECMLink_alias": "ECM Objective Link", "FSource_alias": "Feature Source", "SourceDate_alias": "Source Date", "PlanAccur_alias": "Planimetric Accuracy", "ID": "EC3250", "Type": "C", "Ignore": "F", "UCS": "T", "Len_or_ANA": -1, "n_or_n_F": 0.014999999664723873, "US_Invert": 71.833999633789062, "DS_Invert": 71.660003662109375, "Form_Loss": 0, "pBlockage": "A", "Conn_No": 0, "Width_or_D": 0.44999998807907104, "Height_or_": 0.0, "Number_of": 2, "Height_Con": 0.60000002384185791, "Width_Cont": 1.0, "Entry_Loss": 0.5, "Exit_Loss": 1, "Notes1": null, "Notes2": "CrossDrain", "ch": 3250, "fme_feature_type": "Existing_Culverts", "multi_reader_full_id": 4, "multi_reader_id": 4, "multi_reader_keyword": "SHAPEFILE_5", "multi_reader_type": "SHAPEFILE", "shapefile_type": "shapefile_line", "SHAPE_Length": 17.56617138149107 }, "geometry": { "type": "MultiLineString", "coordinates": [ [ [ 150.580834062972968, -35.013307816359081 ], [ 150.580645474714061, -35.013276389212201 ] ] ] } },
{ "type": "Feature", "properties": { "OBJECTID": 46, "Comments": "Existing culvert locations", "FSource": "BGE", "SourceDate": 20250915.0, "Supplier": "BGE", "output_gdb_path": "C:\\Users\\bri86955\\Mott MacDonald\\MGO - Moata Geospatial - JBR2HR\\02Data/GDA2020MGA56/Environment & Planning.gdb", "output_feature_class": "Water Management/JBR2HR_EN_WA_ExistingCulverts_M260_BGE_7856_20250915", "ECMLink_alias": "ECM Objective Link", "FSource_alias": "Feature Source", "SourceDate_alias": "Source Date", "PlanAccur_alias": "Planimetric Accuracy", "ID": "EC3030", "Type": "C", "Ignore": "F", "UCS": "T", "Len_or_ANA": -1, "n_or_n_F": 0.014999999664723873, "US_Invert": 66.802001953125, "DS_Invert": 66.707000732421875, "Form_Loss": 0, "pBlockage": "A", "Conn_No": 0, "Width_or_D": 0.44999998807907104, "Height_or_": 0.0, "Number_of": 1, "Height_Con": 0.60000002384185791, "Width_Cont": 1.0, "Entry_Loss": 0.5, "Exit_Loss": 1, "Notes1": null, "Notes2": "CrossDrain", "ch": 3030, "fme_feature_type": "Existing_Culverts", "multi_reader_full_id": 4, "multi_reader_id": 4, "multi_reader_keyword": "SHAPEFILE_5", "multi_reader_type": "SHAPEFILE", "shapefile_type": "shapefile_line", "SHAPE_Length": 16.71609792914915 }, "geometry": { "type": "MultiLineString", "coordinates": [ [ [ 150.581264538305618, -35.0113020935271 ], [ 150.5810845548842, -35.011274408523938 ] ] ] } },
{ "type": "Feature", "properties": { "OBJECTID": 47, "Comments": "Existing culvert locations", "FSource": "BGE", "SourceDate": 20250915.0, "Supplier": "BGE", "output_gdb_path": "C:\\Users\\bri86955\\Mott MacDonald\\MGO - Moata Geospatial - JBR2HR\\02Data/GDA2020MGA56/Environment & Planning.gdb", "output_feature_class": "Water Management/JBR2HR_EN_WA_ExistingCulverts_M260_BGE_7856_20250915", "ECMLink_alias": "ECM Objective Link", "FSource_alias": "Feature Source", "SourceDate_alias": "Source Date", "PlanAccur_alias": "Planimetric Accuracy", "ID": "EC2240", "Type": "C", "Ignore": "F", "UCS": "T", "Len_or_ANA": -1, "n_or_n_F": 0.014999999664723873, "US_Invert": 54.238998413085938, "DS_Invert": 54.238998413085938, "Form_Loss": 0, "pBlockage": "A", "Conn_No": 0, "Width_or_D": 0.52499997615814209, "Height_or_": 0.0, "Number_of": 1, "Height_Con": 0.60000002384185791, "Width_Cont": 1.0, "Entry_Loss": 0.5, "Exit_Loss": 1, "Notes1": null, "Notes2": "CrossDrain", "ch": 2240, "fme_feature_type": "Existing_Culverts", "multi_reader_full_id": 4, "multi_reader_id": 4, "multi_reader_keyword": "SHAPEFILE_5", "multi_reader_type": "SHAPEFILE", "shapefile_type": "shapefile_line", "SHAPE_Length": 15.209458800309825 }, "geometry": { "type": "MultiLineString", "coordinates": [ [ [ 150.582720376159784, -35.004348839460036 ], [ 150.582555522862805, -35.004368551028584 ] ] ] } },
{ "type": "Feature", "properties": { "OBJECTID": 48, "Comments": "Existing culvert locations", "FSource": "BGE", "SourceDate": 20250915.0, "Supplier": "BGE", "output_gdb_path": "C:\\Users\\bri86955\\Mott MacDonald\\MGO - Moata Geospatial - JBR2HR\\02Data/GDA2020MGA56/Environment & Planning.gdb", "output_feature_class": "Water Management/JBR2HR_EN_WA_ExistingCulverts_M260_BGE_7856_20250915", "ECMLink_alias": "ECM Objective Link", "FSource_alias": "Feature Source", "SourceDate_alias": "Source Date", "PlanAccur_alias": "Planimetric Accuracy", "ID": "CP_02", "Type": "R", "Ignore": "F", "UCS": "T", "Len_or_ANA": -1, "n_or_n_F": 0.0, "US_Invert": 25.562999725341797, "DS_Invert": 25.284000396728516, "Form_Loss": 0, "pBlockage": "0", "Conn_No": 0, "Width_or_D": 2.7000000476837158, "Height_or_": 1.5, "Number_of": 4, "Height_Con": 0.0, "Width_Cont": 0.0, "Entry_Loss": 0.0, "Exit_Loss": 0, "Notes1": null, "Notes2": null, "ch": null, "fme_feature_type": "Existing_Culverts", "multi_reader_full_id": 4, "multi_reader_id": 4, "multi_reader_keyword": "SHAPEFILE_5", "multi_reader_type": "SHAPEFILE", "shapefile_type": "shapefile_line", "SHAPE_Length": 64.995234441112714 }, "geometry": { "type": "MultiLineString", "coordinates": [ [ [ 150.586554338770839, -34.987561381078748 ], [ 150.586011087591714, -34.987182955529725 ] ] ] } }
]
}
