{
"type": "FeatureCollection",
"name": "TUFLOW Model Extent",
"crs": { "type": "name", "properties": { "name": "urn:ogc:def:crs:OGC:1.3:CRS84" } },
"features": [
{ "type": "Feature", "properties": { "OBJECTID": 1, "Comments": "TUFLOW Model extent", "FSource": "BGE", "SourceDate": 20250915.0, "Supplier": "BGE", "output_gdb_path": "C:\\Users\\bri86955\\Mott MacDonald\\MGO - Moata Geospatial - JBR2HR\\02Data/GDA2020MGA56/Environment & Planning.gdb", "output_feature_class": "Water Management/JBR2HR_EN_WA_TUFLOWExtent_M260_BGE_7856_20250915", "ECMLink_alias": "ECM Objective Link", "FSource_alias": "Feature Source", "SourceDate_alias": "Source Date", "PlanAccur_alias": "Planimetric Accuracy", "Code": 1, "fme_feature_type": "2d_code_all_R", "multi_reader_full_id": 0, "multi_reader_id": 0, "multi_reader_keyword": "SHAPEFILE_1", "multi_reader_type": "SHAPEFILE", "shapefile_type": "shapefile_polygon", "SHAPE_Length": 15902.76493417002, "SHAPE_Area": 4087901.0476282397 }, "geometry": { "type": "MultiPolygon", "coordinates": [ [ [ [ 150.585723183518496, -34.985795900896413 ], [ 150.589787642725526, -34.986256710815887 ], [ 150.589264091053479, -34.989436311055307 ], [ 150.589082336438537, -34.996205457417048 ], [ 150.58773673933257, -34.999999249925068 ], [ 150.584649417477664, -35.001799918920945 ], [ 150.583609358688363, -35.007333530662386 ], [ 150.582251913569166, -35.016234779480016 ], [ 150.581184270401621, -35.017587563438354 ], [ 150.581796867693271, -35.019067743403035 ], [ 150.581611014523105, -35.01946069878084 ], [ 150.581724081179317, -35.02067219695067 ], [ 150.581418314380301, -35.022744620722996 ], [ 150.580555925817578, -35.024120511388858 ], [ 150.584821287375775, -35.02815951886155 ], [ 150.584541420277276, -35.030228141810781 ], [ 150.584859214996669, -35.031489276585795 ], [ 150.583233582826097, -35.033700598318781 ], [ 150.584252236231237, -35.034340192486262 ], [ 150.585031422431285, -35.035369798721867 ], [ 150.584668930041516, -35.036683966463606 ], [ 150.58389817066498, -35.038328026985276 ], [ 150.583554782024464, -35.038821403930044 ], [ 150.582211968616093, -35.040765998036711 ], [ 150.581386319910422, -35.04199626957805 ], [ 150.579818258426968, -35.044947786239554 ], [ 150.577129777419628, -35.044581360363935 ], [ 150.577308006330895, -35.043611471743183 ], [ 150.577629845450161, -35.041860019004915 ], [ 150.577748300130509, -35.040898815059165 ], [ 150.577833264155515, -35.040424709155808 ], [ 150.578203454957105, -35.040119682573547 ], [ 150.580213873873561, -35.040364683222933 ], [ 150.580090113759695, -35.039071558733113 ], [ 150.579048968025518, -35.038057178917306 ], [ 150.577501619442643, -35.037347851206619 ], [ 150.577172551362764, -35.03580715410169 ], [ 150.578204847183258, -35.034588335464321 ], [ 150.57707227267889, -35.033720640546697 ], [ 150.576063683087199, -35.032450805014534 ], [ 150.575899024923388, -35.031279778799657 ], [ 150.573708240168884, -35.030146490249543 ], [ 150.570705018156957, -35.031109080531749 ], [ 150.570425697711045, -35.030206770325371 ], [ 150.570734634361742, -35.025686042579721 ], [ 150.571554047569009, -35.024926993125533 ], [ 150.571988463685187, -35.023230647873483 ], [ 150.572732115229542, -35.020460982145643 ], [ 150.576762935211576, -35.018892405839146 ], [ 150.577155500595211, -35.015294602170194 ], [ 150.575729350610999, -35.006960796782415 ], [ 150.577540762901748, -35.005612112497495 ], [ 150.579031254851344, -35.004883859194415 ], [ 150.578268041915891, -35.002901906813072 ], [ 150.580062953456377, -35.001134894091912 ], [ 150.581910556256076, -34.99910252379614 ], [ 150.58438318761452, -34.986186880466043 ], [ 150.585723183518496, -34.985795900896413 ] ] ] ] } }
]
}
