{
"type": "FeatureCollection",
"name": "Existing crash data",
"crs": { "type": "name", "properties": { "name": "urn:ogc:def:crs:OGC:1.3:CRS84" } },
"features": [
{ "type": "Feature", "properties": { "OBJECTID": 1, "Comments": "Crash data from NSW Centre for Road Safety", "FSource": "https://eur01.safelinks.protection.outlook.com/?url=https%3A%2F%2Fapp.powerbi.com%2Fview%3Fr%3DeyJrIjoiMDA3OGRhN2UtZjRkNy00N2JmLWE0MjMtZmIyNzFiOTdmMjI3IiwidCI6ImNiMzU2NzgyLWFkOWEtNDdmYi04NzhiLTdlYmNlYjg1Yjg2YyJ9%26pageName%3DReportSection9f6cf5f75b8d2a5569a2%2527%3B&data=05%7C02%7CMatthew.Stephens%40mottmac.com%7C7b8ca85cf5784dba4c6708dd91b36915%7Ca2bed0c459574f73b0c2a811407590fb%7C0%7C0%7C638826923070558277%7CUnknown%7CTWFpbGZsb3d8eyJFbXB0eU1hcGkiOnRydWUsIlYiOiIwLjAuMDAwMCIsIlAiOiJXaW4zMiIsIkFOIjoiTWFpbCIsIldUIjoyfQ%3D%3D%7C0%7C%7C%7C&sdata=sooFJVA%2FgBtL7Mc%2FvNjpwf1xZngWJDMndUxrSSTU05c%3D&reserved=0", "SourceDate": 20250702.0, "Supplier": "TFNSW", "output_gdb_path": "C:\\Users\\bri86955\\Mott MacDonald\\MGO - Moata Geospatial - JBR2HR\\02Data/GDA2020MGA56/Property.gdb", "output_feature_class": "Transport Planning/JBR2HR_PP_TP_CrashData_M260_TFNSW_7856_20250702", "ECMLink_alias": "ECM Objective Link", "FSource_alias": "Feature Source", "SourceDate_alias": "Source Date", "PlanAccur_alias": "Planimetric Accuracy", "Reporting_": 2019, "Crash_ID": 1212404.0, "Degree_of_": "Serious Injury", "RUM___Code": 10, "RUM___Desc": "Cross traffic", "Type_of_Lo": "T-junction", "Natural_Li": "Daylight", "Longitude": 150.58775, "Latitude": -34.983305, "Number_kil": 0, "Number_inj": 1, "Ameliorate": "Y", "fme_feature_type": "CrashData", "multi_reader_full_id": 0, "multi_reader_id": 0, "multi_reader_keyword": "SHAPEFILE_1", "multi_reader_type": "SHAPEFILE", "shapefile_type": "shapefile_point" }, "geometry": { "type": "Point", "coordinates": [ 150.587749999524817, -34.983304999636601 ] } },
{ "type": "Feature", "properties": { "OBJECTID": 2, "Comments": "Crash data from NSW Centre for Road Safety", "FSource": "https://eur01.safelinks.protection.outlook.com/?url=https%3A%2F%2Fapp.powerbi.com%2Fview%3Fr%3DeyJrIjoiMDA3OGRhN2UtZjRkNy00N2JmLWE0MjMtZmIyNzFiOTdmMjI3IiwidCI6ImNiMzU2NzgyLWFkOWEtNDdmYi04NzhiLTdlYmNlYjg1Yjg2YyJ9%26pageName%3DReportSection9f6cf5f75b8d2a5569a2%2527%3B&data=05%7C02%7CMatthew.Stephens%40mottmac.com%7C7b8ca85cf5784dba4c6708dd91b36915%7Ca2bed0c459574f73b0c2a811407590fb%7C0%7C0%7C638826923070558277%7CUnknown%7CTWFpbGZsb3d8eyJFbXB0eU1hcGkiOnRydWUsIlYiOiIwLjAuMDAwMCIsIlAiOiJXaW4zMiIsIkFOIjoiTWFpbCIsIldUIjoyfQ%3D%3D%7C0%7C%7C%7C&sdata=sooFJVA%2FgBtL7Mc%2FvNjpwf1xZngWJDMndUxrSSTU05c%3D&reserved=0", "SourceDate": 20250702.0, "Supplier": "TFNSW", "output_gdb_path": "C:\\Users\\bri86955\\Mott MacDonald\\MGO - Moata Geospatial - JBR2HR\\02Data/GDA2020MGA56/Property.gdb", "output_feature_class": "Transport Planning/JBR2HR_PP_TP_CrashData_M260_TFNSW_7856_20250702", "ECMLink_alias": "ECM Objective Link", "FSource_alias": "Feature Source", "SourceDate_alias": "Source Date", "PlanAccur_alias": "Planimetric Accuracy", "Reporting_": 2019, "Crash_ID": 1213309.0, "Degree_of_": "Moderate Injury", "RUM___Code": 13, "RUM___Desc": "Right near", "Type_of_Lo": "T-junction", "Natural_Li": "Daylight", "Longitude": 150.58775, "Latitude": -34.983305, "Number_kil": 0, "Number_inj": 1, "Ameliorate": "Y", "fme_feature_type": "CrashData", "multi_reader_full_id": 0, "multi_reader_id": 0, "multi_reader_keyword": "SHAPEFILE_1", "multi_reader_type": "SHAPEFILE", "shapefile_type": "shapefile_point" }, "geometry": { "type": "Point", "coordinates": [ 150.587749999524817, -34.983304999636601 ] } },
{ "type": "Feature", "properties": { "OBJECTID": 3, "Comments": "Crash data from NSW Centre for Road Safety", "FSource": "https://eur01.safelinks.protection.outlook.com/?url=https%3A%2F%2Fapp.powerbi.com%2Fview%3Fr%3DeyJrIjoiMDA3OGRhN2UtZjRkNy00N2JmLWE0MjMtZmIyNzFiOTdmMjI3IiwidCI6ImNiMzU2NzgyLWFkOWEtNDdmYi04NzhiLTdlYmNlYjg1Yjg2YyJ9%26pageName%3DReportSection9f6cf5f75b8d2a5569a2%2527%3B&data=05%7C02%7CMatthew.Stephens%40mottmac.com%7C7b8ca85cf5784dba4c6708dd91b36915%7Ca2bed0c459574f73b0c2a811407590fb%7C0%7C0%7C638826923070558277%7CUnknown%7CTWFpbGZsb3d8eyJFbXB0eU1hcGkiOnRydWUsIlYiOiIwLjAuMDAwMCIsIlAiOiJXaW4zMiIsIkFOIjoiTWFpbCIsIldUIjoyfQ%3D%3D%7C0%7C%7C%7C&sdata=sooFJVA%2FgBtL7Mc%2FvNjpwf1xZngWJDMndUxrSSTU05c%3D&reserved=0", "SourceDate": 20250702.0, "Supplier": "TFNSW", "output_gdb_path": "C:\\Users\\bri86955\\Mott MacDonald\\MGO - Moata Geospatial - JBR2HR\\02Data/GDA2020MGA56/Property.gdb", "output_feature_class": "Transport Planning/JBR2HR_PP_TP_CrashData_M260_TFNSW_7856_20250702", "ECMLink_alias": "ECM Objective Link", "FSource_alias": "Feature Source", "SourceDate_alias": "Source Date", "PlanAccur_alias": "Planimetric Accuracy", "Reporting_": 2021, "Crash_ID": 1271283.0, "Degree_of_": "Moderate Injury", "RUM___Code": 13, "RUM___Desc": "Right near", "Type_of_Lo": "T-junction", "Natural_Li": "Daylight", "Longitude": 150.587752, "Latitude": -34.983299, "Number_kil": 0, "Number_inj": 2, "Ameliorate": "Y", "fme_feature_type": "CrashData", "multi_reader_full_id": 0, "multi_reader_id": 0, "multi_reader_keyword": "SHAPEFILE_1", "multi_reader_type": "SHAPEFILE", "shapefile_type": "shapefile_point" }, "geometry": { "type": "Point", "coordinates": [ 150.587752000370472, -34.98329900045794 ] } },
{ "type": "Feature", "properties": { "OBJECTID": 4, "Comments": "Crash data from NSW Centre for Road Safety", "FSource": "https://eur01.safelinks.protection.outlook.com/?url=https%3A%2F%2Fapp.powerbi.com%2Fview%3Fr%3DeyJrIjoiMDA3OGRhN2UtZjRkNy00N2JmLWE0MjMtZmIyNzFiOTdmMjI3IiwidCI6ImNiMzU2NzgyLWFkOWEtNDdmYi04NzhiLTdlYmNlYjg1Yjg2YyJ9%26pageName%3DReportSection9f6cf5f75b8d2a5569a2%2527%3B&data=05%7C02%7CMatthew.Stephens%40mottmac.com%7C7b8ca85cf5784dba4c6708dd91b36915%7Ca2bed0c459574f73b0c2a811407590fb%7C0%7C0%7C638826923070558277%7CUnknown%7CTWFpbGZsb3d8eyJFbXB0eU1hcGkiOnRydWUsIlYiOiIwLjAuMDAwMCIsIlAiOiJXaW4zMiIsIkFOIjoiTWFpbCIsIldUIjoyfQ%3D%3D%7C0%7C%7C%7C&sdata=sooFJVA%2FgBtL7Mc%2FvNjpwf1xZngWJDMndUxrSSTU05c%3D&reserved=0", "SourceDate": 20250702.0, "Supplier": "TFNSW", "output_gdb_path": "C:\\Users\\bri86955\\Mott MacDonald\\MGO - Moata Geospatial - JBR2HR\\02Data/GDA2020MGA56/Property.gdb", "output_feature_class": "Transport Planning/JBR2HR_PP_TP_CrashData_M260_TFNSW_7856_20250702", "ECMLink_alias": "ECM Objective Link", "FSource_alias": "Feature Source", "SourceDate_alias": "Source Date", "PlanAccur_alias": "Planimetric Accuracy", "Reporting_": 2022, "Crash_ID": 1295668.0, "Degree_of_": "Moderate Injury", "RUM___Code": 10, "RUM___Desc": "Cross traffic", "Type_of_Lo": "T-junction", "Natural_Li": "Daylight", "Longitude": 150.58775, "Latitude": -34.983305, "Number_kil": 0, "Number_inj": 1, "Ameliorate": "Y", "fme_feature_type": "CrashData", "multi_reader_full_id": 0, "multi_reader_id": 0, "multi_reader_keyword": "SHAPEFILE_1", "multi_reader_type": "SHAPEFILE", "shapefile_type": "shapefile_point" }, "geometry": { "type": "Point", "coordinates": [ 150.587749999524817, -34.983304999636601 ] } },
{ "type": "Feature", "properties": { "OBJECTID": 5, "Comments": "Crash data from NSW Centre for Road Safety", "FSource": "https://eur01.safelinks.protection.outlook.com/?url=https%3A%2F%2Fapp.powerbi.com%2Fview%3Fr%3DeyJrIjoiMDA3OGRhN2UtZjRkNy00N2JmLWE0MjMtZmIyNzFiOTdmMjI3IiwidCI6ImNiMzU2NzgyLWFkOWEtNDdmYi04NzhiLTdlYmNlYjg1Yjg2YyJ9%26pageName%3DReportSection9f6cf5f75b8d2a5569a2%2527%3B&data=05%7C02%7CMatthew.Stephens%40mottmac.com%7C7b8ca85cf5784dba4c6708dd91b36915%7Ca2bed0c459574f73b0c2a811407590fb%7C0%7C0%7C638826923070558277%7CUnknown%7CTWFpbGZsb3d8eyJFbXB0eU1hcGkiOnRydWUsIlYiOiIwLjAuMDAwMCIsIlAiOiJXaW4zMiIsIkFOIjoiTWFpbCIsIldUIjoyfQ%3D%3D%7C0%7C%7C%7C&sdata=sooFJVA%2FgBtL7Mc%2FvNjpwf1xZngWJDMndUxrSSTU05c%3D&reserved=0", "SourceDate": 20250702.0, "Supplier": "TFNSW", "output_gdb_path": "C:\\Users\\bri86955\\Mott MacDonald\\MGO - Moata Geospatial - JBR2HR\\02Data/GDA2020MGA56/Property.gdb", "output_feature_class": "Transport Planning/JBR2HR_PP_TP_CrashData_M260_TFNSW_7856_20250702", "ECMLink_alias": "ECM Objective Link", "FSource_alias": "Feature Source", "SourceDate_alias": "Source Date", "PlanAccur_alias": "Planimetric Accuracy", "Reporting_": 2023, "Crash_ID": 1316491.0, "Degree_of_": "Non-casualty (towaway)", "RUM___Code": 13, "RUM___Desc": "Right near", "Type_of_Lo": "T-junction", "Natural_Li": "Daylight", "Longitude": 150.58775, "Latitude": -34.983305, "Number_kil": 0, "Number_inj": 0, "Ameliorate": "Y", "fme_feature_type": "CrashData", "multi_reader_full_id": 0, "multi_reader_id": 0, "multi_reader_keyword": "SHAPEFILE_1", "multi_reader_type": "SHAPEFILE", "shapefile_type": "shapefile_point" }, "geometry": { "type": "Point", "coordinates": [ 150.587749999524817, -34.983304999636601 ] } },
{ "type": "Feature", "properties": { "OBJECTID": 6, "Comments": "Crash data from NSW Centre for Road Safety", "FSource": "https://eur01.safelinks.protection.outlook.com/?url=https%3A%2F%2Fapp.powerbi.com%2Fview%3Fr%3DeyJrIjoiMDA3OGRhN2UtZjRkNy00N2JmLWE0MjMtZmIyNzFiOTdmMjI3IiwidCI6ImNiMzU2NzgyLWFkOWEtNDdmYi04NzhiLTdlYmNlYjg1Yjg2YyJ9%26pageName%3DReportSection9f6cf5f75b8d2a5569a2%2527%3B&data=05%7C02%7CMatthew.Stephens%40mottmac.com%7C7b8ca85cf5784dba4c6708dd91b36915%7Ca2bed0c459574f73b0c2a811407590fb%7C0%7C0%7C638826923070558277%7CUnknown%7CTWFpbGZsb3d8eyJFbXB0eU1hcGkiOnRydWUsIlYiOiIwLjAuMDAwMCIsIlAiOiJXaW4zMiIsIkFOIjoiTWFpbCIsIldUIjoyfQ%3D%3D%7C0%7C%7C%7C&sdata=sooFJVA%2FgBtL7Mc%2FvNjpwf1xZngWJDMndUxrSSTU05c%3D&reserved=0", "SourceDate": 20250702.0, "Supplier": "TFNSW", "output_gdb_path": "C:\\Users\\bri86955\\Mott MacDonald\\MGO - Moata Geospatial - JBR2HR\\02Data/GDA2020MGA56/Property.gdb", "output_feature_class": "Transport Planning/JBR2HR_PP_TP_CrashData_M260_TFNSW_7856_20250702", "ECMLink_alias": "ECM Objective Link", "FSource_alias": "Feature Source", "SourceDate_alias": "Source Date", "PlanAccur_alias": "Planimetric Accuracy", "Reporting_": 2022, "Crash_ID": 1308993.0, "Degree_of_": "Serious Injury", "RUM___Code": 10, "RUM___Desc": "Cross traffic", "Type_of_Lo": "T-junction", "Natural_Li": "Daylight", "Longitude": 150.586988, "Latitude": -34.984937, "Number_kil": 0, "Number_inj": 1, "Ameliorate": "Y", "fme_feature_type": "CrashData", "multi_reader_full_id": 0, "multi_reader_id": 0, "multi_reader_keyword": "SHAPEFILE_1", "multi_reader_type": "SHAPEFILE", "shapefile_type": "shapefile_point" }, "geometry": { "type": "Point", "coordinates": [ 150.586987999737744, -34.98493700044267 ] } },
{ "type": "Feature", "properties": { "OBJECTID": 7, "Comments": "Crash data from NSW Centre for Road Safety", "FSource": "https://eur01.safelinks.protection.outlook.com/?url=https%3A%2F%2Fapp.powerbi.com%2Fview%3Fr%3DeyJrIjoiMDA3OGRhN2UtZjRkNy00N2JmLWE0MjMtZmIyNzFiOTdmMjI3IiwidCI6ImNiMzU2NzgyLWFkOWEtNDdmYi04NzhiLTdlYmNlYjg1Yjg2YyJ9%26pageName%3DReportSection9f6cf5f75b8d2a5569a2%2527%3B&data=05%7C02%7CMatthew.Stephens%40mottmac.com%7C7b8ca85cf5784dba4c6708dd91b36915%7Ca2bed0c459574f73b0c2a811407590fb%7C0%7C0%7C638826923070558277%7CUnknown%7CTWFpbGZsb3d8eyJFbXB0eU1hcGkiOnRydWUsIlYiOiIwLjAuMDAwMCIsIlAiOiJXaW4zMiIsIkFOIjoiTWFpbCIsIldUIjoyfQ%3D%3D%7C0%7C%7C%7C&sdata=sooFJVA%2FgBtL7Mc%2FvNjpwf1xZngWJDMndUxrSSTU05c%3D&reserved=0", "SourceDate": 20250702.0, "Supplier": "TFNSW", "output_gdb_path": "C:\\Users\\bri86955\\Mott MacDonald\\MGO - Moata Geospatial - JBR2HR\\02Data/GDA2020MGA56/Property.gdb", "output_feature_class": "Transport Planning/JBR2HR_PP_TP_CrashData_M260_TFNSW_7856_20250702", "ECMLink_alias": "ECM Objective Link", "FSource_alias": "Feature Source", "SourceDate_alias": "Source Date", "PlanAccur_alias": "Planimetric Accuracy", "Reporting_": 2022, "Crash_ID": 1301093.0, "Degree_of_": "Serious Injury", "RUM___Code": 32, "RUM___Desc": "Right rear", "Type_of_Lo": "T-junction", "Natural_Li": "Daylight", "Longitude": 150.586207, "Latitude": -34.987496, "Number_kil": 0, "Number_inj": 5, "Ameliorate": "Y", "fme_feature_type": "CrashData", "multi_reader_full_id": 0, "multi_reader_id": 0, "multi_reader_keyword": "SHAPEFILE_1", "multi_reader_type": "SHAPEFILE", "shapefile_type": "shapefile_point" }, "geometry": { "type": "Point", "coordinates": [ 150.586207000519209, -34.987496000195435 ] } },
{ "type": "Feature", "properties": { "OBJECTID": 8, "Comments": "Crash data from NSW Centre for Road Safety", "FSource": "https://eur01.safelinks.protection.outlook.com/?url=https%3A%2F%2Fapp.powerbi.com%2Fview%3Fr%3DeyJrIjoiMDA3OGRhN2UtZjRkNy00N2JmLWE0MjMtZmIyNzFiOTdmMjI3IiwidCI6ImNiMzU2NzgyLWFkOWEtNDdmYi04NzhiLTdlYmNlYjg1Yjg2YyJ9%26pageName%3DReportSection9f6cf5f75b8d2a5569a2%2527%3B&data=05%7C02%7CMatthew.Stephens%40mottmac.com%7C7b8ca85cf5784dba4c6708dd91b36915%7Ca2bed0c459574f73b0c2a811407590fb%7C0%7C0%7C638826923070558277%7CUnknown%7CTWFpbGZsb3d8eyJFbXB0eU1hcGkiOnRydWUsIlYiOiIwLjAuMDAwMCIsIlAiOiJXaW4zMiIsIkFOIjoiTWFpbCIsIldUIjoyfQ%3D%3D%7C0%7C%7C%7C&sdata=sooFJVA%2FgBtL7Mc%2FvNjpwf1xZngWJDMndUxrSSTU05c%3D&reserved=0", "SourceDate": 20250702.0, "Supplier": "TFNSW", "output_gdb_path": "C:\\Users\\bri86955\\Mott MacDonald\\MGO - Moata Geospatial - JBR2HR\\02Data/GDA2020MGA56/Property.gdb", "output_feature_class": "Transport Planning/JBR2HR_PP_TP_CrashData_M260_TFNSW_7856_20250702", "ECMLink_alias": "ECM Objective Link", "FSource_alias": "Feature Source", "SourceDate_alias": "Source Date", "PlanAccur_alias": "Planimetric Accuracy", "Reporting_": 2019, "Crash_ID": 1198942.0, "Degree_of_": "Non-casualty (towaway)", "RUM___Code": 67, "RUM___Desc": "Struck animal", "Type_of_Lo": "2-way undivided", "Natural_Li": "Dawn", "Longitude": 150.586148, "Latitude": -34.987762, "Number_kil": 0, "Number_inj": 0, "Ameliorate": "N", "fme_feature_type": "CrashData", "multi_reader_full_id": 0, "multi_reader_id": 0, "multi_reader_keyword": "SHAPEFILE_1", "multi_reader_type": "SHAPEFILE", "shapefile_type": "shapefile_point" }, "geometry": { "type": "Point", "coordinates": [ 150.586148000282634, -34.987761999654651 ] } },
{ "type": "Feature", "properties": { "OBJECTID": 9, "Comments": "Crash data from NSW Centre for Road Safety", "FSource": "https://eur01.safelinks.protection.outlook.com/?url=https%3A%2F%2Fapp.powerbi.com%2Fview%3Fr%3DeyJrIjoiMDA3OGRhN2UtZjRkNy00N2JmLWE0MjMtZmIyNzFiOTdmMjI3IiwidCI6ImNiMzU2NzgyLWFkOWEtNDdmYi04NzhiLTdlYmNlYjg1Yjg2YyJ9%26pageName%3DReportSection9f6cf5f75b8d2a5569a2%2527%3B&data=05%7C02%7CMatthew.Stephens%40mottmac.com%7C7b8ca85cf5784dba4c6708dd91b36915%7Ca2bed0c459574f73b0c2a811407590fb%7C0%7C0%7C638826923070558277%7CUnknown%7CTWFpbGZsb3d8eyJFbXB0eU1hcGkiOnRydWUsIlYiOiIwLjAuMDAwMCIsIlAiOiJXaW4zMiIsIkFOIjoiTWFpbCIsIldUIjoyfQ%3D%3D%7C0%7C%7C%7C&sdata=sooFJVA%2FgBtL7Mc%2FvNjpwf1xZngWJDMndUxrSSTU05c%3D&reserved=0", "SourceDate": 20250702.0, "Supplier": "TFNSW", "output_gdb_path": "C:\\Users\\bri86955\\Mott MacDonald\\MGO - Moata Geospatial - JBR2HR\\02Data/GDA2020MGA56/Property.gdb", "output_feature_class": "Transport Planning/JBR2HR_PP_TP_CrashData_M260_TFNSW_7856_20250702", "ECMLink_alias": "ECM Objective Link", "FSource_alias": "Feature Source", "SourceDate_alias": "Source Date", "PlanAccur_alias": "Planimetric Accuracy", "Reporting_": 2021, "Crash_ID": 1276962.0, "Degree_of_": "Non-casualty (towaway)", "RUM___Code": 32, "RUM___Desc": "Right rear", "Type_of_Lo": "T-junction", "Natural_Li": "Daylight", "Longitude": 150.583177, "Latitude": -35.001755, "Number_kil": 0, "Number_inj": 0, "Ameliorate": "Y", "fme_feature_type": "CrashData", "multi_reader_full_id": 0, "multi_reader_id": 0, "multi_reader_keyword": "SHAPEFILE_1", "multi_reader_type": "SHAPEFILE", "shapefile_type": "shapefile_point" }, "geometry": { "type": "Point", "coordinates": [ 150.583177000073476, -35.001754999803659 ] } },
{ "type": "Feature", "properties": { "OBJECTID": 10, "Comments": "Crash data from NSW Centre for Road Safety", "FSource": "https://eur01.safelinks.protection.outlook.com/?url=https%3A%2F%2Fapp.powerbi.com%2Fview%3Fr%3DeyJrIjoiMDA3OGRhN2UtZjRkNy00N2JmLWE0MjMtZmIyNzFiOTdmMjI3IiwidCI6ImNiMzU2NzgyLWFkOWEtNDdmYi04NzhiLTdlYmNlYjg1Yjg2YyJ9%26pageName%3DReportSection9f6cf5f75b8d2a5569a2%2527%3B&data=05%7C02%7CMatthew.Stephens%40mottmac.com%7C7b8ca85cf5784dba4c6708dd91b36915%7Ca2bed0c459574f73b0c2a811407590fb%7C0%7C0%7C638826923070558277%7CUnknown%7CTWFpbGZsb3d8eyJFbXB0eU1hcGkiOnRydWUsIlYiOiIwLjAuMDAwMCIsIlAiOiJXaW4zMiIsIkFOIjoiTWFpbCIsIldUIjoyfQ%3D%3D%7C0%7C%7C%7C&sdata=sooFJVA%2FgBtL7Mc%2FvNjpwf1xZngWJDMndUxrSSTU05c%3D&reserved=0", "SourceDate": 20250702.0, "Supplier": "TFNSW", "output_gdb_path": "C:\\Users\\bri86955\\Mott MacDonald\\MGO - Moata Geospatial - JBR2HR\\02Data/GDA2020MGA56/Property.gdb", "output_feature_class": "Transport Planning/JBR2HR_PP_TP_CrashData_M260_TFNSW_7856_20250702", "ECMLink_alias": "ECM Objective Link", "FSource_alias": "Feature Source", "SourceDate_alias": "Source Date", "PlanAccur_alias": "Planimetric Accuracy", "Reporting_": 2019, "Crash_ID": 1199451.0, "Degree_of_": "Non-casualty (towaway)", "RUM___Code": 30, "RUM___Desc": "Rear end", "Type_of_Lo": "T-junction", "Natural_Li": "Daylight", "Longitude": 150.581996, "Latitude": -35.007558, "Number_kil": 0, "Number_inj": 0, "Ameliorate": "Y", "fme_feature_type": "CrashData", "multi_reader_full_id": 0, "multi_reader_id": 0, "multi_reader_keyword": "SHAPEFILE_1", "multi_reader_type": "SHAPEFILE", "shapefile_type": "shapefile_point" }, "geometry": { "type": "Point", "coordinates": [ 150.581996000387051, -35.007557999954265 ] } },
{ "type": "Feature", "properties": { "OBJECTID": 11, "Comments": "Crash data from NSW Centre for Road Safety", "FSource": "https://eur01.safelinks.protection.outlook.com/?url=https%3A%2F%2Fapp.powerbi.com%2Fview%3Fr%3DeyJrIjoiMDA3OGRhN2UtZjRkNy00N2JmLWE0MjMtZmIyNzFiOTdmMjI3IiwidCI6ImNiMzU2NzgyLWFkOWEtNDdmYi04NzhiLTdlYmNlYjg1Yjg2YyJ9%26pageName%3DReportSection9f6cf5f75b8d2a5569a2%2527%3B&data=05%7C02%7CMatthew.Stephens%40mottmac.com%7C7b8ca85cf5784dba4c6708dd91b36915%7Ca2bed0c459574f73b0c2a811407590fb%7C0%7C0%7C638826923070558277%7CUnknown%7CTWFpbGZsb3d8eyJFbXB0eU1hcGkiOnRydWUsIlYiOiIwLjAuMDAwMCIsIlAiOiJXaW4zMiIsIkFOIjoiTWFpbCIsIldUIjoyfQ%3D%3D%7C0%7C%7C%7C&sdata=sooFJVA%2FgBtL7Mc%2FvNjpwf1xZngWJDMndUxrSSTU05c%3D&reserved=0", "SourceDate": 20250702.0, "Supplier": "TFNSW", "output_gdb_path": "C:\\Users\\bri86955\\Mott MacDonald\\MGO - Moata Geospatial - JBR2HR\\02Data/GDA2020MGA56/Property.gdb", "output_feature_class": "Transport Planning/JBR2HR_PP_TP_CrashData_M260_TFNSW_7856_20250702", "ECMLink_alias": "ECM Objective Link", "FSource_alias": "Feature Source", "SourceDate_alias": "Source Date", "PlanAccur_alias": "Planimetric Accuracy", "Reporting_": 2021, "Crash_ID": 1272445.0, "Degree_of_": "Serious Injury", "RUM___Code": 71, "RUM___Desc": "Off rd left => obj", "Type_of_Lo": "2-way undivided", "Natural_Li": "Dusk", "Longitude": 150.581592, "Latitude": -35.009427, "Number_kil": 0, "Number_inj": 1, "Ameliorate": "Y", "fme_feature_type": "CrashData", "multi_reader_full_id": 0, "multi_reader_id": 0, "multi_reader_keyword": "SHAPEFILE_1", "multi_reader_type": "SHAPEFILE", "shapefile_type": "shapefile_point" }, "geometry": { "type": "Point", "coordinates": [ 150.581591999794966, -35.009426999558627 ] } },
{ "type": "Feature", "properties": { "OBJECTID": 12, "Comments": "Crash data from NSW Centre for Road Safety", "FSource": "https://eur01.safelinks.protection.outlook.com/?url=https%3A%2F%2Fapp.powerbi.com%2Fview%3Fr%3DeyJrIjoiMDA3OGRhN2UtZjRkNy00N2JmLWE0MjMtZmIyNzFiOTdmMjI3IiwidCI6ImNiMzU2NzgyLWFkOWEtNDdmYi04NzhiLTdlYmNlYjg1Yjg2YyJ9%26pageName%3DReportSection9f6cf5f75b8d2a5569a2%2527%3B&data=05%7C02%7CMatthew.Stephens%40mottmac.com%7C7b8ca85cf5784dba4c6708dd91b36915%7Ca2bed0c459574f73b0c2a811407590fb%7C0%7C0%7C638826923070558277%7CUnknown%7CTWFpbGZsb3d8eyJFbXB0eU1hcGkiOnRydWUsIlYiOiIwLjAuMDAwMCIsIlAiOiJXaW4zMiIsIkFOIjoiTWFpbCIsIldUIjoyfQ%3D%3D%7C0%7C%7C%7C&sdata=sooFJVA%2FgBtL7Mc%2FvNjpwf1xZngWJDMndUxrSSTU05c%3D&reserved=0", "SourceDate": 20250702.0, "Supplier": "TFNSW", "output_gdb_path": "C:\\Users\\bri86955\\Mott MacDonald\\MGO - Moata Geospatial - JBR2HR\\02Data/GDA2020MGA56/Property.gdb", "output_feature_class": "Transport Planning/JBR2HR_PP_TP_CrashData_M260_TFNSW_7856_20250702", "ECMLink_alias": "ECM Objective Link", "FSource_alias": "Feature Source", "SourceDate_alias": "Source Date", "PlanAccur_alias": "Planimetric Accuracy", "Reporting_": 2019, "Crash_ID": 1208124.0, "Degree_of_": "Moderate Injury", "RUM___Code": 67, "RUM___Desc": "Struck animal", "Type_of_Lo": "2-way undivided", "Natural_Li": "Darkness", "Longitude": 150.581374, "Latitude": -35.010437, "Number_kil": 0, "Number_inj": 1, "Ameliorate": "N", "fme_feature_type": "CrashData", "multi_reader_full_id": 0, "multi_reader_id": 0, "multi_reader_keyword": "SHAPEFILE_1", "multi_reader_type": "SHAPEFILE", "shapefile_type": "shapefile_point" }, "geometry": { "type": "Point", "coordinates": [ 150.581374000182905, -35.010437000041193 ] } },
{ "type": "Feature", "properties": { "OBJECTID": 13, "Comments": "Crash data from NSW Centre for Road Safety", "FSource": "https://eur01.safelinks.protection.outlook.com/?url=https%3A%2F%2Fapp.powerbi.com%2Fview%3Fr%3DeyJrIjoiMDA3OGRhN2UtZjRkNy00N2JmLWE0MjMtZmIyNzFiOTdmMjI3IiwidCI6ImNiMzU2NzgyLWFkOWEtNDdmYi04NzhiLTdlYmNlYjg1Yjg2YyJ9%26pageName%3DReportSection9f6cf5f75b8d2a5569a2%2527%3B&data=05%7C02%7CMatthew.Stephens%40mottmac.com%7C7b8ca85cf5784dba4c6708dd91b36915%7Ca2bed0c459574f73b0c2a811407590fb%7C0%7C0%7C638826923070558277%7CUnknown%7CTWFpbGZsb3d8eyJFbXB0eU1hcGkiOnRydWUsIlYiOiIwLjAuMDAwMCIsIlAiOiJXaW4zMiIsIkFOIjoiTWFpbCIsIldUIjoyfQ%3D%3D%7C0%7C%7C%7C&sdata=sooFJVA%2FgBtL7Mc%2FvNjpwf1xZngWJDMndUxrSSTU05c%3D&reserved=0", "SourceDate": 20250702.0, "Supplier": "TFNSW", "output_gdb_path": "C:\\Users\\bri86955\\Mott MacDonald\\MGO - Moata Geospatial - JBR2HR\\02Data/GDA2020MGA56/Property.gdb", "output_feature_class": "Transport Planning/JBR2HR_PP_TP_CrashData_M260_TFNSW_7856_20250702", "ECMLink_alias": "ECM Objective Link", "FSource_alias": "Feature Source", "SourceDate_alias": "Source Date", "PlanAccur_alias": "Planimetric Accuracy", "Reporting_": 2021, "Crash_ID": 1275137.0, "Degree_of_": "Moderate Injury", "RUM___Code": 73, "RUM___Desc": "Off rd rght => obj", "Type_of_Lo": "2-way undivided", "Natural_Li": "Daylight", "Longitude": 150.580799, "Latitude": -35.0131, "Number_kil": 0, "Number_inj": 1, "Ameliorate": "Y", "fme_feature_type": "CrashData", "multi_reader_full_id": 0, "multi_reader_id": 0, "multi_reader_keyword": "SHAPEFILE_1", "multi_reader_type": "SHAPEFILE", "shapefile_type": "shapefile_point" }, "geometry": { "type": "Point", "coordinates": [ 150.580799000457375, -35.013099999998175 ] } },
{ "type": "Feature", "properties": { "OBJECTID": 14, "Comments": "Crash data from NSW Centre for Road Safety", "FSource": "https://eur01.safelinks.protection.outlook.com/?url=https%3A%2F%2Fapp.powerbi.com%2Fview%3Fr%3DeyJrIjoiMDA3OGRhN2UtZjRkNy00N2JmLWE0MjMtZmIyNzFiOTdmMjI3IiwidCI6ImNiMzU2NzgyLWFkOWEtNDdmYi04NzhiLTdlYmNlYjg1Yjg2YyJ9%26pageName%3DReportSection9f6cf5f75b8d2a5569a2%2527%3B&data=05%7C02%7CMatthew.Stephens%40mottmac.com%7C7b8ca85cf5784dba4c6708dd91b36915%7Ca2bed0c459574f73b0c2a811407590fb%7C0%7C0%7C638826923070558277%7CUnknown%7CTWFpbGZsb3d8eyJFbXB0eU1hcGkiOnRydWUsIlYiOiIwLjAuMDAwMCIsIlAiOiJXaW4zMiIsIkFOIjoiTWFpbCIsIldUIjoyfQ%3D%3D%7C0%7C%7C%7C&sdata=sooFJVA%2FgBtL7Mc%2FvNjpwf1xZngWJDMndUxrSSTU05c%3D&reserved=0", "SourceDate": 20250702.0, "Supplier": "TFNSW", "output_gdb_path": "C:\\Users\\bri86955\\Mott MacDonald\\MGO - Moata Geospatial - JBR2HR\\02Data/GDA2020MGA56/Property.gdb", "output_feature_class": "Transport Planning/JBR2HR_PP_TP_CrashData_M260_TFNSW_7856_20250702", "ECMLink_alias": "ECM Objective Link", "FSource_alias": "Feature Source", "SourceDate_alias": "Source Date", "PlanAccur_alias": "Planimetric Accuracy", "Reporting_": 2020, "Crash_ID": 1233864.0, "Degree_of_": "Serious Injury", "RUM___Code": 32, "RUM___Desc": "Right rear", "Type_of_Lo": "T-junction", "Natural_Li": "Daylight", "Longitude": 150.58042, "Latitude": -35.014877, "Number_kil": 0, "Number_inj": 3, "Ameliorate": "Y", "fme_feature_type": "CrashData", "multi_reader_full_id": 0, "multi_reader_id": 0, "multi_reader_keyword": "SHAPEFILE_1", "multi_reader_type": "SHAPEFILE", "shapefile_type": "shapefile_point" }, "geometry": { "type": "Point", "coordinates": [ 150.580419999790081, -35.014876999611417 ] } },
{ "type": "Feature", "properties": { "OBJECTID": 15, "Comments": "Crash data from NSW Centre for Road Safety", "FSource": "https://eur01.safelinks.protection.outlook.com/?url=https%3A%2F%2Fapp.powerbi.com%2Fview%3Fr%3DeyJrIjoiMDA3OGRhN2UtZjRkNy00N2JmLWE0MjMtZmIyNzFiOTdmMjI3IiwidCI6ImNiMzU2NzgyLWFkOWEtNDdmYi04NzhiLTdlYmNlYjg1Yjg2YyJ9%26pageName%3DReportSection9f6cf5f75b8d2a5569a2%2527%3B&data=05%7C02%7CMatthew.Stephens%40mottmac.com%7C7b8ca85cf5784dba4c6708dd91b36915%7Ca2bed0c459574f73b0c2a811407590fb%7C0%7C0%7C638826923070558277%7CUnknown%7CTWFpbGZsb3d8eyJFbXB0eU1hcGkiOnRydWUsIlYiOiIwLjAuMDAwMCIsIlAiOiJXaW4zMiIsIkFOIjoiTWFpbCIsIldUIjoyfQ%3D%3D%7C0%7C%7C%7C&sdata=sooFJVA%2FgBtL7Mc%2FvNjpwf1xZngWJDMndUxrSSTU05c%3D&reserved=0", "SourceDate": 20250702.0, "Supplier": "TFNSW", "output_gdb_path": "C:\\Users\\bri86955\\Mott MacDonald\\MGO - Moata Geospatial - JBR2HR\\02Data/GDA2020MGA56/Property.gdb", "output_feature_class": "Transport Planning/JBR2HR_PP_TP_CrashData_M260_TFNSW_7856_20250702", "ECMLink_alias": "ECM Objective Link", "FSource_alias": "Feature Source", "SourceDate_alias": "Source Date", "PlanAccur_alias": "Planimetric Accuracy", "Reporting_": 2022, "Crash_ID": 1295346.0, "Degree_of_": "Minor/Other Injury", "RUM___Code": 32, "RUM___Desc": "Right rear", "Type_of_Lo": "T-junction", "Natural_Li": "Daylight", "Longitude": 150.58042, "Latitude": -35.014877, "Number_kil": 0, "Number_inj": 1, "Ameliorate": "Y", "fme_feature_type": "CrashData", "multi_reader_full_id": 0, "multi_reader_id": 0, "multi_reader_keyword": "SHAPEFILE_1", "multi_reader_type": "SHAPEFILE", "shapefile_type": "shapefile_point" }, "geometry": { "type": "Point", "coordinates": [ 150.580419999790081, -35.014876999611417 ] } },
{ "type": "Feature", "properties": { "OBJECTID": 16, "Comments": "Crash data from NSW Centre for Road Safety", "FSource": "https://eur01.safelinks.protection.outlook.com/?url=https%3A%2F%2Fapp.powerbi.com%2Fview%3Fr%3DeyJrIjoiMDA3OGRhN2UtZjRkNy00N2JmLWE0MjMtZmIyNzFiOTdmMjI3IiwidCI6ImNiMzU2NzgyLWFkOWEtNDdmYi04NzhiLTdlYmNlYjg1Yjg2YyJ9%26pageName%3DReportSection9f6cf5f75b8d2a5569a2%2527%3B&data=05%7C02%7CMatthew.Stephens%40mottmac.com%7C7b8ca85cf5784dba4c6708dd91b36915%7Ca2bed0c459574f73b0c2a811407590fb%7C0%7C0%7C638826923070558277%7CUnknown%7CTWFpbGZsb3d8eyJFbXB0eU1hcGkiOnRydWUsIlYiOiIwLjAuMDAwMCIsIlAiOiJXaW4zMiIsIkFOIjoiTWFpbCIsIldUIjoyfQ%3D%3D%7C0%7C%7C%7C&sdata=sooFJVA%2FgBtL7Mc%2FvNjpwf1xZngWJDMndUxrSSTU05c%3D&reserved=0", "SourceDate": 20250702.0, "Supplier": "TFNSW", "output_gdb_path": "C:\\Users\\bri86955\\Mott MacDonald\\MGO - Moata Geospatial - JBR2HR\\02Data/GDA2020MGA56/Property.gdb", "output_feature_class": "Transport Planning/JBR2HR_PP_TP_CrashData_M260_TFNSW_7856_20250702", "ECMLink_alias": "ECM Objective Link", "FSource_alias": "Feature Source", "SourceDate_alias": "Source Date", "PlanAccur_alias": "Planimetric Accuracy", "Reporting_": 2019, "Crash_ID": 1201988.0, "Degree_of_": "Serious Injury", "RUM___Code": 74, "RUM___Desc": "On road-out of cont.", "Type_of_Lo": "2-way undivided", "Natural_Li": "Daylight", "Longitude": 150.58021, "Latitude": -35.015879, "Number_kil": 0, "Number_inj": 1, "Ameliorate": "N", "fme_feature_type": "CrashData", "multi_reader_full_id": 0, "multi_reader_id": 0, "multi_reader_keyword": "SHAPEFILE_1", "multi_reader_type": "SHAPEFILE", "shapefile_type": "shapefile_point" }, "geometry": { "type": "Point", "coordinates": [ 150.580210000370784, -35.015878999775218 ] } },
{ "type": "Feature", "properties": { "OBJECTID": 17, "Comments": "Crash data from NSW Centre for Road Safety", "FSource": "https://eur01.safelinks.protection.outlook.com/?url=https%3A%2F%2Fapp.powerbi.com%2Fview%3Fr%3DeyJrIjoiMDA3OGRhN2UtZjRkNy00N2JmLWE0MjMtZmIyNzFiOTdmMjI3IiwidCI6ImNiMzU2NzgyLWFkOWEtNDdmYi04NzhiLTdlYmNlYjg1Yjg2YyJ9%26pageName%3DReportSection9f6cf5f75b8d2a5569a2%2527%3B&data=05%7C02%7CMatthew.Stephens%40mottmac.com%7C7b8ca85cf5784dba4c6708dd91b36915%7Ca2bed0c459574f73b0c2a811407590fb%7C0%7C0%7C638826923070558277%7CUnknown%7CTWFpbGZsb3d8eyJFbXB0eU1hcGkiOnRydWUsIlYiOiIwLjAuMDAwMCIsIlAiOiJXaW4zMiIsIkFOIjoiTWFpbCIsIldUIjoyfQ%3D%3D%7C0%7C%7C%7C&sdata=sooFJVA%2FgBtL7Mc%2FvNjpwf1xZngWJDMndUxrSSTU05c%3D&reserved=0", "SourceDate": 20250702.0, "Supplier": "TFNSW", "output_gdb_path": "C:\\Users\\bri86955\\Mott MacDonald\\MGO - Moata Geospatial - JBR2HR\\02Data/GDA2020MGA56/Property.gdb", "output_feature_class": "Transport Planning/JBR2HR_PP_TP_CrashData_M260_TFNSW_7856_20250702", "ECMLink_alias": "ECM Objective Link", "FSource_alias": "Feature Source", "SourceDate_alias": "Source Date", "PlanAccur_alias": "Planimetric Accuracy", "Reporting_": 2021, "Crash_ID": 1269658.0, "Degree_of_": "Serious Injury", "RUM___Code": 20, "RUM___Desc": "Head on", "Type_of_Lo": "2-way undivided", "Natural_Li": "Daylight", "Longitude": 150.578743, "Latitude": -35.023524, "Number_kil": 0, "Number_inj": 2, "Ameliorate": "Y", "fme_feature_type": "CrashData", "multi_reader_full_id": 0, "multi_reader_id": 0, "multi_reader_keyword": "SHAPEFILE_1", "multi_reader_type": "SHAPEFILE", "shapefile_type": "shapefile_point" }, "geometry": { "type": "Point", "coordinates": [ 150.578743000116219, -35.023523999861219 ] } },
{ "type": "Feature", "properties": { "OBJECTID": 18, "Comments": "Crash data from NSW Centre for Road Safety", "FSource": "https://eur01.safelinks.protection.outlook.com/?url=https%3A%2F%2Fapp.powerbi.com%2Fview%3Fr%3DeyJrIjoiMDA3OGRhN2UtZjRkNy00N2JmLWE0MjMtZmIyNzFiOTdmMjI3IiwidCI6ImNiMzU2NzgyLWFkOWEtNDdmYi04NzhiLTdlYmNlYjg1Yjg2YyJ9%26pageName%3DReportSection9f6cf5f75b8d2a5569a2%2527%3B&data=05%7C02%7CMatthew.Stephens%40mottmac.com%7C7b8ca85cf5784dba4c6708dd91b36915%7Ca2bed0c459574f73b0c2a811407590fb%7C0%7C0%7C638826923070558277%7CUnknown%7CTWFpbGZsb3d8eyJFbXB0eU1hcGkiOnRydWUsIlYiOiIwLjAuMDAwMCIsIlAiOiJXaW4zMiIsIkFOIjoiTWFpbCIsIldUIjoyfQ%3D%3D%7C0%7C%7C%7C&sdata=sooFJVA%2FgBtL7Mc%2FvNjpwf1xZngWJDMndUxrSSTU05c%3D&reserved=0", "SourceDate": 20250702.0, "Supplier": "TFNSW", "output_gdb_path": "C:\\Users\\bri86955\\Mott MacDonald\\MGO - Moata Geospatial - JBR2HR\\02Data/GDA2020MGA56/Property.gdb", "output_feature_class": "Transport Planning/JBR2HR_PP_TP_CrashData_M260_TFNSW_7856_20250702", "ECMLink_alias": "ECM Objective Link", "FSource_alias": "Feature Source", "SourceDate_alias": "Source Date", "PlanAccur_alias": "Planimetric Accuracy", "Reporting_": 2020, "Crash_ID": 1226050.0, "Degree_of_": "Moderate Injury", "RUM___Code": 71, "RUM___Desc": "Off rd left => obj", "Type_of_Lo": "T-junction", "Natural_Li": "Daylight", "Longitude": 150.578532, "Latitude": -35.025177, "Number_kil": 0, "Number_inj": 1, "Ameliorate": "Y", "fme_feature_type": "CrashData", "multi_reader_full_id": 0, "multi_reader_id": 0, "multi_reader_keyword": "SHAPEFILE_1", "multi_reader_type": "SHAPEFILE", "shapefile_type": "shapefile_point" }, "geometry": { "type": "Point", "coordinates": [ 150.578532000386133, -35.025177000328988 ] } },
{ "type": "Feature", "properties": { "OBJECTID": 19, "Comments": "Crash data from NSW Centre for Road Safety", "FSource": "https://eur01.safelinks.protection.outlook.com/?url=https%3A%2F%2Fapp.powerbi.com%2Fview%3Fr%3DeyJrIjoiMDA3OGRhN2UtZjRkNy00N2JmLWE0MjMtZmIyNzFiOTdmMjI3IiwidCI6ImNiMzU2NzgyLWFkOWEtNDdmYi04NzhiLTdlYmNlYjg1Yjg2YyJ9%26pageName%3DReportSection9f6cf5f75b8d2a5569a2%2527%3B&data=05%7C02%7CMatthew.Stephens%40mottmac.com%7C7b8ca85cf5784dba4c6708dd91b36915%7Ca2bed0c459574f73b0c2a811407590fb%7C0%7C0%7C638826923070558277%7CUnknown%7CTWFpbGZsb3d8eyJFbXB0eU1hcGkiOnRydWUsIlYiOiIwLjAuMDAwMCIsIlAiOiJXaW4zMiIsIkFOIjoiTWFpbCIsIldUIjoyfQ%3D%3D%7C0%7C%7C%7C&sdata=sooFJVA%2FgBtL7Mc%2FvNjpwf1xZngWJDMndUxrSSTU05c%3D&reserved=0", "SourceDate": 20250702.0, "Supplier": "TFNSW", "output_gdb_path": "C:\\Users\\bri86955\\Mott MacDonald\\MGO - Moata Geospatial - JBR2HR\\02Data/GDA2020MGA56/Property.gdb", "output_feature_class": "Transport Planning/JBR2HR_PP_TP_CrashData_M260_TFNSW_7856_20250702", "ECMLink_alias": "ECM Objective Link", "FSource_alias": "Feature Source", "SourceDate_alias": "Source Date", "PlanAccur_alias": "Planimetric Accuracy", "Reporting_": 2021, "Crash_ID": 1253490.0, "Degree_of_": "Moderate Injury", "RUM___Code": 21, "RUM___Desc": "Right through", "Type_of_Lo": "T-junction", "Natural_Li": "Daylight", "Longitude": 150.578532, "Latitude": -35.025177, "Number_kil": 0, "Number_inj": 1, "Ameliorate": "Y", "fme_feature_type": "CrashData", "multi_reader_full_id": 0, "multi_reader_id": 0, "multi_reader_keyword": "SHAPEFILE_1", "multi_reader_type": "SHAPEFILE", "shapefile_type": "shapefile_point" }, "geometry": { "type": "Point", "coordinates": [ 150.578532000386133, -35.025177000328988 ] } },
{ "type": "Feature", "properties": { "OBJECTID": 20, "Comments": "Crash data from NSW Centre for Road Safety", "FSource": "https://eur01.safelinks.protection.outlook.com/?url=https%3A%2F%2Fapp.powerbi.com%2Fview%3Fr%3DeyJrIjoiMDA3OGRhN2UtZjRkNy00N2JmLWE0MjMtZmIyNzFiOTdmMjI3IiwidCI6ImNiMzU2NzgyLWFkOWEtNDdmYi04NzhiLTdlYmNlYjg1Yjg2YyJ9%26pageName%3DReportSection9f6cf5f75b8d2a5569a2%2527%3B&data=05%7C02%7CMatthew.Stephens%40mottmac.com%7C7b8ca85cf5784dba4c6708dd91b36915%7Ca2bed0c459574f73b0c2a811407590fb%7C0%7C0%7C638826923070558277%7CUnknown%7CTWFpbGZsb3d8eyJFbXB0eU1hcGkiOnRydWUsIlYiOiIwLjAuMDAwMCIsIlAiOiJXaW4zMiIsIkFOIjoiTWFpbCIsIldUIjoyfQ%3D%3D%7C0%7C%7C%7C&sdata=sooFJVA%2FgBtL7Mc%2FvNjpwf1xZngWJDMndUxrSSTU05c%3D&reserved=0", "SourceDate": 20250702.0, "Supplier": "TFNSW", "output_gdb_path": "C:\\Users\\bri86955\\Mott MacDonald\\MGO - Moata Geospatial - JBR2HR\\02Data/GDA2020MGA56/Property.gdb", "output_feature_class": "Transport Planning/JBR2HR_PP_TP_CrashData_M260_TFNSW_7856_20250702", "ECMLink_alias": "ECM Objective Link", "FSource_alias": "Feature Source", "SourceDate_alias": "Source Date", "PlanAccur_alias": "Planimetric Accuracy", "Reporting_": 2023, "Crash_ID": 1319144.0, "Degree_of_": "Serious Injury", "RUM___Code": 11, "RUM___Desc": "Right far", "Type_of_Lo": "T-junction", "Natural_Li": "Daylight", "Longitude": 150.578532, "Latitude": -35.025177, "Number_kil": 0, "Number_inj": 1, "Ameliorate": "Y", "fme_feature_type": "CrashData", "multi_reader_full_id": 0, "multi_reader_id": 0, "multi_reader_keyword": "SHAPEFILE_1", "multi_reader_type": "SHAPEFILE", "shapefile_type": "shapefile_point" }, "geometry": { "type": "Point", "coordinates": [ 150.578532000386133, -35.025177000328988 ] } },
{ "type": "Feature", "properties": { "OBJECTID": 21, "Comments": "Crash data from NSW Centre for Road Safety", "FSource": "https://eur01.safelinks.protection.outlook.com/?url=https%3A%2F%2Fapp.powerbi.com%2Fview%3Fr%3DeyJrIjoiMDA3OGRhN2UtZjRkNy00N2JmLWE0MjMtZmIyNzFiOTdmMjI3IiwidCI6ImNiMzU2NzgyLWFkOWEtNDdmYi04NzhiLTdlYmNlYjg1Yjg2YyJ9%26pageName%3DReportSection9f6cf5f75b8d2a5569a2%2527%3B&data=05%7C02%7CMatthew.Stephens%40mottmac.com%7C7b8ca85cf5784dba4c6708dd91b36915%7Ca2bed0c459574f73b0c2a811407590fb%7C0%7C0%7C638826923070558277%7CUnknown%7CTWFpbGZsb3d8eyJFbXB0eU1hcGkiOnRydWUsIlYiOiIwLjAuMDAwMCIsIlAiOiJXaW4zMiIsIkFOIjoiTWFpbCIsIldUIjoyfQ%3D%3D%7C0%7C%7C%7C&sdata=sooFJVA%2FgBtL7Mc%2FvNjpwf1xZngWJDMndUxrSSTU05c%3D&reserved=0", "SourceDate": 20250702.0, "Supplier": "TFNSW", "output_gdb_path": "C:\\Users\\bri86955\\Mott MacDonald\\MGO - Moata Geospatial - JBR2HR\\02Data/GDA2020MGA56/Property.gdb", "output_feature_class": "Transport Planning/JBR2HR_PP_TP_CrashData_M260_TFNSW_7856_20250702", "ECMLink_alias": "ECM Objective Link", "FSource_alias": "Feature Source", "SourceDate_alias": "Source Date", "PlanAccur_alias": "Planimetric Accuracy", "Reporting_": 2020, "Crash_ID": 1239561.0, "Degree_of_": "Non-casualty (towaway)", "RUM___Code": 87, "RUM___Desc": "Off lft/lft bnd=>obj", "Type_of_Lo": "T-junction", "Natural_Li": "Daylight", "Longitude": 150.578528, "Latitude": -35.025267, "Number_kil": 0, "Number_inj": 0, "Ameliorate": "Y", "fme_feature_type": "CrashData", "multi_reader_full_id": 0, "multi_reader_id": 0, "multi_reader_keyword": "SHAPEFILE_1", "multi_reader_type": "SHAPEFILE", "shapefile_type": "shapefile_point" }, "geometry": { "type": "Point", "coordinates": [ 150.578528000327282, -35.025267000108123 ] } }
]
}
