{
"type": "FeatureCollection",
"name": "JBR2HR_LILO intersections",
"crs": { "type": "name", "properties": { "name": "urn:ogc:def:crs:OGC:1.3:CRS84" } },
"xy_coordinate_resolution": 1e-15,
"features": [
{ "type": "Feature", "properties": { }, "geometry": { "type": "MultiPolygon", "coordinates": [ [ [ [ 150.580504849308028, -35.015019379497183 ], [ 150.580504775292098, -35.015024091111044 ], [ 150.580504553317297, -35.015028798075114 ], [ 150.580504183602727, -35.015033495744177 ], [ 150.580503666513238, -35.015038179482218 ], [ 150.580503002559112, -35.015042844666937 ], [ 150.580502192395642, -35.015047486694371 ], [ 150.580501236822329, -35.015052100983389 ], [ 150.580500136782206, -35.015056682980259 ], [ 150.580498893360897, -35.015061228163091 ], [ 150.580497507785481, -35.015065732046338 ], [ 150.580495981423383, -35.01507019018522 ], [ 150.580494315780925, -35.015074598180085 ], [ 150.580492512501877, -35.015078951680778 ], [ 150.580490573365921, -35.015083246390915 ], [ 150.580488500286663, -35.015087478072147 ], [ 150.580486295310038, -35.015091642548299 ], [ 150.580483960612099, -35.015095735709544 ], [ 150.580481498496852, -35.015099753516431 ], [ 150.580478911394181, -35.015103692003862 ], [ 150.580476201857181, -35.015107547285027 ], [ 150.580473372559879, -35.015111315555231 ], [ 150.580470426294454, -35.015114993095644 ], [ 150.580467365968474, -35.015118576276983 ], [ 150.580464194602143, -35.015122061563069 ], [ 150.580460915325204, -35.015125445514357 ], [ 150.580457531373924, -35.015128724791296 ], [ 150.580454046087823, -35.015131896157627 ], [ 150.580450462906498, -35.0151349564836 ], [ 150.580446785366092, -35.015137902749039 ], [ 150.580443017095888, -35.015140732046341 ], [ 150.580439161814724, -35.015143441583326 ], [ 150.580435223327271, -35.015146028686011 ], [ 150.580431205520398, -35.015148490801231 ], [ 150.58042711235916, -35.015150825499191 ], [ 150.580422947882994, -35.015153030475808 ], [ 150.580418716201763, -35.015155103555053 ], [ 150.580414421491639, -35.015157042691037 ], [ 150.580410067990954, -35.015158845970063 ], [ 150.580405659996075, -35.015160511612528 ], [ 150.5804012018572, -35.015162037974626 ], [ 150.580396697973953, -35.015163423550035 ], [ 150.58039215279112, -35.015164666971351 ], [ 150.580387570794244, -35.015165767011474 ], [ 150.580382956505218, -35.015166722584794 ], [ 150.580378314477798, -35.015167532748272 ], [ 150.58037364929308, -35.015168196702383 ], [ 150.580368965555039, -35.015168713791873 ], [ 150.580364267885955, -35.01516908350645 ], [ 150.580359560921892, -35.015169305481237 ], [ 150.580354849308037, -35.015169379497181 ], [ 150.580350137694182, -35.015169305481237 ], [ 150.580345430730119, -35.01516908350645 ], [ 150.580340733061036, -35.015168713791873 ], [ 150.580336049322995, -35.015168196702383 ], [ 150.580331384138276, -35.015167532748272 ], [ 150.580326742110856, -35.015166722584794 ], [ 150.58032212782183, -35.015165767011474 ], [ 150.580317545824954, -35.015164666971351 ], [ 150.580313000642121, -35.015163423550035 ], [ 150.580308496758875, -35.015162037974626 ], [ 150.58030403862, -35.015160511612528 ], [ 150.58029963062512, -35.015158845970063 ], [ 150.580295277124435, -35.015157042691037 ], [ 150.580290982414311, -35.015155103555053 ], [ 150.58028675073308, -35.015153030475808 ], [ 150.580282586256914, -35.015150825499191 ], [ 150.580278493095676, -35.015148490801231 ], [ 150.580274475288803, -35.015146028686011 ], [ 150.580270536801351, -35.015143441583326 ], [ 150.580266681520186, -35.015140732046341 ], [ 150.580262913249982, -35.015137902749039 ], [ 150.580259235709576, -35.0151349564836 ], [ 150.580255652528251, -35.015131896157627 ], [ 150.580252167242151, -35.015128724791296 ], [ 150.58024878329087, -35.015125445514357 ], [ 150.580245504013931, -35.015122061563069 ], [ 150.5802423326476, -35.015118576276983 ], [ 150.58023927232162, -35.015114993095644 ], [ 150.580236326056195, -35.015111315555231 ], [ 150.580233496758893, -35.015107547285027 ], [ 150.580230787221893, -35.015103692003862 ], [ 150.580228200119222, -35.015099753516431 ], [ 150.580225738003975, -35.015095735709544 ], [ 150.580223403306036, -35.015091642548299 ], [ 150.580221198329411, -35.015087478072147 ], [ 150.580219125250153, -35.015083246390915 ], [ 150.580217186114197, -35.015078951680778 ], [ 150.580215382835149, -35.015074598180085 ], [ 150.580213717192692, -35.01507019018522 ], [ 150.580212190830593, -35.015065732046338 ], [ 150.580210805255177, -35.015061228163091 ], [ 150.580209561833868, -35.015056682980259 ], [ 150.580208461793745, -35.015052100983389 ], [ 150.580207506220432, -35.015047486694371 ], [ 150.580206696056962, -35.015042844666937 ], [ 150.580206032102836, -35.015038179482218 ], [ 150.580205515013347, -35.015033495744177 ], [ 150.580205145298777, -35.015028798075114 ], [ 150.580204923323976, -35.015024091111044 ], [ 150.580204849308046, -35.015019379497183 ], [ 150.580204923323976, -35.015014667883321 ], [ 150.580205145298777, -35.015009960919251 ], [ 150.580205515013347, -35.015005263250188 ], [ 150.580206032102836, -35.015000579512147 ], [ 150.580206696056962, -35.014995914327429 ], [ 150.580207506220432, -35.014991272299994 ], [ 150.580208461793745, -35.014986658010976 ], [ 150.580209561833868, -35.014982076014107 ], [ 150.580210805255177, -35.014977530831274 ], [ 150.580212190830593, -35.014973026948027 ], [ 150.580213717192692, -35.014968568809145 ], [ 150.580215382835149, -35.01496416081428 ], [ 150.580217186114197, -35.014959807313588 ], [ 150.580219125250153, -35.01495551260345 ], [ 150.580221198329411, -35.014951280922219 ], [ 150.580223403306036, -35.014947116446066 ], [ 150.580225738003975, -35.014943023284822 ], [ 150.580228200119222, -35.014939005477935 ], [ 150.580230787221893, -35.014935066990503 ], [ 150.580233496758893, -35.014931211709339 ], [ 150.580236326056195, -35.014927443439134 ], [ 150.58023927232162, -35.014923765898722 ], [ 150.5802423326476, -35.014920182717383 ], [ 150.580245504013931, -35.014916697431296 ], [ 150.58024878329087, -35.014913313480008 ], [ 150.580252167242151, -35.014910034203069 ], [ 150.580255652528251, -35.014906862836739 ], [ 150.580259235709576, -35.014903802510766 ], [ 150.580262913249982, -35.014900856245326 ], [ 150.580266681520186, -35.014898026948025 ], [ 150.580270536801351, -35.014895317411039 ], [ 150.580274475288803, -35.014892730308354 ], [ 150.580278493095676, -35.014890268193135 ], [ 150.580282586256914, -35.014887933495174 ], [ 150.58028675073308, -35.014885728518557 ], [ 150.580290982414311, -35.014883655439313 ], [ 150.580295277124435, -35.014881716303329 ], [ 150.58029963062512, -35.014879913024302 ], [ 150.58030403862, -35.014878247381837 ], [ 150.580308496758875, -35.014876721019739 ], [ 150.580313000642121, -35.01487533544433 ], [ 150.580317545824954, -35.014874092023014 ], [ 150.58032212782183, -35.014872991982891 ], [ 150.580326742110856, -35.014872036409571 ], [ 150.580331384138276, -35.014871226246093 ], [ 150.580336049322995, -35.014870562291982 ], [ 150.580340733061036, -35.014870045202493 ], [ 150.580345430730119, -35.014869675487915 ], [ 150.580350137694182, -35.014869453513128 ], [ 150.580354849308037, -35.014869379497185 ], [ 150.580359560921892, -35.014869453513128 ], [ 150.580364267885955, -35.014869675487915 ], [ 150.580368965555039, -35.014870045202493 ], [ 150.58037364929308, -35.014870562291982 ], [ 150.580378314477798, -35.014871226246093 ], [ 150.580382956505218, -35.014872036409571 ], [ 150.580387570794244, -35.014872991982891 ], [ 150.58039215279112, -35.014874092023014 ], [ 150.580396697973953, -35.01487533544433 ], [ 150.5804012018572, -35.014876721019739 ], [ 150.580405659996075, -35.014878247381837 ], [ 150.580410067990954, -35.014879913024302 ], [ 150.580414421491639, -35.014881716303329 ], [ 150.580418716201763, -35.014883655439313 ], [ 150.580422947882994, -35.014885728518557 ], [ 150.58042711235916, -35.014887933495174 ], [ 150.580431205520398, -35.014890268193135 ], [ 150.580435223327271, -35.014892730308354 ], [ 150.580439161814724, -35.014895317411039 ], [ 150.580443017095888, -35.014898026948025 ], [ 150.580446785366092, -35.014900856245326 ], [ 150.580450462906498, -35.014903802510766 ], [ 150.580454046087823, -35.014906862836739 ], [ 150.580457531373924, -35.014910034203069 ], [ 150.580460915325204, -35.014913313480008 ], [ 150.580464194602143, -35.014916697431296 ], [ 150.580467365968474, -35.014920182717383 ], [ 150.580470426294454, -35.014923765898722 ], [ 150.580473372559879, -35.014927443439134 ], [ 150.580476201857181, -35.014931211709339 ], [ 150.580478911394181, -35.014935066990503 ], [ 150.580481498496852, -35.014939005477935 ], [ 150.580483960612099, -35.014943023284822 ], [ 150.580486295310038, -35.014947116446066 ], [ 150.580488500286663, -35.014951280922219 ], [ 150.580490573365921, -35.01495551260345 ], [ 150.580492512501877, -35.014959807313588 ], [ 150.580494315780925, -35.01496416081428 ], [ 150.580495981423383, -35.014968568809145 ], [ 150.580497507785481, -35.014973026948027 ], [ 150.580498893360897, -35.014977530831274 ], [ 150.580500136782206, -35.014982076014107 ], [ 150.580501236822329, -35.014986658010976 ], [ 150.580502192395642, -35.014991272299994 ], [ 150.580503002559112, -35.014995914327429 ], [ 150.580503666513238, -35.015000579512147 ], [ 150.580504183602727, -35.015005263250188 ], [ 150.580504553317297, -35.015009960919251 ], [ 150.580504775292098, -35.015014667883321 ], [ 150.580504849308028, -35.015019379497183 ] ] ] ] } },
{ "type": "Feature", "properties": { }, "geometry": { "type": "MultiPolygon", "coordinates": [ [ [ [ 150.58079060209127, -35.014890681692329 ], [ 150.58079052807534, -35.01489539330619 ], [ 150.580790306100539, -35.01490010027026 ], [ 150.580789936385969, -35.014904797939323 ], [ 150.58078941929648, -35.014909481677364 ], [ 150.580788755342354, -35.014914146862083 ], [ 150.580787945178884, -35.014918788889517 ], [ 150.580786989605571, -35.014923403178535 ], [ 150.580785889565448, -35.014927985175405 ], [ 150.580784646144139, -35.014932530358237 ], [ 150.580783260568722, -35.014937034241484 ], [ 150.580781734206624, -35.014941492380366 ], [ 150.580780068564167, -35.014945900375231 ], [ 150.580778265285119, -35.014950253875924 ], [ 150.580776326149163, -35.014954548586061 ], [ 150.580774253069904, -35.014958780267293 ], [ 150.58077204809328, -35.014962944743445 ], [ 150.580769713395341, -35.01496703790469 ], [ 150.580767251280093, -35.014971055711577 ], [ 150.580764664177423, -35.014974994199008 ], [ 150.580761954640423, -35.014978849480173 ], [ 150.580759125343121, -35.014982617750377 ], [ 150.580756179077696, -35.01498629529079 ], [ 150.580753118751716, -35.014989878472129 ], [ 150.580749947385385, -35.014993363758215 ], [ 150.580746668108446, -35.014996747709503 ], [ 150.580743284157165, -35.015000026986442 ], [ 150.580739798871065, -35.015003198352773 ], [ 150.58073621568974, -35.015006258678746 ], [ 150.580732538149334, -35.015009204944185 ], [ 150.58072876987913, -35.015012034241487 ], [ 150.580724914597965, -35.015014743778472 ], [ 150.580720976110513, -35.015017330881157 ], [ 150.58071695830364, -35.015019792996377 ], [ 150.580712865142402, -35.015022127694337 ], [ 150.580708700666236, -35.015024332670954 ], [ 150.580704468985004, -35.015026405750199 ], [ 150.580700174274881, -35.015028344886183 ], [ 150.580695820774196, -35.015030148165209 ], [ 150.580691412779316, -35.015031813807674 ], [ 150.580686954640441, -35.015033340169772 ], [ 150.580682450757195, -35.015034725745181 ], [ 150.580677905574362, -35.015035969166497 ], [ 150.580673323577486, -35.01503706920662 ], [ 150.58066870928846, -35.01503802477994 ], [ 150.58066406726104, -35.015038834943418 ], [ 150.580659402076321, -35.015039498897529 ], [ 150.58065471833828, -35.015040015987019 ], [ 150.580650020669196, -35.015040385701596 ], [ 150.580645313705134, -35.015040607676383 ], [ 150.580640602091279, -35.015040681692327 ], [ 150.580635890477424, -35.015040607676383 ], [ 150.580631183513361, -35.015040385701596 ], [ 150.580626485844277, -35.015040015987019 ], [ 150.580621802106236, -35.015039498897529 ], [ 150.580617136921518, -35.015038834943418 ], [ 150.580612494894098, -35.01503802477994 ], [ 150.580607880605072, -35.01503706920662 ], [ 150.580603298608196, -35.015035969166497 ], [ 150.580598753425363, -35.015034725745181 ], [ 150.580594249542116, -35.015033340169772 ], [ 150.580589791403241, -35.015031813807674 ], [ 150.580585383408362, -35.015030148165209 ], [ 150.580581029907677, -35.015028344886183 ], [ 150.580576735197553, -35.015026405750199 ], [ 150.580572503516322, -35.015024332670954 ], [ 150.580568339040155, -35.015022127694337 ], [ 150.580564245878918, -35.015019792996377 ], [ 150.580560228072045, -35.015017330881157 ], [ 150.580556289584592, -35.015014743778472 ], [ 150.580552434303428, -35.015012034241487 ], [ 150.580548666033224, -35.015009204944185 ], [ 150.580544988492818, -35.015006258678746 ], [ 150.580541405311493, -35.015003198352773 ], [ 150.580537920025392, -35.015000026986442 ], [ 150.580534536074111, -35.014996747709503 ], [ 150.580531256797173, -35.014993363758215 ], [ 150.580528085430842, -35.014989878472129 ], [ 150.580525025104862, -35.01498629529079 ], [ 150.580522078839437, -35.014982617750377 ], [ 150.580519249542135, -35.014978849480173 ], [ 150.580516540005135, -35.014974994199008 ], [ 150.580513952902464, -35.014971055711577 ], [ 150.580511490787217, -35.01496703790469 ], [ 150.580509156089278, -35.014962944743445 ], [ 150.580506951112653, -35.014958780267293 ], [ 150.580504878033395, -35.014954548586061 ], [ 150.580502938897439, -35.014950253875924 ], [ 150.580501135618391, -35.014945900375231 ], [ 150.580499469975933, -35.014941492380366 ], [ 150.580497943613835, -35.014937034241484 ], [ 150.580496558038419, -35.014932530358237 ], [ 150.58049531461711, -35.014927985175405 ], [ 150.580494214576987, -35.014923403178535 ], [ 150.580493259003674, -35.014918788889517 ], [ 150.580492448840204, -35.014914146862083 ], [ 150.580491784886078, -35.014909481677364 ], [ 150.580491267796589, -35.014904797939323 ], [ 150.580490898082019, -35.01490010027026 ], [ 150.580490676107217, -35.01489539330619 ], [ 150.580490602091288, -35.014890681692329 ], [ 150.580490676107217, -35.014885970078467 ], [ 150.580490898082019, -35.014881263114397 ], [ 150.580491267796589, -35.014876565445334 ], [ 150.580491784886078, -35.014871881707293 ], [ 150.580492448840204, -35.014867216522575 ], [ 150.580493259003674, -35.01486257449514 ], [ 150.580494214576987, -35.014857960206122 ], [ 150.58049531461711, -35.014853378209253 ], [ 150.580496558038419, -35.01484883302642 ], [ 150.580497943613835, -35.014844329143173 ], [ 150.580499469975933, -35.014839871004291 ], [ 150.580501135618391, -35.014835463009426 ], [ 150.580502938897439, -35.014831109508734 ], [ 150.580504878033395, -35.014826814798596 ], [ 150.580506951112653, -35.014822583117365 ], [ 150.580509156089278, -35.014818418641212 ], [ 150.580511490787217, -35.014814325479968 ], [ 150.580513952902464, -35.014810307673081 ], [ 150.580516540005135, -35.014806369185649 ], [ 150.580519249542135, -35.014802513904485 ], [ 150.580522078839437, -35.01479874563428 ], [ 150.580525025104862, -35.014795068093868 ], [ 150.580528085430842, -35.014791484912529 ], [ 150.580531256797173, -35.014787999626442 ], [ 150.580534536074111, -35.014784615675154 ], [ 150.580537920025392, -35.014781336398215 ], [ 150.580541405311493, -35.014778165031885 ], [ 150.580544988492818, -35.014775104705912 ], [ 150.580548666033224, -35.014772158440472 ], [ 150.580552434303428, -35.014769329143171 ], [ 150.580556289584592, -35.014766619606185 ], [ 150.580560228072045, -35.0147640325035 ], [ 150.580564245878918, -35.014761570388281 ], [ 150.580568339040155, -35.01475923569032 ], [ 150.580572503516322, -35.014757030713703 ], [ 150.580576735197553, -35.014754957634459 ], [ 150.580581029907677, -35.014753018498475 ], [ 150.580585383408362, -35.014751215219448 ], [ 150.580589791403241, -35.014749549576983 ], [ 150.580594249542116, -35.014748023214885 ], [ 150.580598753425363, -35.014746637639476 ], [ 150.580603298608196, -35.01474539421816 ], [ 150.580607880605072, -35.014744294178037 ], [ 150.580612494894098, -35.014743338604717 ], [ 150.580617136921518, -35.014742528441239 ], [ 150.580621802106236, -35.014741864487128 ], [ 150.580626485844277, -35.014741347397639 ], [ 150.580631183513361, -35.014740977683061 ], [ 150.580635890477424, -35.014740755708274 ], [ 150.580640602091279, -35.014740681692331 ], [ 150.580645313705134, -35.014740755708274 ], [ 150.580650020669196, -35.014740977683061 ], [ 150.58065471833828, -35.014741347397639 ], [ 150.580659402076321, -35.014741864487128 ], [ 150.58066406726104, -35.014742528441239 ], [ 150.58066870928846, -35.014743338604717 ], [ 150.580673323577486, -35.014744294178037 ], [ 150.580677905574362, -35.01474539421816 ], [ 150.580682450757195, -35.014746637639476 ], [ 150.580686954640441, -35.014748023214885 ], [ 150.580691412779316, -35.014749549576983 ], [ 150.580695820774196, -35.014751215219448 ], [ 150.580700174274881, -35.014753018498475 ], [ 150.580704468985004, -35.014754957634459 ], [ 150.580708700666236, -35.014757030713703 ], [ 150.580712865142402, -35.01475923569032 ], [ 150.58071695830364, -35.014761570388281 ], [ 150.580720976110513, -35.0147640325035 ], [ 150.580724914597965, -35.014766619606185 ], [ 150.58072876987913, -35.014769329143171 ], [ 150.580732538149334, -35.014772158440472 ], [ 150.58073621568974, -35.014775104705912 ], [ 150.580739798871065, -35.014778165031885 ], [ 150.580743284157165, -35.014781336398215 ], [ 150.580746668108446, -35.014784615675154 ], [ 150.580749947385385, -35.014787999626442 ], [ 150.580753118751716, -35.014791484912529 ], [ 150.580756179077696, -35.014795068093868 ], [ 150.580759125343121, -35.01479874563428 ], [ 150.580761954640423, -35.014802513904485 ], [ 150.580764664177423, -35.014806369185649 ], [ 150.580767251280093, -35.014810307673081 ], [ 150.580769713395341, -35.014814325479968 ], [ 150.58077204809328, -35.014818418641212 ], [ 150.580774253069904, -35.014822583117365 ], [ 150.580776326149163, -35.014826814798596 ], [ 150.580778265285119, -35.014831109508734 ], [ 150.580780068564167, -35.014835463009426 ], [ 150.580781734206624, -35.014839871004291 ], [ 150.580783260568722, -35.014844329143173 ], [ 150.580784646144139, -35.01484883302642 ], [ 150.580785889565448, -35.014853378209253 ], [ 150.580786989605571, -35.014857960206122 ], [ 150.580787945178884, -35.01486257449514 ], [ 150.580788755342354, -35.014867216522575 ], [ 150.58078941929648, -35.014871881707293 ], [ 150.580789936385969, -35.014876565445334 ], [ 150.580790306100539, -35.014881263114397 ], [ 150.58079052807534, -35.014885970078467 ], [ 150.58079060209127, -35.014890681692329 ] ] ] ] } },
{ "type": "Feature", "properties": { }, "geometry": { "type": "MultiPolygon", "coordinates": [ [ [ [ 150.583379829359814, -35.001308698136214 ], [ 150.583379755343884, -35.001313409750075 ], [ 150.583379533369083, -35.001318116714145 ], [ 150.583379163654513, -35.001322814383208 ], [ 150.583378646565023, -35.001327498121249 ], [ 150.583377982610898, -35.001332163305968 ], [ 150.583377172447427, -35.001336805333402 ], [ 150.583376216874115, -35.00134141962242 ], [ 150.583375116833992, -35.001346001619289 ], [ 150.583373873412683, -35.001350546802122 ], [ 150.583372487837266, -35.001355050685369 ], [ 150.583370961475168, -35.001359508824251 ], [ 150.583369295832711, -35.001363916819116 ], [ 150.583367492553663, -35.001368270319809 ], [ 150.583365553417707, -35.001372565029946 ], [ 150.583363480338448, -35.001376796711178 ], [ 150.583361275361824, -35.00138096118733 ], [ 150.583358940663885, -35.001385054348574 ], [ 150.583356478548637, -35.001389072155462 ], [ 150.583353891445967, -35.001393010642893 ], [ 150.583351181908967, -35.001396865924058 ], [ 150.583348352611665, -35.001400634194262 ], [ 150.58334540634624, -35.001404311734674 ], [ 150.58334234602026, -35.001407894916014 ], [ 150.583339174653929, -35.0014113802021 ], [ 150.58333589537699, -35.001414764153388 ], [ 150.583332511425709, -35.001418043430327 ], [ 150.583329026139609, -35.001421214796657 ], [ 150.583325442958284, -35.001424275122631 ], [ 150.583321765417878, -35.00142722138807 ], [ 150.583317997147674, -35.001430050685371 ], [ 150.583314141866509, -35.001432760222357 ], [ 150.583310203379057, -35.001435347325042 ], [ 150.583306185572184, -35.001437809440262 ], [ 150.583302092410946, -35.001440144138222 ], [ 150.58329792793478, -35.001442349114839 ], [ 150.583293696253548, -35.001444422194083 ], [ 150.583289401543425, -35.001446361330068 ], [ 150.58328504804274, -35.001448164609094 ], [ 150.58328064004786, -35.001449830251559 ], [ 150.583276181908985, -35.001451356613657 ], [ 150.583271678025739, -35.001452742189066 ], [ 150.583267132842906, -35.001453985610382 ], [ 150.58326255084603, -35.001455085650505 ], [ 150.583257936557004, -35.001456041223825 ], [ 150.583253294529584, -35.001456851387303 ], [ 150.583248629344865, -35.001457515341414 ], [ 150.583243945606824, -35.001458032430904 ], [ 150.58323924793774, -35.001458402145481 ], [ 150.583234540973677, -35.001458624120268 ], [ 150.583229829359823, -35.001458698136211 ], [ 150.583225117745968, -35.001458624120268 ], [ 150.583220410781905, -35.001458402145481 ], [ 150.583215713112821, -35.001458032430904 ], [ 150.58321102937478, -35.001457515341414 ], [ 150.583206364190062, -35.001456851387303 ], [ 150.583201722162642, -35.001456041223825 ], [ 150.583197107873616, -35.001455085650505 ], [ 150.58319252587674, -35.001453985610382 ], [ 150.583187980693907, -35.001452742189066 ], [ 150.58318347681066, -35.001451356613657 ], [ 150.583179018671785, -35.001449830251559 ], [ 150.583174610676906, -35.001448164609094 ], [ 150.583170257176221, -35.001446361330068 ], [ 150.583165962466097, -35.001444422194083 ], [ 150.583161730784866, -35.001442349114839 ], [ 150.583157566308699, -35.001440144138222 ], [ 150.583153473147462, -35.001437809440262 ], [ 150.583149455340589, -35.001435347325042 ], [ 150.583145516853136, -35.001432760222357 ], [ 150.583141661571972, -35.001430050685371 ], [ 150.583137893301767, -35.00142722138807 ], [ 150.583134215761362, -35.001424275122631 ], [ 150.583130632580037, -35.001421214796657 ], [ 150.583127147293936, -35.001418043430327 ], [ 150.583123763342655, -35.001414764153388 ], [ 150.583120484065716, -35.0014113802021 ], [ 150.583117312699386, -35.001407894916014 ], [ 150.583114252373406, -35.001404311734674 ], [ 150.58311130610798, -35.001400634194262 ], [ 150.583108476810679, -35.001396865924058 ], [ 150.583105767273679, -35.001393010642893 ], [ 150.583103180171008, -35.001389072155462 ], [ 150.583100718055761, -35.001385054348574 ], [ 150.583098383357822, -35.00138096118733 ], [ 150.583096178381197, -35.001376796711178 ], [ 150.583094105301939, -35.001372565029946 ], [ 150.583092166165983, -35.001368270319809 ], [ 150.583090362886935, -35.001363916819116 ], [ 150.583088697244477, -35.001359508824251 ], [ 150.583087170882379, -35.001355050685369 ], [ 150.583085785306963, -35.001350546802122 ], [ 150.583084541885654, -35.001346001619289 ], [ 150.583083441845531, -35.00134141962242 ], [ 150.583082486272218, -35.001336805333402 ], [ 150.583081676108748, -35.001332163305968 ], [ 150.583081012154622, -35.001327498121249 ], [ 150.583080495065133, -35.001322814383208 ], [ 150.583080125350563, -35.001318116714145 ], [ 150.583079903375761, -35.001313409750075 ], [ 150.583079829359832, -35.001308698136214 ], [ 150.583079903375761, -35.001303986522352 ], [ 150.583080125350563, -35.001299279558282 ], [ 150.583080495065133, -35.001294581889219 ], [ 150.583081012154622, -35.001289898151178 ], [ 150.583081676108748, -35.00128523296646 ], [ 150.583082486272218, -35.001280590939025 ], [ 150.583083441845531, -35.001275976650007 ], [ 150.583084541885654, -35.001271394653138 ], [ 150.583085785306963, -35.001266849470305 ], [ 150.583087170882379, -35.001262345587058 ], [ 150.583088697244477, -35.001257887448176 ], [ 150.583090362886935, -35.001253479453311 ], [ 150.583092166165983, -35.001249125952619 ], [ 150.583094105301939, -35.001244831242481 ], [ 150.583096178381197, -35.00124059956125 ], [ 150.583098383357822, -35.001236435085097 ], [ 150.583100718055761, -35.001232341923853 ], [ 150.583103180171008, -35.001228324116965 ], [ 150.583105767273679, -35.001224385629534 ], [ 150.583108476810679, -35.00122053034837 ], [ 150.58311130610798, -35.001216762078165 ], [ 150.583114252373406, -35.001213084537753 ], [ 150.583117312699386, -35.001209501356414 ], [ 150.583120484065716, -35.001206016070327 ], [ 150.583123763342655, -35.001202632119039 ], [ 150.583127147293936, -35.0011993528421 ], [ 150.583130632580037, -35.00119618147577 ], [ 150.583134215761362, -35.001193121149797 ], [ 150.583137893301767, -35.001190174884357 ], [ 150.583141661571972, -35.001187345587056 ], [ 150.583145516853136, -35.00118463605007 ], [ 150.583149455340589, -35.001182048947385 ], [ 150.583153473147462, -35.001179586832166 ], [ 150.583157566308699, -35.001177252134205 ], [ 150.583161730784866, -35.001175047157588 ], [ 150.583165962466097, -35.001172974078344 ], [ 150.583170257176221, -35.001171034942359 ], [ 150.583174610676906, -35.001169231663333 ], [ 150.583179018671785, -35.001167566020868 ], [ 150.58318347681066, -35.00116603965877 ], [ 150.583187980693907, -35.001164654083361 ], [ 150.58319252587674, -35.001163410662045 ], [ 150.583197107873616, -35.001162310621922 ], [ 150.583201722162642, -35.001161355048602 ], [ 150.583206364190062, -35.001160544885124 ], [ 150.58321102937478, -35.001159880931013 ], [ 150.583215713112821, -35.001159363841523 ], [ 150.583220410781905, -35.001158994126946 ], [ 150.583225117745968, -35.001158772152159 ], [ 150.583229829359823, -35.001158698136216 ], [ 150.583234540973677, -35.001158772152159 ], [ 150.58323924793774, -35.001158994126946 ], [ 150.583243945606824, -35.001159363841523 ], [ 150.583248629344865, -35.001159880931013 ], [ 150.583253294529584, -35.001160544885124 ], [ 150.583257936557004, -35.001161355048602 ], [ 150.58326255084603, -35.001162310621922 ], [ 150.583267132842906, -35.001163410662045 ], [ 150.583271678025739, -35.001164654083361 ], [ 150.583276181908985, -35.00116603965877 ], [ 150.58328064004786, -35.001167566020868 ], [ 150.58328504804274, -35.001169231663333 ], [ 150.583289401543425, -35.001171034942359 ], [ 150.583293696253548, -35.001172974078344 ], [ 150.58329792793478, -35.001175047157588 ], [ 150.583302092410946, -35.001177252134205 ], [ 150.583306185572184, -35.001179586832166 ], [ 150.583310203379057, -35.001182048947385 ], [ 150.583314141866509, -35.00118463605007 ], [ 150.583317997147674, -35.001187345587056 ], [ 150.583321765417878, -35.001190174884357 ], [ 150.583325442958284, -35.001193121149797 ], [ 150.583329026139609, -35.00119618147577 ], [ 150.583332511425709, -35.0011993528421 ], [ 150.58333589537699, -35.001202632119039 ], [ 150.583339174653929, -35.001206016070327 ], [ 150.58334234602026, -35.001209501356414 ], [ 150.58334540634624, -35.001213084537753 ], [ 150.583348352611665, -35.001216762078165 ], [ 150.583351181908967, -35.00122053034837 ], [ 150.583353891445967, -35.001224385629534 ], [ 150.583356478548637, -35.001228324116965 ], [ 150.583358940663885, -35.001232341923853 ], [ 150.583361275361824, -35.001236435085097 ], [ 150.583363480338448, -35.00124059956125 ], [ 150.583365553417707, -35.001244831242481 ], [ 150.583367492553663, -35.001249125952619 ], [ 150.583369295832711, -35.001253479453311 ], [ 150.583370961475168, -35.001257887448176 ], [ 150.583372487837266, -35.001262345587058 ], [ 150.583373873412683, -35.001266849470305 ], [ 150.583375116833992, -35.001271394653138 ], [ 150.583376216874115, -35.001275976650007 ], [ 150.583377172447427, -35.001280590939025 ], [ 150.583377982610898, -35.00128523296646 ], [ 150.583378646565023, -35.001289898151178 ], [ 150.583379163654513, -35.001294581889219 ], [ 150.583379533369083, -35.001299279558282 ], [ 150.583379755343884, -35.001303986522352 ], [ 150.583379829359814, -35.001308698136214 ] ] ] ] } },
{ "type": "Feature", "properties": { }, "geometry": { "type": "MultiPolygon", "coordinates": [ [ [ [ 150.583557061452041, -35.001772501140152 ], [ 150.583556987436111, -35.001777212754014 ], [ 150.58355676546131, -35.001781919718084 ], [ 150.58355639574674, -35.001786617387147 ], [ 150.583555878657251, -35.001791301125188 ], [ 150.583555214703125, -35.001795966309906 ], [ 150.583554404539655, -35.001800608337341 ], [ 150.583553448966342, -35.001805222626359 ], [ 150.583552348926219, -35.001809804623228 ], [ 150.58355110550491, -35.001814349806061 ], [ 150.583549719929493, -35.001818853689308 ], [ 150.583548193567395, -35.00182331182819 ], [ 150.583546527924938, -35.001827719823055 ], [ 150.58354472464589, -35.001832073323747 ], [ 150.583542785509934, -35.001836368033885 ], [ 150.583540712430676, -35.001840599715116 ], [ 150.583538507454051, -35.001844764191269 ], [ 150.583536172756112, -35.001848857352513 ], [ 150.583533710640864, -35.0018528751594 ], [ 150.583531123538194, -35.001856813646832 ], [ 150.583528414001194, -35.001860668927996 ], [ 150.583525584703892, -35.001864437198201 ], [ 150.583522638438467, -35.001868114738613 ], [ 150.583519578112487, -35.001871697919952 ], [ 150.583516406746156, -35.001875183206039 ], [ 150.583513127469217, -35.001878567157327 ], [ 150.583509743517936, -35.001881846434266 ], [ 150.583506258231836, -35.001885017800596 ], [ 150.583502675050511, -35.001888078126569 ], [ 150.583498997510105, -35.001891024392009 ], [ 150.583495229239901, -35.00189385368931 ], [ 150.583491373958736, -35.001896563226296 ], [ 150.583487435471284, -35.001899150328981 ], [ 150.583483417664411, -35.0019016124442 ], [ 150.583479324503173, -35.001903947142161 ], [ 150.583475160027007, -35.001906152118778 ], [ 150.583470928345776, -35.001908225198022 ], [ 150.583466633635652, -35.001910164334006 ], [ 150.583462280134967, -35.001911967613033 ], [ 150.583457872140087, -35.001913633255498 ], [ 150.583453414001212, -35.001915159617596 ], [ 150.583448910117966, -35.001916545193005 ], [ 150.583444364935133, -35.001917788614321 ], [ 150.583439782938257, -35.001918888654444 ], [ 150.583435168649231, -35.001919844227764 ], [ 150.583430526621811, -35.001920654391242 ], [ 150.583425861437092, -35.001921318345353 ], [ 150.583421177699051, -35.001921835434842 ], [ 150.583416480029967, -35.00192220514942 ], [ 150.583411773065905, -35.001922427124207 ], [ 150.58340706145205, -35.00192250114015 ], [ 150.583402349838195, -35.001922427124207 ], [ 150.583397642874132, -35.00192220514942 ], [ 150.583392945205048, -35.001921835434842 ], [ 150.583388261467007, -35.001921318345353 ], [ 150.583383596282289, -35.001920654391242 ], [ 150.583378954254869, -35.001919844227764 ], [ 150.583374339965843, -35.001918888654444 ], [ 150.583369757968967, -35.001917788614321 ], [ 150.583365212786134, -35.001916545193005 ], [ 150.583360708902887, -35.001915159617596 ], [ 150.583356250764012, -35.001913633255498 ], [ 150.583351842769133, -35.001911967613033 ], [ 150.583347489268448, -35.001910164334006 ], [ 150.583343194558324, -35.001908225198022 ], [ 150.583338962877093, -35.001906152118778 ], [ 150.583334798400927, -35.001903947142161 ], [ 150.583330705239689, -35.0019016124442 ], [ 150.583326687432816, -35.001899150328981 ], [ 150.583322748945363, -35.001896563226296 ], [ 150.583318893664199, -35.00189385368931 ], [ 150.583315125393995, -35.001891024392009 ], [ 150.583311447853589, -35.001888078126569 ], [ 150.583307864672264, -35.001885017800596 ], [ 150.583304379386163, -35.001881846434266 ], [ 150.583300995434882, -35.001878567157327 ], [ 150.583297716157944, -35.001875183206039 ], [ 150.583294544791613, -35.001871697919952 ], [ 150.583291484465633, -35.001868114738613 ], [ 150.583288538200208, -35.001864437198201 ], [ 150.583285708902906, -35.001860668927996 ], [ 150.583282999365906, -35.001856813646832 ], [ 150.583280412263235, -35.0018528751594 ], [ 150.583277950147988, -35.001848857352513 ], [ 150.583275615450049, -35.001844764191269 ], [ 150.583273410473424, -35.001840599715116 ], [ 150.583271337394166, -35.001836368033885 ], [ 150.58326939825821, -35.001832073323747 ], [ 150.583267594979162, -35.001827719823055 ], [ 150.583265929336704, -35.00182331182819 ], [ 150.583264402974606, -35.001818853689308 ], [ 150.58326301739919, -35.001814349806061 ], [ 150.583261773977881, -35.001809804623228 ], [ 150.583260673937758, -35.001805222626359 ], [ 150.583259718364445, -35.001800608337341 ], [ 150.583258908200975, -35.001795966309906 ], [ 150.583258244246849, -35.001791301125188 ], [ 150.58325772715736, -35.001786617387147 ], [ 150.58325735744279, -35.001781919718084 ], [ 150.583257135467989, -35.001777212754014 ], [ 150.583257061452059, -35.001772501140152 ], [ 150.583257135467989, -35.001767789526291 ], [ 150.58325735744279, -35.001763082562221 ], [ 150.58325772715736, -35.001758384893158 ], [ 150.583258244246849, -35.001753701155117 ], [ 150.583258908200975, -35.001749035970398 ], [ 150.583259718364445, -35.001744393942964 ], [ 150.583260673937758, -35.001739779653946 ], [ 150.583261773977881, -35.001735197657077 ], [ 150.58326301739919, -35.001730652474244 ], [ 150.583264402974606, -35.001726148590997 ], [ 150.583265929336704, -35.001721690452115 ], [ 150.583267594979162, -35.00171728245725 ], [ 150.58326939825821, -35.001712928956557 ], [ 150.583271337394166, -35.00170863424642 ], [ 150.583273410473424, -35.001704402565188 ], [ 150.583275615450049, -35.001700238089036 ], [ 150.583277950147988, -35.001696144927791 ], [ 150.583280412263235, -35.001692127120904 ], [ 150.583282999365906, -35.001688188633473 ], [ 150.583285708902906, -35.001684333352308 ], [ 150.583288538200208, -35.001680565082104 ], [ 150.583291484465633, -35.001676887541691 ], [ 150.583294544791613, -35.001673304360352 ], [ 150.583297716157944, -35.001669819074266 ], [ 150.583300995434882, -35.001666435122978 ], [ 150.583304379386163, -35.001663155846039 ], [ 150.583307864672264, -35.001659984479708 ], [ 150.583311447853589, -35.001656924153735 ], [ 150.583315125393995, -35.001653977888296 ], [ 150.583318893664199, -35.001651148590994 ], [ 150.583322748945363, -35.001648439054009 ], [ 150.583326687432816, -35.001645851951324 ], [ 150.583330705239689, -35.001643389836104 ], [ 150.583334798400927, -35.001641055138144 ], [ 150.583338962877093, -35.001638850161527 ], [ 150.583343194558324, -35.001636777082282 ], [ 150.583347489268448, -35.001634837946298 ], [ 150.583351842769133, -35.001633034667272 ], [ 150.583356250764012, -35.001631369024807 ], [ 150.583360708902887, -35.001629842662709 ], [ 150.583365212786134, -35.0016284570873 ], [ 150.583369757968967, -35.001627213665984 ], [ 150.583374339965843, -35.001626113625861 ], [ 150.583378954254869, -35.001625158052541 ], [ 150.583383596282289, -35.001624347889063 ], [ 150.583388261467007, -35.001623683934952 ], [ 150.583392945205048, -35.001623166845462 ], [ 150.583397642874132, -35.001622797130885 ], [ 150.583402349838195, -35.001622575156098 ], [ 150.58340706145205, -35.001622501140154 ], [ 150.583411773065905, -35.001622575156098 ], [ 150.583416480029967, -35.001622797130885 ], [ 150.583421177699051, -35.001623166845462 ], [ 150.583425861437092, -35.001623683934952 ], [ 150.583430526621811, -35.001624347889063 ], [ 150.583435168649231, -35.001625158052541 ], [ 150.583439782938257, -35.001626113625861 ], [ 150.583444364935133, -35.001627213665984 ], [ 150.583448910117966, -35.0016284570873 ], [ 150.583453414001212, -35.001629842662709 ], [ 150.583457872140087, -35.001631369024807 ], [ 150.583462280134967, -35.001633034667272 ], [ 150.583466633635652, -35.001634837946298 ], [ 150.583470928345776, -35.001636777082282 ], [ 150.583475160027007, -35.001638850161527 ], [ 150.583479324503173, -35.001641055138144 ], [ 150.583483417664411, -35.001643389836104 ], [ 150.583487435471284, -35.001645851951324 ], [ 150.583491373958736, -35.001648439054009 ], [ 150.583495229239901, -35.001651148590994 ], [ 150.583498997510105, -35.001653977888296 ], [ 150.583502675050511, -35.001656924153735 ], [ 150.583506258231836, -35.001659984479708 ], [ 150.583509743517936, -35.001663155846039 ], [ 150.583513127469217, -35.001666435122978 ], [ 150.583516406746156, -35.001669819074266 ], [ 150.583519578112487, -35.001673304360352 ], [ 150.583522638438467, -35.001676887541691 ], [ 150.583525584703892, -35.001680565082104 ], [ 150.583528414001194, -35.001684333352308 ], [ 150.583531123538194, -35.001688188633473 ], [ 150.583533710640864, -35.001692127120904 ], [ 150.583536172756112, -35.001696144927791 ], [ 150.583538507454051, -35.001700238089036 ], [ 150.583540712430676, -35.001704402565188 ], [ 150.583542785509934, -35.00170863424642 ], [ 150.58354472464589, -35.001712928956557 ], [ 150.583546527924938, -35.00171728245725 ], [ 150.583548193567395, -35.001721690452115 ], [ 150.583549719929493, -35.001726148590997 ], [ 150.58355110550491, -35.001730652474244 ], [ 150.583552348926219, -35.001735197657077 ], [ 150.583553448966342, -35.001739779653946 ], [ 150.583554404539655, -35.001744393942964 ], [ 150.583555214703125, -35.001749035970398 ], [ 150.583555878657251, -35.001753701155117 ], [ 150.58355639574674, -35.001758384893158 ], [ 150.58355676546131, -35.001763082562221 ], [ 150.583556987436111, -35.001767789526291 ], [ 150.583557061452041, -35.001772501140152 ] ] ] ] } }
]
}
