{
"type": "FeatureCollection",
"name": "JBR2HR_Site_access_gates_ff403a60_6807_4a03_b1d6_20c008ef9e82",
"crs": { "type": "name", "properties": { "name": "urn:ogc:def:crs:OGC:1.3:CRS84" } },
"xy_coordinate_resolution": 1e-15,
"features": [
{ "type": "Feature", "properties": { "OBJECTID": 1, "Comments": "Stage 1 and 2 site access gates", "FSource": "created from markup provided by Transport specialists.", "SourceDate": 20251110.0, "Supplier": "MOTTM", "CnstrStage": "Stage 1", "GateName": "Gate 1-1", "multi_reader_type": "FILEGDB" }, "geometry": { "type": "Point", "coordinates": [ 150.585944518487537, -34.987515952099479 ] } },
{ "type": "Feature", "properties": { "OBJECTID": 2, "Comments": "Stage 1 and 2 site access gates", "FSource": "created from markup provided by Transport specialists.", "SourceDate": 20251110.0, "Supplier": "MOTTM", "CnstrStage": "Stage 1", "GateName": "Gate 4-1", "multi_reader_type": "FILEGDB" }, "geometry": { "type": "Point", "coordinates": [ 150.586070497063162, -34.988613403303674 ] } },
{ "type": "Feature", "properties": { "OBJECTID": 3, "Comments": "Stage 1 and 2 site access gates", "FSource": "created from markup provided by Transport specialists.", "SourceDate": 20251110.0, "Supplier": "MOTTM", "CnstrStage": "Stage 1", "GateName": "Gate 4-2", "multi_reader_type": "FILEGDB" }, "geometry": { "type": "Point", "coordinates": [ 150.584119242898026, -35.001840212670977 ] } },
{ "type": "Feature", "properties": { "OBJECTID": 4, "Comments": "Stage 1 and 2 site access gates", "FSource": "created from markup provided by Transport specialists.", "SourceDate": 20251110.0, "Supplier": "MOTTM", "CnstrStage": "Stage 1", "GateName": "Gate 5-1", "multi_reader_type": "FILEGDB" }, "geometry": { "type": "Point", "coordinates": [ 150.584130976750799, -35.002001044586621 ] } },
{ "type": "Feature", "properties": { "OBJECTID": 5, "Comments": "Stage 1 and 2 site access gates", "FSource": "created from markup provided by Transport specialists.", "SourceDate": 20251110.0, "Supplier": "MOTTM", "CnstrStage": "Stage 1", "GateName": "Gate 5-3", "multi_reader_type": "FILEGDB" }, "geometry": { "type": "Point", "coordinates": [ 150.582071504578636, -35.007693990154401 ] } },
{ "type": "Feature", "properties": { "OBJECTID": 6, "Comments": "Stage 1 and 2 site access gates", "FSource": "created from markup provided by Transport specialists.", "SourceDate": 20251110.0, "Supplier": "MOTTM", "CnstrStage": "Stage 1", "GateName": "Gate 5-4", "multi_reader_type": "FILEGDB" }, "geometry": { "type": "Point", "coordinates": [ 150.580653383995866, -35.014832796155758 ] } },
{ "type": "Feature", "properties": { "OBJECTID": 7, "Comments": "Stage 1 and 2 site access gates", "FSource": "created from markup provided by Transport specialists.", "SourceDate": 20251110.0, "Supplier": "MOTTM", "CnstrStage": "Stage 1", "GateName": "Gate 6-1", "multi_reader_type": "FILEGDB" }, "geometry": { "type": "Point", "coordinates": [ 150.580606268098052, -35.014997462796671 ] } },
{ "type": "Feature", "properties": { "OBJECTID": 8, "Comments": "Stage 1 and 2 site access gates", "FSource": "created from markup provided by Transport specialists.", "SourceDate": 20251110.0, "Supplier": "MOTTM", "CnstrStage": "Stage 1", "GateName": "Gate 2-1", "multi_reader_type": "FILEGDB" }, "geometry": { "type": "Point", "coordinates": [ 150.57989221906513, -35.014985146962935 ] } },
{ "type": "Feature", "properties": { "OBJECTID": 9, "Comments": "Stage 1 and 2 site access gates", "FSource": "created from markup provided by Transport specialists.", "SourceDate": 20251110.0, "Supplier": "MOTTM", "CnstrStage": "Stage 1", "GateName": "Gate 2-2", "multi_reader_type": "FILEGDB" }, "geometry": { "type": "Point", "coordinates": [ 150.579706214630278, -35.018087593296663 ] } },
{ "type": "Feature", "properties": { "OBJECTID": 10, "Comments": "Stage 1 and 2 site access gates", "FSource": "created from markup provided by Transport specialists.", "SourceDate": 20251110.0, "Supplier": "MOTTM", "CnstrStage": "Stage 1", "GateName": "Gate 3-1", "multi_reader_type": "FILEGDB" }, "geometry": { "type": "Point", "coordinates": [ 150.579541979151486, -35.018923915836666 ] } },
{ "type": "Feature", "properties": { "OBJECTID": 11, "Comments": "Stage 1 and 2 site access gates", "FSource": "created from markup provided by Transport specialists.", "SourceDate": 20251110.0, "Supplier": "MOTTM", "CnstrStage": "Stage 1", "GateName": "Gate 3-2", "multi_reader_type": "FILEGDB" }, "geometry": { "type": "Point", "coordinates": [ 150.579310423438017, -35.020213035071514 ] } },
{ "type": "Feature", "properties": { "OBJECTID": 12, "Comments": "Stage 1 and 2 site access gates", "FSource": "created from markup provided by Transport specialists.", "SourceDate": 20251110.0, "Supplier": "MOTTM", "CnstrStage": "Stage 1", "GateName": "Gate 3-3", "multi_reader_type": "FILEGDB" }, "geometry": { "type": "Point", "coordinates": [ 150.578764808649595, -35.023128934215848 ] } },
{ "type": "Feature", "properties": { "OBJECTID": 13, "Comments": "Stage 1 and 2 site access gates", "FSource": "created from markup provided by Transport specialists.", "SourceDate": 20251110.0, "Supplier": "MOTTM", "CnstrStage": "Stage 1", "GateName": "Gate 6-2", "multi_reader_type": "FILEGDB" }, "geometry": { "type": "Point", "coordinates": [ 150.579059756162707, -35.02396866228171 ] } },
{ "type": "Feature", "properties": { "OBJECTID": 14, "Comments": "Stage 1 and 2 site access gates", "FSource": "created from markup provided by Transport specialists.", "SourceDate": 20251110.0, "Supplier": "MOTTM", "CnstrStage": "Stage 1", "GateName": "Gate 3-4", "multi_reader_type": "FILEGDB" }, "geometry": { "type": "Point", "coordinates": [ 150.580001375516815, -35.041400034657968 ] } },
{ "type": "Feature", "properties": { "OBJECTID": 15, "Comments": "Stage 1 and 2 site access gates", "FSource": "created from markup provided by Transport specialists.", "SourceDate": 20251110.0, "Supplier": "MOTTM", "CnstrStage": "Stage 1", "GateName": "Gate 5-2", "multi_reader_type": "FILEGDB" }, "geometry": { "type": "Point", "coordinates": [ 150.58313850983933, -35.002589127938563 ] } },
{ "type": "Feature", "properties": { "OBJECTID": 16, "Comments": "Stage 1 and 2 site access gates", "FSource": "created from markup provided by Transport specialists.", "SourceDate": 20251110.0, "Supplier": "MOTTM", "CnstrStage": "Stage 2", "GateName": "Gate 5-1", "multi_reader_type": "FILEGDB" }, "geometry": { "type": "Point", "coordinates": [ 150.586039723784552, -34.988555399940829 ] } },
{ "type": "Feature", "properties": { "OBJECTID": 17, "Comments": "Stage 1 and 2 site access gates", "FSource": "created from markup provided by Transport specialists.", "SourceDate": 20251110.0, "Supplier": "MOTTM", "CnstrStage": "Stage 2", "GateName": "Gate 6-1", "multi_reader_type": "FILEGDB" }, "geometry": { "type": "Point", "coordinates": [ 150.586149017632522, -34.988582031945917 ] } },
{ "type": "Feature", "properties": { "OBJECTID": 18, "Comments": "Stage 1 and 2 site access gates", "FSource": "created from markup provided by Transport specialists.", "SourceDate": 20251110.0, "Supplier": "MOTTM", "CnstrStage": "Stage 2", "GateName": "Gate 1-1", "multi_reader_type": "FILEGDB" }, "geometry": { "type": "Point", "coordinates": [ 150.583618638132918, -34.998359358839636 ] } },
{ "type": "Feature", "properties": { "OBJECTID": 19, "Comments": "Stage 1 and 2 site access gates", "FSource": "created from markup provided by Transport specialists.", "SourceDate": 20251110.0, "Supplier": "MOTTM", "CnstrStage": "Stage 2", "GateName": "Gate 5-2", "multi_reader_type": "FILEGDB" }, "geometry": { "type": "Point", "coordinates": [ 150.583872599379248, -34.999823363925906 ] } },
{ "type": "Feature", "properties": { "OBJECTID": 20, "Comments": "Stage 1 and 2 site access gates", "FSource": "created from markup provided by Transport specialists.", "SourceDate": 20251110.0, "Supplier": "MOTTM", "CnstrStage": "Stage 2", "GateName": "Gate 1-2", "multi_reader_type": "FILEGDB" }, "geometry": { "type": "Point", "coordinates": [ 150.583172475516761, -35.00123488825497 ] } },
{ "type": "Feature", "properties": { "OBJECTID": 21, "Comments": "Stage 1 and 2 site access gates", "FSource": "created from markup provided by Transport specialists.", "SourceDate": 20251110.0, "Supplier": "MOTTM", "CnstrStage": "Stage 2", "GateName": "Gate 7-1", "multi_reader_type": "FILEGDB" }, "geometry": { "type": "Point", "coordinates": [ 150.584135899086846, -35.002027790889024 ] } },
{ "type": "Feature", "properties": { "OBJECTID": 22, "Comments": "Stage 1 and 2 site access gates", "FSource": "created from markup provided by Transport specialists.", "SourceDate": 20251110.0, "Supplier": "MOTTM", "CnstrStage": "Stage 2", "GateName": "Gate 8-1", "multi_reader_type": "FILEGDB" }, "geometry": { "type": "Point", "coordinates": [ 150.582263197153367, -35.007961090303375 ] } },
{ "type": "Feature", "properties": { "OBJECTID": 23, "Comments": "Stage 1 and 2 site access gates", "FSource": "created from markup provided by Transport specialists.", "SourceDate": 20251110.0, "Supplier": "MOTTM", "CnstrStage": "Stage 2", "GateName": "Gate 3-1", "multi_reader_type": "FILEGDB" }, "geometry": { "type": "Point", "coordinates": [ 150.579613900237433, -35.018811930547741 ] } },
{ "type": "Feature", "properties": { "OBJECTID": 24, "Comments": "Stage 1 and 2 site access gates", "FSource": "created from markup provided by Transport specialists.", "SourceDate": 20251110.0, "Supplier": "MOTTM", "CnstrStage": "Stage 2", "GateName": "Gate 4-1", "multi_reader_type": "FILEGDB" }, "geometry": { "type": "Point", "coordinates": [ 150.57923659370681, -35.020867188418237 ] } },
{ "type": "Feature", "properties": { "OBJECTID": 25, "Comments": "Stage 1 and 2 site access gates", "FSource": "created from markup provided by Transport specialists.", "SourceDate": 20251110.0, "Supplier": "MOTTM", "CnstrStage": "Stage 2", "GateName": "Gate 2-1", "multi_reader_type": "FILEGDB" }, "geometry": { "type": "Point", "coordinates": [ 150.58315544075387, -35.001355533055431 ] } },
{ "type": "Feature", "properties": { "OBJECTID": 26, "Comments": "Stage 1 and 2 site access gates", "FSource": "created from markup provided by Transport specialists.", "SourceDate": 20251110.0, "Supplier": "MOTTM", "CnstrStage": "Stage 2", "GateName": "Gate 9-2", "multi_reader_type": "FILEGDB" }, "geometry": { "type": "Point", "coordinates": [ 150.578828599891438, -35.024029627777303 ] } },
{ "type": "Feature", "properties": { "OBJECTID": 27, "Comments": "Stage 1 and 2 site access gates", "FSource": "created from markup provided by Transport specialists.", "SourceDate": 20251110.0, "Supplier": "MOTTM", "CnstrStage": "Stage 2", "GateName": "Gate 9-3", "multi_reader_type": "FILEGDB" }, "geometry": { "type": "Point", "coordinates": [ 150.578617942333352, -35.026831504226834 ] } },
{ "type": "Feature", "properties": { "OBJECTID": 28, "Comments": "Stage 1 and 2 site access gates", "FSource": "created from markup provided by Transport specialists.", "SourceDate": 20251110.0, "Supplier": "MOTTM", "CnstrStage": "Stage 2", "GateName": "Gate 9-4", "multi_reader_type": "FILEGDB" }, "geometry": { "type": "Point", "coordinates": [ 150.580136686854871, -35.041505269963771 ] } },
{ "type": "Feature", "properties": { "OBJECTID": 29, "Comments": "Stage 1 and 2 site access gates", "FSource": "created from markup provided by Transport specialists.", "SourceDate": 20251110.0, "Supplier": "MOTTM", "CnstrStage": "Stage 2", "GateName": "Gate 9-1", "multi_reader_type": "FILEGDB" }, "geometry": { "type": "Point", "coordinates": [ 150.579300033585724, -35.021223865809148 ] } }
]
}
