{
"type": "FeatureCollection",
"name": "JBR2HR_Human comfort working distance",
"crs": { "type": "name", "properties": { "name": "urn:ogc:def:crs:OGC:1.3:CRS84" } },
"xy_coordinate_resolution": 1e-15,
"features": [
{ "type": "Feature", "properties": { "OBJECTID": 1, "Comments": "Construction vibration buffer zones", "FSource": "MOTTM - noise specialists model run for Rev B", "SourceDate": 20251027.0, "Supplier": "MOTTM", "path_windows": "C:\\Users\\bri86955\\Mott MacDonald\\MGO - Moata Geospatial - JBR2HR\\01Incoming\\20251024_Noise\\Noise shp files Rev B\\Noise Rev B figures\\Metadata\\CnstrVibrationBuffers.shp", "path_rootname": "CnstrVibrationBuffers", "ORIG_FID": 1, "category": ">18t vibratory roller", "distance": 100, "label": "Human response: 100m", "shapefile_type": "shapefile_polygon", "SHAPE_Length": 15249.135416730396, "SHAPE_Area": 1996987.0436541783 }, "geometry": { "type": "MultiPolygon", "coordinates": [ [ [ [ 150.580357111080502, -35.042301988595739 ], [ 150.580285521973082, -35.04229863003755 ], [ 150.580214352109522, -35.042291426955671 ], [ 150.580143908524832, -35.042280412522096 ], [ 150.580074492430668, -35.04226563151223 ], [ 150.580006398949195, -35.042247149314321 ], [ 150.579939921760854, -35.042225043007384 ], [ 150.579875345223059, -35.042199408415655 ], [ 150.579812945598519, -35.042170355625686 ], [ 150.579752988890846, -35.042138008041611 ], [ 150.579695734050972, -35.042102505153451 ], [ 150.579661197450292, -35.042078611284317 ], [ 150.579409022131614, -35.041896727970588 ], [ 150.579389250212614, -35.041882114527738 ], [ 150.579338119935414, -35.04184076876367 ], [ 150.579290387237421, -35.04179676117873 ], [ 150.579246257018667, -35.041750279765488 ], [ 150.579205916278056, -35.041701524779647 ], [ 150.579169540819549, -35.041650704366361 ], [ 150.57913728314864, -35.041598036121627 ], [ 150.579109283507137, -35.041543744607914 ], [ 150.579085662125095, -35.04148806390404 ], [ 150.579066518285231, -35.041431232177409 ], [ 150.579051935800322, -35.041373491793543 ], [ 150.579041975292085, -35.041315090964673 ], [ 150.579036680896934, -35.04125627937632 ], [ 150.579036074762541, -35.041197308978823 ], [ 150.579040159291878, -35.04113843222931 ], [ 150.579048917170383, -35.041079901190663 ], [ 150.579062311392306, -35.041021966630701 ], [ 150.579080283123659, -35.040964876176496 ], [ 150.579102757152725, -35.040908875324853 ], [ 150.579129635450727, -35.040854202806322 ], [ 150.579160804786767, -35.040801092540285 ], [ 150.579196131250882, -35.04074977352569 ], [ 150.579235461509057, -35.040700464457416 ], [ 150.579278630391713, -35.040653376582149 ], [ 150.579316842033847, -35.040616489834115 ], [ 150.579604453333332, -35.040353517749132 ], [ 150.579613061236728, -35.040345739570057 ], [ 150.579614418823752, -35.04034452896019 ], [ 150.580530991490463, -35.039528881166838 ], [ 150.581454166708227, -35.038641863557793 ], [ 150.581810609718559, -35.03821895092527 ], [ 150.582073883457269, -35.037738919813336 ], [ 150.582343663805801, -35.036846213546738 ], [ 150.582409481807019, -35.03623112785322 ], [ 150.582323929990025, -35.035615323116772 ], [ 150.582217518677368, -35.035266624220284 ], [ 150.581918353320958, -35.034638479454713 ], [ 150.581387330552957, -35.033953967045747 ], [ 150.580581197695636, -35.033091933565622 ], [ 150.579427787498531, -35.031940368032124 ], [ 150.579400017235258, -35.031911456435552 ], [ 150.57855682199596, -35.030995731937885 ], [ 150.578545069228966, -35.030982728057815 ], [ 150.578512322705251, -35.03094368452976 ], [ 150.577848964316473, -35.030106453904494 ], [ 150.57784137671743, -35.030096741451644 ], [ 150.577805006844613, -35.030045920784332 ], [ 150.577772754188828, -35.029993252306177 ], [ 150.577761229651344, -35.029972080251007 ], [ 150.577243882499516, -35.028987947635507 ], [ 150.577227413300335, -35.028954827928509 ], [ 150.577203795234851, -35.028899146930407 ], [ 150.577189053524847, -35.028856737899311 ], [ 150.576948480138043, -35.028094532646342 ], [ 150.576944081819818, -35.028080109711901 ], [ 150.576937324998255, -35.028055669478675 ], [ 150.576794988201016, -35.027505552113524 ], [ 150.576787165979766, -35.027472250840908 ], [ 150.576777667949699, -35.027417318838779 ], [ 150.57674272620423, -35.027158238010529 ], [ 150.576742267540169, -35.027154769031895 ], [ 150.576737802696613, -35.027109868104837 ], [ 150.576716363150808, -35.026798734331919 ], [ 150.576715040060833, -35.02678616494147 ], [ 150.576458640622491, -35.026722538562929 ], [ 150.576397809153633, -35.026705830440555 ], [ 150.576331345377781, -35.026683723556694 ], [ 150.576266782030416, -35.026658087527096 ], [ 150.576204395291256, -35.026629033345422 ], [ 150.576145389604307, -35.026597226927528 ], [ 150.575744242142861, -35.026365468957593 ], [ 150.575743304748102, -35.026364926470777 ], [ 150.575686062360234, -35.026329422123915 ], [ 150.575631764620823, -35.026290914343434 ], [ 150.575580645581795, -35.026249567370812 ], [ 150.575532923561099, -35.026205558655072 ], [ 150.575488803412924, -35.026159076193622 ], [ 150.575472503439073, -35.02614018923299 ], [ 150.575140609399057, -35.025744953334389 ], [ 150.575116579380648, -35.025715084311976 ], [ 150.575080211929787, -35.025664262919818 ], [ 150.57504796374289, -35.025611592944571 ], [ 150.575019971659998, -35.025557301589572 ], [ 150.574996355958461, -35.025501620233953 ], [ 150.574977219151407, -35.025444788014475 ], [ 150.574962640644969, -35.025387047211275 ], [ 150.574952685420357, -35.025328646125814 ], [ 150.574950549123031, -35.025310488519231 ], [ 150.574894663708307, -35.024779460685565 ], [ 150.574891508927777, -35.024738806542764 ], [ 150.574890905181917, -35.024679836104667 ], [ 150.574894760481868, -35.024623091291119 ], [ 150.574954198492065, -35.024064930194122 ], [ 150.574954429174596, -35.024062797438113 ], [ 150.574963187393536, -35.024004266589039 ], [ 150.574976579863659, -35.023946332313955 ], [ 150.574994551039765, -35.023889242304357 ], [ 150.575017021335924, -35.02383324196763 ], [ 150.575043897115904, -35.023778570119603 ], [ 150.575075061878294, -35.023725460611239 ], [ 150.575077870716513, -35.023721077965654 ], [ 150.575370408608819, -35.023267669752101 ], [ 150.575402919240446, -35.023220735029781 ], [ 150.575442243758715, -35.023171426834615 ], [ 150.575485403809239, -35.023124339877015 ], [ 150.575532215926842, -35.023079675117664 ], [ 150.575582478269069, -35.023037625036679 ], [ 150.575635976225385, -35.022998369238543 ], [ 150.575642482792659, -35.022993935186513 ], [ 150.575642719816869, -35.022993775857955 ], [ 150.575642737124781, -35.022993523794234 ], [ 150.575645387102668, -35.022963798732171 ], [ 150.575654144666913, -35.022905267798585 ], [ 150.575667536427403, -35.022847333410361 ], [ 150.575685506841836, -35.022790243259436 ], [ 150.575707976354295, -35.022734241852916 ], [ 150.575734851278725, -35.022679569809156 ], [ 150.575766015117381, -35.02262646098 ], [ 150.575801334037038, -35.022575142560235 ], [ 150.575840657990682, -35.022525834208615 ], [ 150.575883817485646, -35.022478746180475 ], [ 150.575930628979336, -35.022434082139974 ], [ 150.575980890711747, -35.022392031865216 ], [ 150.576034388048299, -35.022352775862473 ], [ 150.57609089136912, -35.022316482619622 ], [ 150.576150159434661, -35.022283305969175 ], [ 150.576211939252289, -35.02225338959294 ], [ 150.576275964045806, -35.02222686157284 ], [ 150.576341960921212, -35.022203834544101 ], [ 150.576381065405428, -35.022192113542474 ], [ 150.576770812154109, -35.022082142679047 ], [ 150.576799393085139, -35.022074437352082 ], [ 150.57686847970507, -35.022058693382881 ], [ 150.576938669733465, -35.022046700771483 ], [ 150.577009662546203, -35.022038509401362 ], [ 150.577081154632992, -35.022034155577153 ], [ 150.577152839730246, -35.022033657519884 ], [ 150.577224410957825, -35.022037017212632 ], [ 150.577295561914212, -35.022044220422451 ], [ 150.577365987771344, -35.022055236722181 ], [ 150.577435387518079, -35.02207001773224 ], [ 150.577503462731727, -35.022088501603534 ], [ 150.577569923186786, -35.022110608621944 ], [ 150.577618521332823, -35.022129905079133 ], [ 150.577660845840995, -35.022014749121645 ], [ 150.578077389788461, -35.020451491328458 ], [ 150.578385730761397, -35.018920347627102 ], [ 150.578691285496149, -35.017402974528501 ], [ 150.578771770725666, -35.01659347037176 ], [ 150.57883691328891, -35.01593827902439 ], [ 150.578128751175683, -35.015857117109078 ], [ 150.578110609370924, -35.015854910491569 ], [ 150.578040188659969, -35.015843894827164 ], [ 150.577970793982502, -35.015829114359867 ], [ 150.577902723756551, -35.015810630941161 ], [ 150.577836268201963, -35.015788524288752 ], [ 150.577771711583665, -35.015762890228316 ], [ 150.577709332344227, -35.015733836188872 ], [ 150.577649396294163, -35.015701489179747 ], [ 150.577592160215971, -35.015665985045004 ], [ 150.577537868286356, -35.015627478308019 ], [ 150.577486754558748, -35.015586132304819 ], [ 150.577439037328418, -35.015542124480277 ], [ 150.577394921428919, -35.015495642828022 ], [ 150.577354594893734, -35.015446887626588 ], [ 150.577318230184289, -35.015396066956598 ], [ 150.577285983041776, -35.015343398480567 ], [ 150.57725799366213, -35.015289106762062 ], [ 150.577234378950891, -35.015233425815175 ], [ 150.577215241443326, -35.015176593873925 ], [ 150.57720066382953, -35.015118853282836 ], [ 150.577190706710837, -35.015060452255042 ], [ 150.57718541420877, -35.015001640476889 ], [ 150.57718480846296, -35.014942669899582 ], [ 150.577186997059954, -35.014903556702777 ], [ 150.5772277003787, -35.014409845201705 ], [ 150.577229596260423, -35.014390081498782 ], [ 150.577238351417407, -35.014331550291899 ], [ 150.577251740331917, -35.014273614650349 ], [ 150.577269707393924, -35.014216524970372 ], [ 150.577292173141814, -35.014160523058123 ], [ 150.577319043878845, -35.01410585043508 ], [ 150.577350203125377, -35.014052740955506 ], [ 150.577385517067768, -35.014001421817071 ], [ 150.577424835680347, -35.013952112681523 ], [ 150.577467989493272, -35.013905023807581 ], [ 150.577514794988247, -35.013860358863027 ], [ 150.577565050431133, -35.013818307629883 ], [ 150.577618541214122, -35.013779050618446 ], [ 150.57767503777211, -35.013742755420061 ], [ 150.577734298814704, -35.013709578574485 ], [ 150.577796070363945, -35.013679661043604 ], [ 150.577860088933107, -35.013653131880687 ], [ 150.577926078374304, -35.013630103660383 ], [ 150.57799375743744, -35.013610676235409 ], [ 150.578062835549446, -35.01359493124361 ], [ 150.578133018129705, -35.013582937622957 ], [ 150.578204003490981, -35.013574745239417 ], [ 150.578275488154816, -35.013570390401938 ], [ 150.578347165889397, -35.013569891335884 ], [ 150.578869542744997, -35.013580318757739 ], [ 150.578941106750733, -35.013583677143401 ], [ 150.578993016156346, -35.013588548011242 ], [ 150.579198940070455, -35.013611973423892 ], [ 150.579618728724284, -35.011752059884081 ], [ 150.57961884089579, -35.01175156271038 ], [ 150.580069509320992, -35.00976095175541 ], [ 150.58007095126996, -35.009754703614192 ], [ 150.580516265860808, -35.007861930195489 ], [ 150.580850518655609, -35.006203502386434 ], [ 150.580852815125553, -35.006192527754557 ], [ 150.58114914906082, -35.004826951802265 ], [ 150.581158635020955, -35.004788178648752 ], [ 150.581176595857755, -35.004731087190187 ], [ 150.581176688029984, -35.004730859153938 ], [ 150.581220030005369, -35.004460464782277 ], [ 150.581302849828518, -35.003943787061594 ], [ 150.581468484701475, -35.002910430279897 ], [ 150.581468924993914, -35.002907718430158 ], [ 150.581596835615727, -35.002127963534953 ], [ 150.581408545948932, -35.002066003209869 ], [ 150.581050877271139, -35.002018742680221 ], [ 150.581040301515145, -35.002017302214917 ], [ 150.580494206749989, -35.001940623617998 ], [ 150.58043880737398, -35.001931630039437 ], [ 150.580369423820088, -35.001916850475247 ], [ 150.58030136429565, -35.001898369714041 ], [ 150.580234919054448, -35.001876264763212 ], [ 150.580170372317326, -35.001850631441179 ], [ 150.580108002404614, -35.001821579872654 ], [ 150.580048075193247, -35.001789233456549 ], [ 150.57999084732171, -35.001753731634281 ], [ 150.579936563037819, -35.001715225319451 ], [ 150.579885456282511, -35.001673880545169 ], [ 150.579837745347788, -35.001629873850142 ], [ 150.579793635013658, -35.001583394124069 ], [ 150.579753312247988, -35.001534639817422 ], [ 150.579716952776096, -35.001483819072405 ], [ 150.579684708983763, -35.001431151284457 ], [ 150.579656721052231, -35.001376861014116 ], [ 150.57963310921437, -35.001321180536785 ], [ 150.579613972712906, -35.001264348018999 ], [ 150.579599395248749, -35.00120660852852 ], [ 150.579589437502534, -35.001148207574865 ], [ 150.57958414357168, -35.001089395744962 ], [ 150.579583535628558, -35.001030424089308 ], [ 150.579584995569036, -35.001000879699312 ], [ 150.579596480291627, -35.000835420143353 ], [ 150.579599100740836, -35.000806087311076 ], [ 150.579607852185717, -35.000747555685564 ], [ 150.579621237718129, -35.000689620428254 ], [ 150.579639198541997, -35.000632529169295 ], [ 150.579661659491535, -35.000576527408832 ], [ 150.579688522594751, -35.000521853881395 ], [ 150.579719674684981, -35.000468742510655 ], [ 150.579754981926357, -35.000417422300288 ], [ 150.57979429106814, -35.000368111950351 ], [ 150.579837437029596, -35.000321022712953 ], [ 150.579884232030594, -35.000276355471165 ], [ 150.579934477582469, -35.000234302781266 ], [ 150.57998795805139, -35.000195044237046 ], [ 150.58004444498485, -35.000158748359127 ], [ 150.580103695027987, -35.000125568947688 ], [ 150.580165455238784, -35.000095650597302 ], [ 150.580229461190072, -35.000069118743063 ], [ 150.580295439988788, -35.000046088735481 ], [ 150.580363107176851, -35.000026659468574 ], [ 150.580432173326813, -35.000010912609945 ], [ 150.58050234390933, -34.999998917105501 ], [ 150.580573317288525, -34.999990722829338 ], [ 150.580644790037326, -34.999986366098462 ], [ 150.580716455974795, -34.999985865146392 ], [ 150.580788008302989, -34.999989221968569 ], [ 150.580848314870707, -34.999995075140923 ], [ 150.581228852910755, -35.000040840355695 ], [ 150.581609390350565, -35.000086604371333 ], [ 150.58198992825848, -35.000132368110563 ], [ 150.582107769894094, -35.000146538505021 ], [ 150.58214578225676, -34.99987301829028 ], [ 150.582150202083398, -34.999845086962004 ], [ 150.582237139544333, -34.99935559003498 ], [ 150.582322175856717, -34.998876787078487 ], [ 150.582418095297697, -34.998228365263579 ], [ 150.582466847606298, -34.997898789226404 ], [ 150.582515599445031, -34.997569213137361 ], [ 150.58252072280024, -34.997538881668852 ], [ 150.58252219440763, -34.997531349479083 ], [ 150.582665718802332, -34.996815769903336 ], [ 150.582688906929008, -34.996669673946293 ], [ 150.582681560997202, -34.99665458034908 ], [ 150.58265794714282, -34.996598900371204 ], [ 150.582638809396087, -34.996542069150919 ], [ 150.582624230447749, -34.99648432902967 ], [ 150.582614270905424, -34.996425928218613 ], [ 150.582608974900637, -34.996367116403128 ], [ 150.582608587781777, -34.996358343717233 ], [ 150.582605338550081, -34.99627349321333 ], [ 150.582605115355619, -34.996223295030134 ], [ 150.582609193151029, -34.996164417566945 ], [ 150.582616260266775, -34.996115042539493 ], [ 150.582688604035525, -34.995706879364064 ], [ 150.582689519973655, -34.995701811529862 ], [ 150.582761315438347, -34.995312256271404 ], [ 150.582762081001533, -34.995308166237649 ], [ 150.582768013042255, -34.995279902597112 ], [ 150.582863148964549, -34.994865986705442 ], [ 150.58295637052916, -34.994460395481362 ], [ 150.583042609017554, -34.994042277964994 ], [ 150.583129974578981, -34.993618693754421 ], [ 150.583186968111107, -34.993331042689718 ], [ 150.58324144501367, -34.993056090019721 ], [ 150.583280882270458, -34.992801062199682 ], [ 150.583322740866947, -34.992530366376201 ], [ 150.583327126216432, -34.992504916016898 ], [ 150.583340506360685, -34.992446980093717 ], [ 150.583349100315701, -34.992417731832596 ], [ 150.583514589216549, -34.99189300872321 ], [ 150.583656110906048, -34.991304075977737 ], [ 150.58379021915988, -34.990688939296618 ], [ 150.583793033343369, -34.990676530724649 ], [ 150.583989995202899, -34.989840610770756 ], [ 150.584171811935875, -34.989049895855523 ], [ 150.584172638438218, -34.989046336182376 ], [ 150.584255186202995, -34.988695070649541 ], [ 150.58426178619942, -34.988669049521427 ], [ 150.584279741800941, -34.988611957255131 ], [ 150.58430219476142, -34.988555954249172 ], [ 150.58432905151767, -34.988501279330535 ], [ 150.584360195650277, -34.988448166363519 ], [ 150.584384996218517, -34.988411307702115 ], [ 150.584385160772655, -34.988411075694479 ], [ 150.584385078630675, -34.988410814436072 ], [ 150.584380519325578, -34.988395881880557 ], [ 150.584365940241554, -34.988338141907022 ], [ 150.584355980091374, -34.988279741157299 ], [ 150.584353269071897, -34.988255777515768 ], [ 150.582781323115114, -34.988054671854577 ], [ 150.582780378096828, -34.98805455026173 ], [ 150.582709980189094, -34.988043539110897 ], [ 150.582640607731832, -34.988028761277192 ], [ 150.582572558941564, -34.988010282200648 ], [ 150.582506124026196, -34.987988178881487 ], [ 150.58244158716235, -34.98796254713114 ], [ 150.582379226627921, -34.98793349706753 ], [ 150.582319308259741, -34.98790115208319 ], [ 150.582262088658467, -34.987865651613362 ], [ 150.582207812036671, -34.987827146565884 ], [ 150.582156712302151, -34.987785802968418 ], [ 150.582109007717037, -34.98774179735463 ], [ 150.582064903034023, -34.987695318609582 ], [ 150.582024585197047, -34.987646565179588 ], [ 150.581988229883393, -34.987595746103942 ], [ 150.581955989540972, -34.987543078072072 ], [ 150.581928005351187, -34.987488788366299 ], [ 150.581904394277871, -34.987433108293274 ], [ 150.581885258813713, -34.987376276984136 ], [ 150.581870681639714, -34.987318536780684 ], [ 150.581860723356101, -34.987260135894473 ], [ 150.581855428088772, -34.987201324011167 ], [ 150.581854796363928, -34.987185231019879 ], [ 150.581847785058017, -34.986938400723581 ], [ 150.581847806705895, -34.98689552188376 ], [ 150.581851884176899, -34.986836644366768 ], [ 150.581860631937502, -34.986778112329574 ], [ 150.581874013025043, -34.986720176544289 ], [ 150.58189196866266, -34.986663084643311 ], [ 150.581914423706593, -34.986607082129531 ], [ 150.581941280210373, -34.98655240774071 ], [ 150.581972425008757, -34.986499296305112 ], [ 150.582007724376638, -34.986447974127771 ], [ 150.582047025017999, -34.986398662616168 ], [ 150.582090161914351, -34.986351572126345 ], [ 150.58213694729838, -34.986306904447787 ], [ 150.582187182775272, -34.986264850340561 ], [ 150.582240652727847, -34.986225590305466 ], [ 150.582297127680391, -34.986189291946779 ], [ 150.58235636752957, -34.986156111839612 ], [ 150.582418116203371, -34.986126190916288 ], [ 150.58248211031281, -34.986099658244584 ], [ 150.582548076000023, -34.986076626457745 ], [ 150.582615731048122, -34.986057194500987 ], [ 150.582684786002289, -34.986041446752367 ], [ 150.582754944301911, -34.986029448518181 ], [ 150.582825905352763, -34.986021253305907 ], [ 150.582897365859907, -34.986016894737631 ], [ 150.582969019694929, -34.986016391054676 ], [ 150.583040560032089, -34.98601974696323 ], [ 150.583111680681526, -34.986026945547536 ], [ 150.583117243375028, -34.986027672946896 ], [ 150.584542760781261, -34.986217282262345 ], [ 150.585896642303908, -34.986393102358896 ], [ 150.58596549418229, -34.986403912307985 ], [ 150.586034866023823, -34.986418687310817 ], [ 150.586102914386402, -34.986437165327921 ], [ 150.586169349158808, -34.986459266670131 ], [ 150.586233885084056, -34.986484895518984 ], [ 150.586296247100279, -34.986513944540185 ], [ 150.58635616620009, -34.986546286687933 ], [ 150.586413386775774, -34.986581786168635 ], [ 150.586431393926119, -34.986594000468806 ], [ 150.587184945433819, -34.987116324781738 ], [ 150.587221216677591, -34.987142613492516 ], [ 150.587272318708955, -34.987183955047435 ], [ 150.587320025876522, -34.987227958733243 ], [ 150.587364133413161, -34.987274435681172 ], [ 150.587404454356886, -34.987323187460312 ], [ 150.587440814103559, -34.987374005067636 ], [ 150.587473056896101, -34.987426671761405 ], [ 150.587501045903991, -34.987480960358262 ], [ 150.58752465975391, -34.987536639474513 ], [ 150.587543799204269, -34.987593470052822 ], [ 150.587558380444563, -34.987651209736349 ], [ 150.587568342838182, -34.987709610318156 ], [ 150.587573642222054, -34.987768422115415 ], [ 150.58757425640664, -34.987827393177227 ], [ 150.587570182934144, -34.98788627104291 ], [ 150.587561439025592, -34.987944804544036 ], [ 150.587548061660584, -34.988002741101475 ], [ 150.587530109581706, -34.988059833075646 ], [ 150.587507657821021, -34.988115837657737 ], [ 150.587480804374621, -34.988170513396533 ], [ 150.587455520797789, -34.988214285508789 ], [ 150.587224003577575, -34.988588781011309 ], [ 150.58707449814807, -34.989220733206622 ], [ 150.586958678127075, -34.989896218092362 ], [ 150.586956281946868, -34.989909479739524 ], [ 150.586950106980396, -34.989938807956008 ], [ 150.58677593244434, -34.990691867311334 ], [ 150.586601754287585, -34.991444927102151 ], [ 150.586599517537792, -34.991454322801459 ], [ 150.586414371256069, -34.992210935766693 ], [ 150.5863207024031, -34.992675367397325 ], [ 150.586318988563988, -34.992683628624626 ], [ 150.586065638207714, -34.993871282684523 ], [ 150.586062571193452, -34.99388503307344 ], [ 150.585929415862068, -34.994456975689658 ], [ 150.585922457429461, -34.994484531269855 ], [ 150.585920697827589, -34.994490879561745 ], [ 150.585767011901964, -34.995036551183254 ], [ 150.585698826413079, -34.995366417500442 ], [ 150.585625197483893, -34.995722619117075 ], [ 150.585622402505692, -34.995735568988657 ], [ 150.585591618337276, -34.995872385310001 ], [ 150.585591618337276, -34.995872385310001 ], [ 150.585566345656787, -34.995984702102461 ], [ 150.585535918765544, -34.996179546737288 ], [ 150.585503342275814, -34.996388149161703 ], [ 150.585482891897726, -34.996550480711306 ], [ 150.58546105708291, -34.996723796139392 ], [ 150.58546105708291, -34.996723796139392 ], [ 150.585439222180639, -34.996897110654345 ], [ 150.58543922215415, -34.99689711155527 ], [ 150.585417386043076, -34.997070426036238 ], [ 150.585410082073281, -34.997116693685832 ], [ 150.585396701321542, -34.997174629803425 ], [ 150.585389343257248, -34.997199925512817 ], [ 150.585296034025134, -34.997501391888228 ], [ 150.58525948067097, -34.9976775288836 ], [ 150.585273650113294, -34.997719602065104 ], [ 150.585288231111065, -34.997777341941898 ], [ 150.585298192674628, -34.997835742605595 ], [ 150.585303490644208, -34.997894554372934 ], [ 150.585304102836432, -34.997953525293156 ], [ 150.585301810806186, -34.997993935773898 ], [ 150.58520328814555, -34.99916574609 ], [ 150.585231652310711, -34.999674140107949 ], [ 150.585287651387802, -35.000224804055904 ], [ 150.585427906617753, -35.000849061264347 ], [ 150.585429963732395, -35.000858501812381 ], [ 150.585439925639605, -35.000916902456702 ], [ 150.585445223777214, -35.000975714202838 ], [ 150.585445464859561, -35.000998894842496 ], [ 150.58554076618438, -35.00101508606248 ], [ 150.586197882333551, -35.001102347960298 ], [ 150.586910270713162, -35.001180094506871 ], [ 150.586935428755766, -35.001183084750018 ], [ 150.587005838510919, -35.001194094808554 ], [ 150.587075222911324, -35.001208869699497 ], [ 150.587143284695401, -35.001227347621779 ], [ 150.587209731536092, -35.001249447942257 ], [ 150.587274279140217, -35.001275077567598 ], [ 150.587336651406986, -35.001304125538482 ], [ 150.587396581364118, -35.001336468456977 ], [ 150.587453813436866, -35.001371967827225 ], [ 150.587508100163319, -35.001410469989999 ], [ 150.58755921079478, -35.001451811702459 ], [ 150.587606925953565, -35.001495815524478 ], [ 150.587651040838267, -35.00154229258677 ], [ 150.587691368429233, -35.001591045358808 ], [ 150.587727734146426, -35.001641863035303 ], [ 150.587759982207189, -35.001694528874232 ], [ 150.587787975705737, -35.001748817493954 ], [ 150.587811593275802, -35.001804496609701 ], [ 150.587830735633702, -35.001861328065111 ], [ 150.587845319008949, -35.001919067701522 ], [ 150.58785528272972, -35.001977468213191 ], [ 150.58786058262686, -35.002036279917554 ], [ 150.587861196508811, -35.002095250864116 ], [ 150.587857121919058, -35.002154128592693 ], [ 150.587848376109832, -35.002212661034498 ], [ 150.587834996016028, -35.002270597412966 ], [ 150.587834631454371, -35.002271931549586 ], [ 150.587753586447263, -35.002567335045967 ], [ 150.587735995255258, -35.002623093566648 ], [ 150.587713539080113, -35.002679097006997 ], [ 150.587686679327447, -35.002733772461717 ], [ 150.587655532415965, -35.002786886057898 ], [ 150.587620228867223, -35.002838208710145 ], [ 150.587580923001752, -35.002887521722165 ], [ 150.587537779879028, -35.002934613822816 ], [ 150.587490987262612, -35.00297928410842 ], [ 150.587440743628775, -35.003021340001595 ], [ 150.587387264603848, -35.003060601886574 ], [ 150.58733077863738, -35.00309690122041 ], [ 150.587271529086166, -35.003130084180299 ], [ 150.587209768898163, -35.003160006149173 ], [ 150.587145762511341, -35.00318654166972 ], [ 150.587079782833285, -35.003209575369645 ], [ 150.587012114340638, -35.003229008333697 ], [ 150.586943046482872, -35.003244758874033 ], [ 150.586872873814372, -35.003256758025479 ], [ 150.586801897998981, -35.003264955895801 ], [ 150.586730422493787, -35.003269316151119 ], [ 150.586658753511557, -35.003269820542471 ], [ 150.586587197883659, -35.003266467060321 ], [ 150.586528485555959, -35.003260807964807 ], [ 150.585461468928628, -35.003133852391393 ], [ 150.585449045383058, -35.003132314231593 ], [ 150.585378634244194, -35.003121303213049 ], [ 150.585309248611765, -35.003106527302137 ], [ 150.585294113110194, -35.003102767119053 ], [ 150.584853169491367, -35.0029903662072 ], [ 150.584243706720144, -35.002893475941903 ], [ 150.584165303858697, -35.002883318340793 ], [ 150.584065264853336, -35.00337759938737 ], [ 150.584054132808376, -35.003437004365423 ], [ 150.5840657517642, -35.003447720712359 ], [ 150.584109866643985, -35.003494199032303 ], [ 150.584150191881861, -35.003542951998547 ], [ 150.584186556108591, -35.003593771569143 ], [ 150.58421880253232, -35.003646438273215 ], [ 150.58424679422788, -35.003700727626367 ], [ 150.584270410931509, -35.003756407362467 ], [ 150.584289550083213, -35.003813239257219 ], [ 150.58430413232773, -35.003870978336217 ], [ 150.584314092570196, -35.003929379007054 ], [ 150.584319391031386, -35.003988191673557 ], [ 150.584320002298654, -35.0040471625178 ], [ 150.584315924995082, -35.004106040002789 ], [ 150.584307175289638, -35.004164572038945 ], [ 150.584293793413934, -35.004222507916751 ], [ 150.584292205813654, -35.004228247498212 ], [ 150.584004254569919, -35.005253626060892 ], [ 150.584000015008229, -35.005268174245757 ], [ 150.58399357608107, -35.00528948019997 ], [ 150.583990952385477, -35.005297441090853 ], [ 150.583928463618008, -35.005633223623249 ], [ 150.58392793495733, -35.005636036489676 ], [ 150.583926087388022, -35.005645434449065 ], [ 150.583768552692902, -35.00642068037503 ], [ 150.583538024718933, -35.007562179418962 ], [ 150.583526307334324, -35.007611613230452 ], [ 150.58350834626512, -35.00766870503147 ], [ 150.583485886760144, -35.007724707494525 ], [ 150.583459022394521, -35.007779381789327 ], [ 150.583427869633226, -35.007832493147099 ], [ 150.583402321652017, -35.007870392112942 ], [ 150.583365946953762, -35.007921419808 ], [ 150.583361516484132, -35.007941291825226 ], [ 150.583255549549023, -35.009224282770774 ], [ 150.583253670279561, -35.009243872962479 ], [ 150.583244920121587, -35.009302405746375 ], [ 150.583244125064397, -35.009306524934011 ], [ 150.582940924666957, -35.010854893390551 ], [ 150.582936060424657, -35.010877840651943 ], [ 150.582649732783011, -35.012132551597837 ], [ 150.58226266102335, -35.013952071781503 ], [ 150.582247047166504, -35.014036830090284 ], [ 150.582469592951753, -35.014060599310277 ], [ 150.582497809703511, -35.014063921046358 ], [ 150.582568229682039, -35.014074933185469 ], [ 150.582637623854936, -35.014089711899153 ], [ 150.582705693929682, -35.014108191748306 ], [ 150.582772149623139, -35.014130295734923 ], [ 150.582836706683594, -35.014155928051004 ], [ 150.582899086757948, -35.014184978583103 ], [ 150.582959023935416, -35.014217323944216 ], [ 150.583016261542099, -35.014252824705252 ], [ 150.583070555293091, -35.014291329965261 ], [ 150.583121671208744, -35.014332673703912 ], [ 150.583169390957181, -35.014376679395141 ], [ 150.583213509717353, -35.014423158161584 ], [ 150.583253839384639, -35.014471911542813 ], [ 150.5832902075025, -35.014522730572395 ], [ 150.583322458277848, -35.014575398502501 ], [ 150.583350451565963, -35.014629688079211 ], [ 150.583374070350203, -35.014685368001693 ], [ 150.583393212087998, -35.014742199143939 ], [ 150.583407794053443, -35.01479993916837 ], [ 150.583417755607513, -35.014858339866727 ], [ 150.583423052590035, -35.014917151555593 ], [ 150.583423662822071, -35.014976122284537 ], [ 150.583419583836218, -35.015035000495288 ], [ 150.583410832956417, -35.015093532318936 ], [ 150.583397447112645, -35.015151467882482 ], [ 150.583393797542783, -35.015164411439507 ], [ 150.583298266244384, -35.015492231020772 ], [ 150.583283953667319, -35.015536379114074 ], [ 150.583261490440293, -35.015592381353578 ], [ 150.583234624132274, -35.015647055444866 ], [ 150.583203467936016, -35.015700166554652 ], [ 150.583168155613777, -35.015751488372345 ], [ 150.583128840508351, -35.015800799484602 ], [ 150.583085687691778, -35.015847889529205 ], [ 150.583038884969568, -35.015892557611416 ], [ 150.582988630861053, -35.01593461116321 ], [ 150.582935141037439, -35.015973870578847 ], [ 150.582878643994491, -35.016010167325938 ], [ 150.582819383163013, -35.016043346691866 ], [ 150.582757611459982, -35.016073266773915 ], [ 150.582693593451864, -35.016099799423827 ], [ 150.582627602095982, -35.016122829281613 ], [ 150.582559921839817, -35.016142260147497 ], [ 150.582490842262558, -35.016158007643604 ], [ 150.582420657942151, -35.016170003718749 ], [ 150.582349670592436, -35.016178198493876 ], [ 150.582278183719922, -35.016182555648371 ], [ 150.582206503586036, -35.01618305694651 ], [ 150.582134937069867, -35.016179700392044 ], [ 150.582063790572676, -35.01617250020621 ], [ 150.581993368922753, -35.016161486806062 ], [ 150.581923973131751, -35.016146708562488 ], [ 150.581896882517213, -35.016139839325902 ], [ 150.581573473383855, -35.016054051070157 ], [ 150.581415664671653, -35.016969450810215 ], [ 150.581413363187465, -35.016982147130506 ], [ 150.58141273037154, -35.0169854392839 ], [ 150.581256040797598, -35.017790189883883 ], [ 150.581249641380367, -35.017819871920068 ], [ 150.58089288748539, -35.019327340084814 ], [ 150.580519890149816, -35.020996813816353 ], [ 150.580511392067109, -35.02103109196117 ], [ 150.580506142196725, -35.021049451033335 ], [ 150.580075196178342, -35.022488610901505 ], [ 150.580062480039402, -35.022527342814243 ], [ 150.580053453286382, -35.022549841749978 ], [ 150.579895057618245, -35.023162375929914 ], [ 150.579892486079672, -35.023172062233954 ], [ 150.579887780801414, -35.023188591345082 ], [ 150.579821104656247, -35.023413267860256 ], [ 150.579831792498453, -35.02342452676293 ], [ 150.579872125260266, -35.02347328222443 ], [ 150.579908493781971, -35.023524102255166 ], [ 150.579940745549692, -35.023576770168468 ], [ 150.579968739265979, -35.023631060486586 ], [ 150.579992357939346, -35.023686741004681 ], [ 150.580011499000875, -35.023743573495082 ], [ 150.580026079807027, -35.023801312915445 ], [ 150.580036039617852, -35.02385971466007 ], [ 150.580041334360033, -35.023918526342044 ], [ 150.580042262801186, -35.023954383468961 ], [ 150.580042634007299, -35.024172931885552 ], [ 150.580042957713943, -35.024363208537437 ], [ 150.580076896323391, -35.02479802440174 ], [ 150.580122029196446, -35.025210178123118 ], [ 150.580124759058151, -35.025241024791335 ], [ 150.580185235745745, -35.026136233794752 ], [ 150.580185216004907, -35.026136234302356 ], [ 150.580186612046077, -35.026151736682458 ], [ 150.580187524489133, -35.026183863223054 ], [ 150.580193312988911, -35.027043297180342 ], [ 150.580193328923343, -35.027046956539195 ], [ 150.580193947187638, -35.027391143179138 ], [ 150.580319784690346, -35.027842699872451 ], [ 150.580656331287713, -35.028348783206894 ], [ 150.58141858666707, -35.029397542581258 ], [ 150.58144004512647, -35.029428434571848 ], [ 150.581472298874132, -35.029481103044532 ], [ 150.581500296501019, -35.029535393105895 ], [ 150.581523916596041, -35.029591073365829 ], [ 150.581532294104932, -35.029614194393766 ], [ 150.581774407170997, -35.030316698291983 ], [ 150.582016524078995, -35.03101920090019 ], [ 150.582027290217269, -35.03105291123417 ], [ 150.582041874542483, -35.031110650481082 ], [ 150.582051835278037, -35.031169052068599 ], [ 150.582057132723008, -35.031227863697758 ], [ 150.582057908192382, -35.031280132493663 ], [ 150.582057617723933, -35.031294377939766 ], [ 150.58321021184517, -35.032501726871281 ], [ 150.583948362188522, -35.033246438239217 ], [ 150.583984303171462, -35.033284755216812 ], [ 150.584024641913373, -35.033333508599156 ], [ 150.58405199420352, -35.033370991879849 ], [ 150.584654699886272, -35.03424424221776 ], [ 150.58466372405519, -35.034257577912065 ], [ 150.584695981638163, -35.034310245649991 ], [ 150.584723982900869, -35.034364535081046 ], [ 150.584747607512043, -35.034420214839642 ], [ 150.584766752903647, -35.034477045800472 ], [ 150.584770940118261, -35.034491808628687 ], [ 150.585112284405398, -35.035742784083943 ], [ 150.585122684202503, -35.035785761123705 ], [ 150.585132647542025, -35.035844161628276 ], [ 150.585137936091201, -35.035902758411844 ], [ 150.585179593315786, -35.036728245074492 ], [ 150.585179604530111, -35.036728459846131 ], [ 150.585180215245742, -35.036787430430749 ], [ 150.585176135518225, -35.036846307613715 ], [ 150.585167382621734, -35.036904839328542 ], [ 150.585166682848268, -35.036908468208118 ], [ 150.58500128093192, -35.0377558431341 ], [ 150.584988591331523, -35.037810149693733 ], [ 150.584970623416922, -35.03786724032372 ], [ 150.584948155358546, -35.037923243408677 ], [ 150.584921280846544, -35.037977917416704 ], [ 150.584921253045053, -35.037977968246437 ], [ 150.584529537737041, -35.038705311495711 ], [ 150.584498399407948, -35.038758371580684 ], [ 150.584463078198809, -35.038809692347826 ], [ 150.584462068142187, -35.038811052368139 ], [ 150.5839302743274, -35.03952510098695 ], [ 150.583891956388641, -35.039573051688841 ], [ 150.583848791732322, -35.039620142268674 ], [ 150.583801973992706, -35.039664809028302 ], [ 150.583778280172737, -35.039685317570928 ], [ 150.582219874285755, -35.040992462394591 ], [ 150.581387218299483, -35.041794447428238 ], [ 150.581279148459146, -35.041920468950131 ], [ 150.581236588414896, -35.041966847614098 ], [ 150.58118976789541, -35.042011513236424 ], [ 150.581139496071188, -35.042053565166356 ], [ 150.581085987620696, -35.042092822882367 ], [ 150.58102947218805, -35.042129118782078 ], [ 150.580970191150158, -35.042162296314928 ], [ 150.580908398579083, -35.042192214508795 ], [ 150.580844358061796, -35.042218744300726 ], [ 150.580778345853787, -35.042241773107357 ], [ 150.580710643290274, -35.042261201969048 ], [ 150.580641541141375, -35.042276946538344 ], [ 150.580571334001775, -35.042288941475505 ], [ 150.580500323789494, -35.042297133306477 ], [ 150.580428814002659, -35.042301489323151 ], [ 150.580357111080502, -35.042301988595739 ] ] ] ] } }
]
}
