{
"type": "FeatureCollection",
"name": "Operational Noise Study Area",
"crs": { "type": "name", "properties": { "name": "urn:ogc:def:crs:OGC:1.3:CRS84" } },
"features": [
{ "type": "Feature", "properties": { "OBJECTID": 1, "Comments": "Created as 600m buffer of the Proposed Road Layout (PHUP-MRBJV-JBR2HR-RW-M2D-000XXX_LAYOUT)", "SourceDate": 20250513.0, "Supplier": "MOTTM", "multi_reader_type": "GEODATABASE_FILE", "SHAPE_Length": 17518.68457945334, "SHAPE_Area": 9927064.6898020823 }, "geometry": { "type": "MultiPolygon", "coordinates": [ [ [ [ 150.579988043308106, -35.046914287166167 ], [ 150.579558483759286, -35.046894132890451 ], [ 150.57913144798286, -35.046850914924903 ], [ 150.578708763587116, -35.046784820342701 ], [ 150.578292242221892, -35.046696130576301 ], [ 150.577883666265791, -35.046585226559053 ], [ 150.577484786814722, -35.046452582373171 ], [ 150.577097312640973, -35.046298767731521 ], [ 150.576722901663231, -35.046124439691809 ], [ 150.576363158671342, -35.045930345312811 ], [ 150.576019622336162, -35.04571731598336 ], [ 150.575693766382244, -35.04548626473823 ], [ 150.575689550578772, -35.045482854961968 ], [ 150.575673268873459, -35.045471310756945 ], [ 150.575667358376563, -35.04546653113244 ], [ 150.575644568328158, -35.045450371130464 ], [ 150.575638648188061, -35.045445584100136 ], [ 150.575615876401713, -35.045429437078525 ], [ 150.575609955222603, -35.04542464822314 ], [ 150.575587185558845, -35.045408503943129 ], [ 150.575586328045148, -35.045407810702386 ], [ 150.575583087822451, -35.045405512998677 ], [ 150.575582265661041, -35.04540484750855 ], [ 150.575578986773223, -35.045402522889297 ], [ 150.575272205462937, -35.045154438427417 ], [ 150.574985812781165, -35.044890383247051 ], [ 150.574721034670375, -35.044611489004346 ], [ 150.574479004202146, -35.044318949499882 ], [ 150.574260758399731, -35.044014017006297 ], [ 150.57406723177462, -35.043697998530241 ], [ 150.57389925328448, -35.043372247635702 ], [ 150.57375753995143, -35.043038158003668 ], [ 150.573642700234416, -35.042697160793054 ], [ 150.573555224389366, -35.042350717234257 ], [ 150.57349548802901, -35.042000309684347 ], [ 150.573463744515436, -35.04164743967079 ], [ 150.57346013186006, -35.041293617211281 ], [ 150.57348466295241, -35.040940357913506 ], [ 150.573537234571376, -35.040589175042456 ], [ 150.573617618869179, -35.040241571237402 ], [ 150.573725473317779, -35.039899036007448 ], [ 150.573860334463092, -35.039563034790369 ], [ 150.574021625626358, -35.039235008206887 ], [ 150.574208654023465, -35.038916358483185 ], [ 150.574420620575836, -35.038608451452411 ], [ 150.574656616948346, -35.038312605680467 ], [ 150.574915632285297, -35.038030087194812 ], [ 150.575111096458187, -35.037839930296236 ], [ 150.575838743499816, -35.037164224991031 ], [ 150.575911262919277, -35.037094955002893 ], [ 150.575954678159349, -35.037040526303997 ], [ 150.575990598576851, -35.036998972991114 ], [ 150.576011002244627, -35.036975603890035 ], [ 150.576030263219735, -35.036951588132986 ], [ 150.576142144241459, -35.036816573308954 ], [ 150.576401149639935, -35.036534050282548 ], [ 150.576517699274092, -35.036422864770394 ], [ 150.576470175965198, -35.036379046023519 ], [ 150.576297573257705, -35.036201552164407 ], [ 150.576283352054247, -35.03618628113545 ], [ 150.576267901785002, -35.036171841027311 ], [ 150.576228348495107, -35.036134530476325 ], [ 150.576120205178995, -35.036031572960837 ], [ 150.576048446352729, -35.035962078297011 ], [ 150.576043060786759, -35.035956765609562 ], [ 150.576016222365297, -35.035930255339409 ], [ 150.57598845377359, -35.035904401665405 ], [ 150.575868918618113, -35.035789925419849 ], [ 150.575612337697038, -35.035519642982692 ], [ 150.575361233953601, -35.035316560811005 ], [ 150.575074873404077, -35.03505250774117 ], [ 150.574810124761683, -35.034773613663127 ], [ 150.574611556960974, -35.034533582209875 ], [ 150.574583761797186, -35.034505172954589 ], [ 150.57455341265316, -35.034476404313288 ], [ 150.574472340270404, -35.034398058537178 ], [ 150.574471052862577, -35.034396785165264 ], [ 150.574460924221597, -35.034389761224496 ], [ 150.574245151355512, -35.03423335350665 ], [ 150.573938415138741, -35.033985267143095 ], [ 150.573652062696425, -35.033721210112489 ], [ 150.573387323080055, -35.033442314144452 ], [ 150.573145329196535, -35.033149773046901 ], [ 150.572927115726372, -35.032844839055478 ], [ 150.572733618138102, -35.032528819205126 ], [ 150.572581919796676, -35.032237359476888 ], [ 150.572526273747229, -35.032121141673791 ], [ 150.57251001925934, -35.032086849256402 ], [ 150.572368328417184, -35.031752758460648 ], [ 150.572283571952397, -35.031509908300784 ], [ 150.572275809495324, -35.031485529743726 ], [ 150.572259042217809, -35.031430794507628 ], [ 150.572109411078628, -35.031186409346226 ], [ 150.571941462069702, -35.030860656467723 ], [ 150.571810812844632, -35.030555332692629 ], [ 150.571802107565418, -35.030532860751109 ], [ 150.571791070127631, -35.03050409318476 ], [ 150.57174562783436, -35.030379226090972 ], [ 150.571734454663243, -35.030347121296614 ], [ 150.571722076943217, -35.030315316909231 ], [ 150.571708449966678, -35.030279879859066 ], [ 150.57159363355629, -35.029938881130676 ], [ 150.571522714991318, -35.029667586988602 ], [ 150.571510149246734, -35.029612702306494 ], [ 150.571497233378864, -35.029557872812923 ], [ 150.571494270879242, -35.029545215568817 ], [ 150.571467753095448, -35.02943118878067 ], [ 150.571447692047116, -35.029340767136816 ], [ 150.571438096586206, -35.02929409474207 ], [ 150.571427638123851, -35.029250957724408 ], [ 150.571423108070576, -35.029232093176823 ], [ 150.57141804649163, -35.029210821901053 ], [ 150.571411476288063, -35.029189831419309 ], [ 150.571388342324241, -35.029113630984732 ], [ 150.571316493396125, -35.028829008914009 ], [ 150.571173706362373, -35.028678647828542 ], [ 150.571141215426366, -35.02864204145083 ], [ 150.571108052663135, -35.028605844395408 ], [ 150.571046766430982, -35.028537849351842 ], [ 150.571027127048353, -35.0285155820591 ], [ 150.570974462499407, -35.028455546477282 ], [ 150.570797519903948, -35.028243380906893 ], [ 150.570764677676948, -35.028201919337718 ], [ 150.570739821999638, -35.028170098400771 ], [ 150.570735377187759, -35.028164724102744 ], [ 150.570732677865635, -35.028160951506855 ], [ 150.570719286004731, -35.028143807007083 ], [ 150.570631978182803, -35.028027204790725 ], [ 150.570601011788284, -35.027984650321663 ], [ 150.570475927457096, -35.027805044477283 ], [ 150.570460539166476, -35.027781933750745 ], [ 150.570455335271419, -35.027774660182601 ], [ 150.570451211346267, -35.027767924785977 ], [ 150.570446902095654, -35.027761452509246 ], [ 150.570441102374502, -35.02775272376509 ], [ 150.570282977623492, -35.027498452182101 ], [ 150.570243761751414, -35.027431059362328 ], [ 150.570208409619994, -35.027369307757247 ], [ 150.570095603485981, -35.027157197436537 ], [ 150.570037556100914, -35.02704135773628 ], [ 150.570019435808717, -35.027004819040741 ], [ 150.569984678154924, -35.026933994357712 ], [ 150.569947671490297, -35.026856888293935 ], [ 150.569805999016637, -35.026522795036314 ], [ 150.56969119494147, -35.026181794851787 ], [ 150.569622055986855, -35.025918203147697 ], [ 150.569616318907521, -35.025893341266141 ], [ 150.569598013394284, -35.025810487123074 ], [ 150.569538301843096, -35.025460077935321 ], [ 150.569509632564575, -35.025161647947002 ], [ 150.569505782752145, -35.025099815281585 ], [ 150.569501897842429, -35.025037983715251 ], [ 150.569498681346573, -35.02498096492387 ], [ 150.56949662563926, -35.024935112358826 ], [ 150.569494638379354, -35.024884987336357 ], [ 150.569491822565794, -35.024631009042949 ], [ 150.569493133720016, -35.024555947181014 ], [ 150.569494404989399, -35.024501955280307 ], [ 150.569500381933977, -35.024368179172818 ], [ 150.569503362843648, -35.024318290727962 ], [ 150.569521924608011, -35.024098807939119 ], [ 150.569530281484219, -35.024027723880955 ], [ 150.569536520821629, -35.023978077414512 ], [ 150.56956211387805, -35.023802539327988 ], [ 150.56957030877652, -35.023753168227408 ], [ 150.569588932093779, -35.023648608574355 ], [ 150.569616529896535, -35.023514605817574 ], [ 150.569632805054653, -35.0234411941803 ], [ 150.569659325547917, -35.023333872016607 ], [ 150.569640285466789, -35.023222139241057 ], [ 150.569608562087552, -35.022869268219168 ], [ 150.569604960911875, -35.022515445338136 ], [ 150.56962949915706, -35.022162186295049 ], [ 150.569682069195153, -35.021811004266183 ], [ 150.569762447562027, -35.021463401974785 ], [ 150.569870287378905, -35.021120868835879 ], [ 150.569873682875738, -35.021112407232835 ], [ 150.569873714230624, -35.021112310503156 ], [ 150.569877129864835, -35.021103797920105 ], [ 150.569877147972647, -35.021103741490805 ], [ 150.569889059312175, -35.02107406151648 ], [ 150.569889146405728, -35.021073784709678 ], [ 150.569901074295188, -35.021044063598218 ], [ 150.569901149316763, -35.021043824410924 ], [ 150.569904557840459, -35.02103532971369 ], [ 150.569904581717481, -35.021035263483881 ], [ 150.569907990240409, -35.02102676878652 ], [ 150.569908014250757, -35.021026698052076 ], [ 150.569912386811666, -35.021015806750981 ], [ 150.569912438144542, -35.021015664446978 ], [ 150.569912475241864, -35.02101555881773 ], [ 150.570042847464833, -35.020690697545355 ], [ 150.570047311675722, -35.020679559270732 ], [ 150.570208576086571, -35.020351535936328 ], [ 150.570395572546857, -35.020032890060051 ], [ 150.570607499928883, -35.019724987414889 ], [ 150.570843451160727, -35.019429146569955 ], [ 150.571102414485068, -35.019146633509763 ], [ 150.571383282356578, -35.018878657307994 ], [ 150.571684852618404, -35.018626367449876 ], [ 150.572005831066747, -35.018390841266097 ], [ 150.572344846622343, -35.018173089648585 ], [ 150.57270044513163, -35.017974044309042 ], [ 150.572711652071945, -35.017968617302834 ], [ 150.572727300092453, -35.017918906450987 ], [ 150.572737959646247, -35.017889410242198 ], [ 150.572745560761433, -35.017868590711444 ], [ 150.572869725831225, -35.017562084405924 ], [ 150.572899710128524, -35.017501087407467 ], [ 150.572912135978811, -35.017322076488384 ], [ 150.57292181505656, -35.017240529987575 ], [ 150.57292460770978, -35.01721871456698 ], [ 150.572938768021885, -35.017129657493228 ], [ 150.572940270902592, -35.017118258814186 ], [ 150.572942471931952, -35.017104001141242 ], [ 150.572947349095472, -35.017075686411722 ], [ 150.572967480326014, -35.016949076656118 ], [ 150.573047837801141, -35.01660147114675 ], [ 150.573087388915383, -35.016475818734513 ], [ 150.572990437972891, -35.016187854530138 ], [ 150.572902986426357, -35.015841410387694 ], [ 150.572843265343636, -35.015491002022848 ], [ 150.572811528022527, -35.015138130966548 ], [ 150.572807912447644, -35.014784307240895 ], [ 150.572832431522158, -35.01443104645903 ], [ 150.57288498207626, -35.01407986189227 ], [ 150.572885825131777, -35.014076214311473 ], [ 150.572886615699133, -35.014070932228478 ], [ 150.572889035611496, -35.014060460568352 ], [ 150.57289127488346, -35.014045498709578 ], [ 150.572893993692418, -35.014033737626711 ], [ 150.572896530466124, -35.014016792190311 ], [ 150.572896955250229, -35.01401495088647 ], [ 150.572897348344583, -35.014012328281083 ], [ 150.572977702486554, -35.013664722559447 ], [ 150.573085517957253, -35.013322184312194 ], [ 150.57322033139053, -35.012986181689037 ], [ 150.573381566418391, -35.012658151716927 ], [ 150.573568530391611, -35.012339500236543 ], [ 150.573780424586971, -35.012031590389697 ], [ 150.574016340979483, -35.011735740754482 ], [ 150.574275269003152, -35.011453219173049 ], [ 150.574435630807528, -35.011300193009532 ], [ 150.574487994438556, -35.011071445064132 ], [ 150.574488448371369, -35.011069208592907 ], [ 150.574499798928827, -35.011012070864552 ], [ 150.574539144850092, -35.010832977576428 ], [ 150.574561699462095, -35.010739347213658 ], [ 150.574564230052744, -35.010726786324433 ], [ 150.57456527304987, -35.010719815420757 ], [ 150.574568091910947, -35.010707621782316 ], [ 150.574589616525856, -35.010600785098092 ], [ 150.574632032192767, -35.010411263697819 ], [ 150.574645825327963, -35.01035525744112 ], [ 150.57466469638797, -35.010265361186931 ], [ 150.574668183125851, -35.010243648812839 ], [ 150.574688547470174, -35.010126710528993 ], [ 150.574709711862255, -35.010013954802638 ], [ 150.574710480320647, -35.010008821902645 ], [ 150.574711521694041, -35.010004316469441 ], [ 150.574738707382267, -35.009859484410853 ], [ 150.574740692953696, -35.009848977874192 ], [ 150.574744310816897, -35.009830726135242 ], [ 150.57475371651239, -35.009783148277805 ], [ 150.57478111328669, -35.009649860971344 ], [ 150.574801129911805, -35.009557372434379 ], [ 150.574802138537279, -35.00955293665946 ], [ 150.574846051582114, -35.009272529662844 ], [ 150.574879636407218, -35.009111819070142 ], [ 150.574885138490743, -35.009087676058691 ], [ 150.574889172655304, -35.00906333873359 ], [ 150.574907876830196, -35.008958220551627 ], [ 150.574979292860405, -35.008643836274118 ], [ 150.574983026049551, -35.008629726354165 ], [ 150.574985121360783, -35.008615389877711 ], [ 150.575017118293573, -35.008425022643486 ], [ 150.575097456642112, -35.008077414634705 ], [ 150.575153921462771, -35.007890921428228 ], [ 150.575172160053683, -35.007817949120927 ], [ 150.575182771934863, -35.007771766444954 ], [ 150.575206128221879, -35.007674969743533 ], [ 150.575272360651354, -35.007413013548309 ], [ 150.575293924983242, -35.007330924463311 ], [ 150.575318638614561, -35.007243659905093 ], [ 150.575331664143846, -35.007199327479306 ], [ 150.575342047647666, -35.007157793579545 ], [ 150.575352564066861, -35.007116544493535 ], [ 150.575355432949692, -35.007105504799263 ], [ 150.575381758758738, -35.006939728700978 ], [ 150.575410532457397, -35.006745660355875 ], [ 150.575431747911438, -35.006615700972752 ], [ 150.575455598361145, -35.00648191524035 ], [ 150.57546499495723, -35.006430903427088 ], [ 150.575476138558173, -35.00637426712948 ], [ 150.575503253395539, -35.006240939659513 ], [ 150.575521212792808, -35.006156726729508 ], [ 150.575560128179092, -35.005982355181594 ], [ 150.575586164709847, -35.005872147643458 ], [ 150.575619161486657, -35.005739822015911 ], [ 150.575628506904565, -35.005698627917262 ], [ 150.57566072354058, -35.005565853978695 ], [ 150.575683242774375, -35.005478736564207 ], [ 150.575783889618805, -35.005056286562294 ], [ 150.575783982824561, -35.00505587555368 ], [ 150.575792228777146, -35.005013989676236 ], [ 150.575792929240549, -35.005008631841392 ], [ 150.575802372815701, -35.004940423668288 ], [ 150.575815470737069, -35.004850890432827 ], [ 150.575825570866471, -35.004785232098726 ], [ 150.575849462532886, -35.004637197591229 ], [ 150.575860087338782, -35.004476290082735 ], [ 150.575860676410173, -35.004469546271679 ], [ 150.575860232345462, -35.004461837080861 ], [ 150.575858419833622, -35.004428182513649 ], [ 150.575853757515233, -35.004295459447889 ], [ 150.575853387161033, -35.004277123452276 ], [ 150.575854417351024, -35.004056021774225 ], [ 150.575878918452389, -35.003702759162152 ], [ 150.575893986784251, -35.003580527646953 ], [ 150.575896448786864, -35.003562589899389 ], [ 150.575933907326856, -35.003333633223377 ], [ 150.576000895500897, -35.003036079055121 ], [ 150.576003192487406, -35.003027258133855 ], [ 150.576016533623459, -35.002977203079226 ], [ 150.57612431981704, -35.002634661388953 ], [ 150.576226175614892, -35.002374254430613 ], [ 150.576233514472733, -35.002357000956543 ], [ 150.576266439689022, -35.002281399244218 ], [ 150.576274111114543, -35.002265126895658 ], [ 150.576261001290106, -35.002213194772466 ], [ 150.57620127217541, -35.001862787163873 ], [ 150.576169523192164, -35.001509915911647 ], [ 150.576165889094597, -35.001156090973076 ], [ 150.576190387240899, -35.000802828054049 ], [ 150.57624291017575, -35.000451640347578 ], [ 150.576242968063667, -35.00045138638918 ], [ 150.576244938602542, -35.000438216574821 ], [ 150.576245056621303, -35.000437706899881 ], [ 150.576248954472732, -35.000411644058886 ], [ 150.576249073852182, -35.000411125396475 ], [ 150.57625283651123, -35.000385968532122 ], [ 150.576252877959149, -35.000385789066954 ], [ 150.576254189594067, -35.000377016962091 ], [ 150.57633451282058, -35.000029407177578 ], [ 150.576442293091958, -34.999686864840605 ], [ 150.576577067273007, -34.999350855419571 ], [ 150.576738259057379, -34.999022819570435 ], [ 150.576904134678102, -34.998740033262827 ], [ 150.576909047622678, -34.998687752581937 ], [ 150.576916429852758, -34.998624403431471 ], [ 150.576923430038221, -34.998567841001822 ], [ 150.576924457119731, -34.998556195637882 ], [ 150.576926665117981, -34.998523677867922 ], [ 150.576928039887207, -34.99849092169611 ], [ 150.576940544306268, -34.998295543302426 ], [ 150.57694828509068, -34.99820562337154 ], [ 150.57695829113274, -34.998103193955558 ], [ 150.576961612289153, -34.998073716523216 ], [ 150.576967602540719, -34.998022086572306 ], [ 150.576968236606575, -34.997965710705316 ], [ 150.576971920125402, -34.997778418068144 ], [ 150.576972994374501, -34.99773471479137 ], [ 150.576984359656933, -34.997522046929127 ], [ 150.576994881647806, -34.997386182491844 ], [ 150.577008006896193, -34.997245586857488 ], [ 150.577013215623026, -34.99720009650288 ], [ 150.577016691594679, -34.997171050352591 ], [ 150.577018797549897, -34.997141914640984 ], [ 150.577033639547551, -34.996978392927517 ], [ 150.577036626854976, -34.996958412080957 ], [ 150.577023050591066, -34.996878766823833 ], [ 150.577014816735556, -34.996811501723158 ], [ 150.577012617224568, -34.996792326873447 ], [ 150.576989098101052, -34.996506720584712 ], [ 150.576988987720853, -34.996495939543657 ], [ 150.576984772741355, -34.996379288518014 ], [ 150.576984767877576, -34.996379081985005 ], [ 150.576985558128257, -34.996162399601737 ], [ 150.576985460485446, -34.996152895291402 ], [ 150.576986923207869, -34.996110243660723 ], [ 150.576987307110329, -34.99610042083313 ], [ 150.577010335151471, -34.995789807985112 ], [ 150.577062851194853, -34.995438619406578 ], [ 150.577067287456174, -34.995415601600342 ], [ 150.577071153822374, -34.995395824003985 ], [ 150.577147030144204, -34.995071231769224 ], [ 150.577254799339556, -34.994728687149596 ], [ 150.577255686323213, -34.994726209600358 ], [ 150.57725919600864, -34.994716407717121 ], [ 150.577291517061269, -34.994635882308337 ], [ 150.577326806989845, -34.994477923364272 ], [ 150.577341418585263, -34.994419098715539 ], [ 150.577354029150513, -34.994360000629598 ], [ 150.577377827285773, -34.994254620140566 ], [ 150.577387562141496, -34.994213767114935 ], [ 150.577392331576988, -34.994187431331689 ], [ 150.577399501091918, -34.99414879968154 ], [ 150.57745280625042, -34.993905054386531 ], [ 150.577461440305825, -34.993870175931718 ], [ 150.577462943161635, -34.993863714473306 ], [ 150.577470687306061, -34.993825654100043 ], [ 150.577473569686418, -34.993811600985083 ], [ 150.577491939562833, -34.993722753161983 ], [ 150.577521175213008, -34.993591210636829 ], [ 150.577526187063484, -34.993570137040656 ], [ 150.577529950182793, -34.993548614823261 ], [ 150.577541898691777, -34.993483129212819 ], [ 150.577597080999084, -34.99323182282518 ], [ 150.577604148589842, -34.993203478465766 ], [ 150.577606750468789, -34.993190466348807 ], [ 150.577620908349132, -34.993116991859999 ], [ 150.577646244360039, -34.99299460696249 ], [ 150.577655701806776, -34.992951894046072 ], [ 150.577664260372501, -34.992909053204102 ], [ 150.577666234912044, -34.992899224262068 ], [ 150.577675343496423, -34.992854149745952 ], [ 150.577682659983168, -34.992814313034827 ], [ 150.57770108071378, -34.992712649112185 ], [ 150.577708164941981, -34.992674484490628 ], [ 150.577754427352772, -34.992459585057809 ], [ 150.577768372630288, -34.992401636773963 ], [ 150.577790661078495, -34.992308297564058 ], [ 150.577792815477949, -34.992299315081041 ], [ 150.577800617653224, -34.992266929666307 ], [ 150.577810778513367, -34.992216587230494 ], [ 150.577836560309834, -34.992097155358053 ], [ 150.57784882477759, -34.992043825078241 ], [ 150.577860660624623, -34.991990430349261 ], [ 150.577887578698437, -34.991875999044993 ], [ 150.577899357369063, -34.991828667340023 ], [ 150.577900044508368, -34.991825497975114 ], [ 150.577922175922396, -34.991728518171499 ], [ 150.577987888059255, -34.991454390997411 ], [ 150.577997797602649, -34.99141386771214 ], [ 150.578008402573829, -34.991371342625634 ], [ 150.578018112468158, -34.991328672564364 ], [ 150.578024405139502, -34.991301409784654 ], [ 150.578046775704593, -34.991205819373114 ], [ 150.578077183299598, -34.991060349813651 ], [ 150.578083864153825, -34.991031064672271 ], [ 150.578089163500579, -34.991001525686904 ], [ 150.57809762090767, -34.990955744892069 ], [ 150.578155160589034, -34.990695013425785 ], [ 150.578163680909654, -34.990661144970517 ], [ 150.578171640277162, -34.990628878043694 ], [ 150.578181240951437, -34.99058619045654 ], [ 150.57819360819397, -34.990532700810107 ], [ 150.578203940140952, -34.990489210184506 ], [ 150.578216657906864, -34.990430404363906 ], [ 150.578228742764963, -34.990370734923552 ], [ 150.578259373483377, -34.990230865152 ], [ 150.578264012343084, -34.990211170520453 ], [ 150.578277052132336, -34.990146935266239 ], [ 150.578285410680422, -34.990106694699449 ], [ 150.578294495390082, -34.990063929189951 ], [ 150.578302681063292, -34.990021042067504 ], [ 150.578314957322448, -34.989959073182568 ], [ 150.578369704111964, -34.98969247675133 ], [ 150.578375815882595, -34.989663202763147 ], [ 150.578381945631378, -34.989634322173202 ], [ 150.578385360415837, -34.989610553711415 ], [ 150.578418810692796, -34.989410031694248 ], [ 150.57849911131521, -34.989062419090779 ], [ 150.578520334511467, -34.988987061625444 ], [ 150.578529783464262, -34.988954564764889 ], [ 150.578548155144063, -34.988843152068519 ], [ 150.578601519609663, -34.988599136692599 ], [ 150.578629635481349, -34.988485570999472 ], [ 150.578632232071101, -34.98847428775575 ], [ 150.578638730319824, -34.988444901562524 ], [ 150.578648765875982, -34.988396431562762 ], [ 150.578714625912198, -34.988121550383788 ], [ 150.578744654830928, -34.988016282975281 ], [ 150.578752953126838, -34.987988443551046 ], [ 150.578772367862967, -34.987916152787378 ], [ 150.578776742666406, -34.98789998300493 ], [ 150.578784554316144, -34.987871669611174 ], [ 150.578793925501174, -34.987838122761069 ], [ 150.578802096904241, -34.987804364464807 ], [ 150.578834671888472, -34.987677731648539 ], [ 150.578931871447907, -34.987365025291133 ], [ 150.578948927748712, -34.98731626443049 ], [ 150.578957356962178, -34.987291263617792 ], [ 150.578961344166601, -34.987279027311544 ], [ 150.578987222934757, -34.987194739819721 ], [ 150.579005483648899, -34.987136622300028 ], [ 150.579018679536034, -34.987095567681777 ], [ 150.579019260679132, -34.987093687996023 ], [ 150.57902631627357, -34.987066158196718 ], [ 150.57904404753458, -34.986999090244794 ], [ 150.579103834227055, -34.986797806955721 ], [ 150.579119000929069, -34.98675067788335 ], [ 150.579121239708456, -34.986743393610666 ], [ 150.579166115692544, -34.986572021004328 ], [ 150.579177856563575, -34.986528072467841 ], [ 150.579285604011972, -34.986185525700961 ], [ 150.579291786568007, -34.98616833002513 ], [ 150.579323138127478, -34.986081659050448 ], [ 150.579451692545859, -34.985762840035846 ], [ 150.579612843135948, -34.98543479813803 ], [ 150.579799716269889, -34.985116131349145 ], [ 150.580011511348602, -34.984808205531976 ], [ 150.580247320772003, -34.984512339333165 ], [ 150.580506136669982, -34.984229798911521 ], [ 150.580786848848305, -34.983961793392567 ], [ 150.580867781444027, -34.983894041503049 ], [ 150.5809979974496, -34.983655502463172 ], [ 150.581046113231281, -34.983569387799001 ], [ 150.581209397584132, -34.983283769467974 ], [ 150.581259343304851, -34.983198357366412 ], [ 150.58142868487073, -34.9829151374392 ], [ 150.58147665100941, -34.982836534242892 ], [ 150.581626578057751, -34.982595750463403 ], [ 150.58165312360839, -34.982553575072252 ], [ 150.581668005009846, -34.982530321649151 ], [ 150.581874172998425, -34.982210055214672 ], [ 150.581904535758611, -34.982161016312695 ], [ 150.581934134377263, -34.982111553809929 ], [ 150.581979768631555, -34.982032134966943 ], [ 150.582020551208842, -34.98195768659312 ], [ 150.58206142207024, -34.981879303244597 ], [ 150.582111092443341, -34.981779432891997 ], [ 150.58218413467219, -34.98163831537385 ], [ 150.582370987425833, -34.98131964456077 ], [ 150.58258276249191, -34.981011713284822 ], [ 150.582818552329542, -34.980715841117039 ], [ 150.583077346994315, -34.980433293297253 ], [ 150.583358037398256, -34.980165281703556 ], [ 150.583659422250378, -34.979912952372977 ], [ 150.583980211314838, -34.979677386470968 ], [ 150.58431903002753, -34.979459592273294 ], [ 150.58467442835763, -34.979260501739752 ], [ 150.585044885236925, -34.979080968802329 ], [ 150.585428813199769, -34.978921760445843 ], [ 150.585824568177514, -34.978783558708422 ], [ 150.586230457314713, -34.97866695543064 ], [ 150.586644741205617, -34.978572450499293 ], [ 150.587065648250103, -34.978500447627418 ], [ 150.58749137459381, -34.978451256157463 ], [ 150.587920097441526, -34.978425085016951 ], [ 150.588349982552984, -34.978422048276975 ], [ 150.588779188851703, -34.978442157130885 ], [ 150.589205878057101, -34.978485327297363 ], [ 150.589628224739954, -34.978551372007985 ], [ 150.590044419360709, -34.97864001017988 ], [ 150.590452681556513, -34.978750861269496 ], [ 150.590467102341051, -34.978755658559002 ], [ 150.590467911862277, -34.978755878364609 ], [ 150.590866492495991, -34.978888468667897 ], [ 150.591253684498014, -34.979042229879632 ], [ 150.59162783163373, -34.979216503622233 ], [ 150.591987331681963, -34.97941054335972 ], [ 150.592330643935298, -34.979623519952497 ], [ 150.592656299101662, -34.979854520048093 ], [ 150.592962903417231, -34.980102555174248 ], [ 150.593249142971445, -34.980366563624635 ], [ 150.593513792332459, -34.980645415134077 ], [ 150.593755718821228, -34.980937914566098 ], [ 150.593973885560587, -34.98124281008365 ], [ 150.594167357940677, -34.981558796880293 ], [ 150.594335306775093, -34.981884521747411 ], [ 150.594477014715636, -34.982218588607893 ], [ 150.594591872657531, -34.982559569260275 ], [ 150.594679389650452, -34.982906001770402 ], [ 150.594739189225947, -34.98325640391937 ], [ 150.594771017040898, -34.983609274255208 ], [ 150.594774734000936, -34.983963102773643 ], [ 150.594750326040923, -34.984316373816036 ], [ 150.594697895138097, -34.984667574004632 ], [ 150.594617667840083, -34.985015200525282 ], [ 150.594509985340835, -34.985357763636195 ], [ 150.594375309739576, -34.985693797610864 ], [ 150.594287234278539, -34.985880753045592 ], [ 150.594216516720422, -34.986022979847021 ], [ 150.594173748209272, -34.986106970337524 ], [ 150.594087403126451, -34.986272611249255 ], [ 150.594057154425315, -34.986329729140301 ], [ 150.594039318560789, -34.986362589330625 ], [ 150.593949328960065, -34.98652691022879 ], [ 150.593899254003304, -34.986616170872693 ], [ 150.593805649930829, -34.986779117350345 ], [ 150.593760223351268, -34.986856593212551 ], [ 150.593687665902053, -34.986977869924971 ], [ 150.593647543774466, -34.987043791293743 ], [ 150.593572982638165, -34.987164242109593 ], [ 150.59353961746271, -34.987217412703693 ], [ 150.593524749854197, -34.987240650768364 ], [ 150.593315070713601, -34.987566445262182 ], [ 150.593210085263252, -34.987735087242974 ], [ 150.593089916482882, -34.987936115303313 ], [ 150.592975800847341, -34.988135773168302 ], [ 150.59293715313234, -34.988206589657175 ], [ 150.592938988742532, -34.988381739573903 ], [ 150.59291457045714, -34.988735009638127 ], [ 150.592862127799663, -34.989086208366381 ], [ 150.592781887368005, -34.989433832950809 ], [ 150.592718639277621, -34.989645933859812 ], [ 150.592708104139604, -34.989678415799354 ], [ 150.592698781934729, -34.989711148070548 ], [ 150.592605448281063, -34.990002142836552 ], [ 150.59247075626007, -34.990338173835738 ], [ 150.592456526683804, -34.990369813489316 ], [ 150.592441646069716, -34.990402586894284 ], [ 150.592427902511133, -34.990435695668495 ], [ 150.592423106365885, -34.990447151953298 ], [ 150.592359172773058, -34.990641272693793 ], [ 150.592346898839907, -34.990675140808335 ], [ 150.592344025087726, -34.990684093086095 ], [ 150.59233330286466, -34.990727212232436 ], [ 150.592314284449657, -34.990794205380716 ], [ 150.592284440945889, -34.990921695981122 ], [ 150.592271143866753, -34.990976947404555 ], [ 150.592260225677933, -34.991021106555756 ], [ 150.592246898924174, -34.991073668298874 ], [ 150.592223993918225, -34.991161817546626 ], [ 150.59221331814615, -34.991202150251041 ], [ 150.592206182474087, -34.991228622774948 ], [ 150.59220054422039, -34.991258535276522 ], [ 150.592199415245062, -34.991264503146667 ], [ 150.592176165172845, -34.991378892755783 ], [ 150.592156909661583, -34.991467761660289 ], [ 150.592148035224909, -34.991512935842159 ], [ 150.592102142247541, -34.991720719195627 ], [ 150.592091421011247, -34.991764392733081 ], [ 150.592083379222856, -34.991808438562927 ], [ 150.592077529306778, -34.991839851408798 ], [ 150.592045939474417, -34.991991955271317 ], [ 150.592003768840385, -34.992178894709845 ], [ 150.591992970284565, -34.992236192427193 ], [ 150.591992504197009, -34.992239313083289 ], [ 150.591992087577665, -34.992241119475516 ], [ 150.591983985944154, -34.992288698772342 ], [ 150.591968781686944, -34.992373128955492 ], [ 150.591930130146807, -34.992556035598305 ], [ 150.591922043657348, -34.992590760218263 ], [ 150.591911725813418, -34.992650825963068 ], [ 150.591897619747215, -34.992728839622991 ], [ 150.591869442766694, -34.99286568524083 ], [ 150.59182024342428, -34.993087326910405 ], [ 150.591798814583711, -34.993179341087128 ], [ 150.591788689230953, -34.993220871894309 ], [ 150.59178161316791, -34.993260324032263 ], [ 150.591773250707917, -34.993305618308305 ], [ 150.591765343871373, -34.993346242995017 ], [ 150.59175647758866, -34.993390711438494 ], [ 150.591710583828586, -34.993596012784742 ], [ 150.591709786185675, -34.993599232329984 ], [ 150.591681475321877, -34.993735688487043 ], [ 150.591667303620881, -34.993801536356798 ], [ 150.591657782346687, -34.993844241132017 ], [ 150.591655859307139, -34.99385378919731 ], [ 150.59164550094934, -34.993909542365117 ], [ 150.591642188464874, -34.993927176985231 ], [ 150.591635472758469, -34.993961804380028 ], [ 150.591626667391779, -34.994006282129803 ], [ 150.591610734461767, -34.994078171840904 ], [ 150.591589215896164, -34.994191802335429 ], [ 150.591588891658404, -34.994193969344295 ], [ 150.591588409689194, -34.994196061104624 ], [ 150.591580800534246, -34.99423624004293 ], [ 150.591580374237566, -34.994238487961177 ], [ 150.591569366604489, -34.994294524813327 ], [ 150.591542300165713, -34.994427861288493 ], [ 150.591520469405339, -34.994528927182984 ], [ 150.59150480775719, -34.99461397741058 ], [ 150.591500193563917, -34.994638645597668 ], [ 150.591479266758881, -34.994742241820816 ], [ 150.591469763069767, -34.994786618246273 ], [ 150.591453423806769, -34.994859951224022 ], [ 150.591443551130624, -34.994902601217866 ], [ 150.591434576082804, -34.9949453853189 ], [ 150.591417389575867, -34.995023850667629 ], [ 150.591407279302842, -34.995068139320217 ], [ 150.59137713586, -34.995189603590042 ], [ 150.591376469699696, -34.995192746412556 ], [ 150.591375831117716, -34.995197190603882 ], [ 150.591342426830522, -34.99539759676783 ], [ 150.591293906050879, -34.99562198571563 ], [ 150.591279713409449, -34.995680451857758 ], [ 150.591265677716024, -34.995738944551391 ], [ 150.591231095859627, -34.99587397611748 ], [ 150.591204429627339, -34.995967950514029 ], [ 150.591198210895499, -34.995989013399559 ], [ 150.5911935049389, -34.996010340700302 ], [ 150.591189925932412, -34.996025475640586 ], [ 150.591185910248839, -34.996064434973675 ], [ 150.591133453682545, -34.996415632076726 ], [ 150.591079736839362, -34.996661202325818 ], [ 150.591068790483632, -34.996705371564879 ], [ 150.591042250592068, -34.996807423780751 ], [ 150.59102980567647, -34.996852224038541 ], [ 150.591028131502497, -34.996858135991573 ], [ 150.591026887889115, -34.99686427104308 ], [ 150.591019096541004, -34.996901900552544 ], [ 150.591006914984405, -34.996959499695159 ], [ 150.591006083703093, -34.996963714689265 ], [ 150.591000491130018, -34.996998275979635 ], [ 150.590984998941593, -34.997088229844849 ], [ 150.590977158465023, -34.99713115721346 ], [ 150.59097022089324, -34.997174189049744 ], [ 150.590955450895166, -34.997260470235759 ], [ 150.590936182866869, -34.997366809053929 ], [ 150.590934771873179, -34.997375102504726 ], [ 150.590932964490662, -34.997387200400375 ], [ 150.590932008229885, -34.997391343498855 ], [ 150.590917528168404, -34.997476438689979 ], [ 150.590913398769857, -34.997497898217283 ], [ 150.590905046640444, -34.997540749610614 ], [ 150.590902014255363, -34.997558234704321 ], [ 150.590899602591605, -34.997573156624021 ], [ 150.590898571936009, -34.997589736723711 ], [ 150.590880806738312, -34.997797206090468 ], [ 150.59083654850528, -34.998104015993945 ], [ 150.590834014862054, -34.998118127771789 ], [ 150.59083073390525, -34.998148608019001 ], [ 150.590830012934163, -34.998155261873542 ], [ 150.590809704338454, -34.998314738748711 ], [ 150.590800082253537, -34.998380829135044 ], [ 150.590797630554931, -34.998402269683133 ], [ 150.590747744154044, -34.99873043715418 ], [ 150.590732858418903, -34.99880536558333 ], [ 150.590726944548265, -34.998833876114155 ], [ 150.590722396171373, -34.998862557093922 ], [ 150.590713238609339, -34.998918069832413 ], [ 150.590690293958659, -34.999051949375442 ], [ 150.590680350423696, -34.999107850359465 ], [ 150.590661152612427, -34.999211987293855 ], [ 150.590638774584846, -34.999361166991903 ], [ 150.590635396718739, -34.999382619789877 ], [ 150.590642304001591, -34.999413399707478 ], [ 150.590656218270027, -34.99948429804008 ], [ 150.590775706905248, -34.999679431154952 ], [ 150.590943675850923, -35.000005160812158 ], [ 150.59108539658061, -35.000339232336003 ], [ 150.591200261107957, -35.000680214827739 ], [ 150.591287778375374, -35.001026649044469 ], [ 150.59134757193894, -35.00137705185891 ], [ 150.591379387455135, -35.001729922717296 ], [ 150.591383085960302, -35.002083748914046 ], [ 150.591358653389506, -35.002437017499489 ], [ 150.591306191851061, -35.002788214205296 ], [ 150.591305536702293, -35.002791053446359 ], [ 150.591305294380192, -35.002792666772415 ], [ 150.591301550806008, -35.002808881093443 ], [ 150.591300180754331, -35.002818054286465 ], [ 150.591295964096275, -35.002836316367159 ], [ 150.591294415547395, -35.002846682265712 ], [ 150.591293755436624, -35.002849541240479 ], [ 150.591293515541736, -35.00285114650147 ], [ 150.59121325158381, -35.003198768512107 ], [ 150.591105526667008, -35.003541326117592 ], [ 150.590970803072196, -35.003877353614968 ], [ 150.590809656299854, -35.004205410972467 ], [ 150.590622778096957, -35.004524092906387 ], [ 150.590410966396178, -35.004832035895276 ], [ 150.590175128552318, -35.005127920049766 ], [ 150.589916274459256, -35.005410479796254 ], [ 150.589635513294212, -35.005678502913831 ], [ 150.58933404657941, -35.005930843019989 ], [ 150.589316740927984, -35.005943547890986 ], [ 150.589222053868269, -35.006182003158877 ], [ 150.589190806003728, -35.006323415729405 ], [ 150.589184640925509, -35.006348125058643 ], [ 150.58916948619887, -35.006417252275078 ], [ 150.589121268216189, -35.006615836741297 ], [ 150.58909427025759, -35.006717115629336 ], [ 150.589053317292496, -35.006879823568816 ], [ 150.589040557388643, -35.006942083191618 ], [ 150.589029716374654, -35.006991824398483 ], [ 150.589018820445801, -35.007063141151512 ], [ 150.588995366712567, -35.007202070844947 ], [ 150.5889803057905, -35.007283515744163 ], [ 150.588978641091444, -35.00729465184876 ], [ 150.588976657770928, -35.007303243086845 ], [ 150.588958693662363, -35.007400389746898 ], [ 150.588929807694029, -35.007566818010574 ], [ 150.588920736957249, -35.007623989126373 ], [ 150.588903044264953, -35.007727671399685 ], [ 150.588885477847072, -35.007823841540642 ], [ 150.588884560222994, -35.007829981230422 ], [ 150.588883584795099, -35.007834208659212 ], [ 150.588813493686558, -35.008217927171948 ], [ 150.588807639649502, -35.008249347770885 ], [ 150.588779215795341, -35.008387250988861 ], [ 150.588769720318282, -35.008429960406168 ], [ 150.588761123891175, -35.008472797671267 ], [ 150.588725574707325, -35.008634586966728 ], [ 150.588718792781549, -35.008662978212257 ], [ 150.588713372427009, -35.008691566898413 ], [ 150.588713065212517, -35.008693186138458 ], [ 150.58863278323085, -35.009040805459293 ], [ 150.588611900499075, -35.009115003943911 ], [ 150.588604900577025, -35.009139099859773 ], [ 150.588599351480752, -35.009163450882873 ], [ 150.58856570947151, -35.009301162851017 ], [ 150.58854271188676, -35.009389356032571 ], [ 150.58852980933824, -35.009437749958316 ], [ 150.588518165026045, -35.009479711681038 ], [ 150.588510205279732, -35.009507873059071 ], [ 150.588505953072399, -35.009526153230162 ], [ 150.588485967024695, -35.009613871691009 ], [ 150.588476796077117, -35.009665666204263 ], [ 150.588475761216102, -35.009671095004208 ], [ 150.588474339756715, -35.009678532702075 ], [ 150.588459455036997, -35.00977557908638 ], [ 150.588440287710284, -35.009890594924819 ], [ 150.588416217983934, -35.010024350366514 ], [ 150.588408245740169, -35.010067447000672 ], [ 150.588385893803945, -35.010177627144358 ], [ 150.588374036650407, -35.010232574761716 ], [ 150.588347854108832, -35.010363535995886 ], [ 150.588326939275134, -35.010484356766732 ], [ 150.588313750212279, -35.010557007056754 ], [ 150.588300857495426, -35.010622252271361 ], [ 150.588291738154226, -35.010666684598206 ], [ 150.588259117904812, -35.010813286281476 ], [ 150.588248902171586, -35.010855875841223 ], [ 150.588239581883755, -35.010898604900376 ], [ 150.588220672814288, -35.010981564218184 ], [ 150.588174183484426, -35.011177095824721 ], [ 150.588098667928847, -35.01151184443907 ], [ 150.588014473453825, -35.011917587648277 ], [ 150.588002257600039, -35.011974618576261 ], [ 150.587941232415972, -35.012250835312223 ], [ 150.587911831705554, -35.012394354741637 ], [ 150.58788172962997, -35.012528885205342 ], [ 150.587865694030711, -35.012611797903418 ], [ 150.587829691996888, -35.012780658790525 ], [ 150.587823078849198, -35.012809023564124 ], [ 150.587818823453631, -35.012843512011642 ], [ 150.58780073943376, -35.01295899813995 ], [ 150.587857426741238, -35.01306892344595 ], [ 150.587999154059901, -35.013402998327017 ], [ 150.588114020590325, -35.01374398419545 ], [ 150.588201535319087, -35.014090419995881 ], [ 150.588261321786149, -35.014440823495185 ], [ 150.588293125704979, -35.014793693235752 ], [ 150.588296808081822, -35.015147519215674 ], [ 150.588272354999987, -35.015500785787275 ], [ 150.588219868628698, -35.015851979591702 ], [ 150.588218259056475, -35.015858951986381 ], [ 150.588217303130278, -35.015865345113603 ], [ 150.58821411444876, -35.015879148076763 ], [ 150.588212225472859, -35.01589178964975 ], [ 150.588209150921244, -35.015905101779531 ], [ 150.5882073220385, -35.015917338887114 ], [ 150.588206782275677, -35.015919673771798 ], [ 150.588206463188556, -35.015921807509692 ], [ 150.588126170170824, -35.016269425742621 ], [ 150.588018412100524, -35.016611978711097 ], [ 150.587883651400432, -35.016948000731979 ], [ 150.587722463729733, -35.017276051796927 ], [ 150.587535541010681, -35.017594726649115 ], [ 150.587323681366058, -35.017902661797287 ], [ 150.587087792329584, -35.018198538286526 ], [ 150.586828884093535, -35.018481087877078 ], [ 150.58658874331141, -35.018710278394046 ], [ 150.586585713988228, -35.018737581222489 ], [ 150.586582688400114, -35.018764123287653 ], [ 150.586572171569458, -35.018854005655506 ], [ 150.586554558070645, -35.018987208299798 ], [ 150.58654795587708, -35.019031973550618 ], [ 150.586516930939297, -35.019215862897127 ], [ 150.586436625673286, -35.019563479395089 ], [ 150.586425218291197, -35.019604591833051 ], [ 150.586422498189364, -35.019614218550245 ], [ 150.586414379221338, -35.019670166039553 ], [ 150.58639993674123, -35.019759531246208 ], [ 150.58637838398954, -35.019882125428765 ], [ 150.586341598146277, -35.020056865566993 ], [ 150.586331358606174, -35.020101150952009 ], [ 150.586331317035075, -35.020101334925279 ], [ 150.586314228026907, -35.020184885278745 ], [ 150.586301369756569, -35.020252266388873 ], [ 150.586300614812984, -35.020262773275377 ], [ 150.586285692070987, -35.020427566266079 ], [ 150.586233193924073, -35.020778758498238 ], [ 150.586152885539434, -35.021126374615477 ], [ 150.586097765355646, -35.021313041237349 ], [ 150.586085917251381, -35.021350269452945 ], [ 150.586075372684149, -35.021389041677928 ], [ 150.586074747329945, -35.021391339688769 ], [ 150.586006980668913, -35.021617139599748 ], [ 150.585978174756605, -35.021704961303101 ], [ 150.585943333595935, -35.021807180981298 ], [ 150.585927865413851, -35.021850906105207 ], [ 150.585922698600513, -35.021865436760109 ], [ 150.585916706312247, -35.021882101881971 ], [ 150.585896841065363, -35.021937024030905 ], [ 150.585884680728867, -35.021971150372636 ], [ 150.585861680886012, -35.022037675990326 ], [ 150.585845442209745, -35.022083861189174 ], [ 150.585836943097263, -35.022107440231636 ], [ 150.585830196958028, -35.022126001450253 ], [ 150.585825498333179, -35.022141862967032 ], [ 150.585819362874503, -35.022162686397827 ], [ 150.585813745896587, -35.022186932195126 ], [ 150.585770754664594, -35.022357514487169 ], [ 150.585700949869732, -35.022589508130039 ], [ 150.58568806805107, -35.022628597074743 ], [ 150.585677342685983, -35.022666349700636 ], [ 150.585668405514724, -35.022697925020388 ], [ 150.585667789427589, -35.022700428746859 ], [ 150.585661995692391, -35.022725502166324 ], [ 150.585649201445193, -35.022782065051118 ], [ 150.585600915815178, -35.022975769924976 ], [ 150.585569260552347, -35.023076377953238 ], [ 150.585606741425693, -35.023230838324054 ], [ 150.585658362894037, -35.023521696019309 ], [ 150.585663341274199, -35.023556306816204 ], [ 150.585671500531163, -35.02361585325999 ], [ 150.585703294456977, -35.023968722884895 ], [ 150.585704434522711, -35.023993558410268 ], [ 150.585704582624146, -35.023995192108984 ], [ 150.585704602945469, -35.023997220810365 ], [ 150.585705024095176, -35.024006373657315 ], [ 150.585708005941058, -35.024077900277703 ], [ 150.585711554536232, -35.024210330353874 ], [ 150.585712627361517, -35.024300447751536 ], [ 150.585712666991782, -35.024303831739445 ], [ 150.585713149993609, -35.024347241496244 ], [ 150.585713863778551, -35.024369431749264 ], [ 150.58571539117986, -35.024406059838427 ], [ 150.58571805729153, -35.024463881504808 ], [ 150.585722318020174, -35.024732776930946 ], [ 150.585721901988961, -35.024761709288001 ], [ 150.585722868122531, -35.02479063219765 ], [ 150.585723424852858, -35.025069955950968 ], [ 150.585722882550783, -35.025087236159074 ], [ 150.585719880651567, -35.025177361681273 ], [ 150.585715494885761, -35.025238943608997 ], [ 150.585712459720952, -35.02545287207856 ], [ 150.5857121759758, -35.025452869134789 ], [ 150.585712087605344, -35.02556032922643 ], [ 150.585710077151077, -35.025616564065793 ], [ 150.5857083039906, -35.025658697502742 ], [ 150.585708016976923, -35.025673594810037 ], [ 150.585707258568135, -35.025781516632684 ], [ 150.585706917047702, -35.025813614610868 ], [ 150.58570657563348, -35.025837550726479 ], [ 150.585707736075051, -35.025861469861717 ], [ 150.585711191655179, -35.025951648192596 ], [ 150.585714659990913, -35.02607477081569 ], [ 150.585715964992318, -35.026136131571491 ], [ 150.585716778763782, -35.026192770590796 ], [ 150.585717669732389, -35.02623754696544 ], [ 150.585718984729141, -35.026289962681751 ], [ 150.585720560011225, -35.026347984380919 ], [ 150.585721504672591, -35.026390116023762 ], [ 150.585722272468871, -35.026433528733293 ], [ 150.585723952570874, -35.026476923544337 ], [ 150.585724941590996, -35.026504732692523 ], [ 150.585726348711631, -35.026548131083864 ], [ 150.585728562002828, -35.02658953164984 ], [ 150.585731738599577, -35.02664795572462 ], [ 150.585733644149116, -35.026676087811758 ], [ 150.585737811258468, -35.026733847391057 ], [ 150.585743763376627, -35.026831175345585 ], [ 150.585747133253193, -35.026913538962695 ], [ 150.585748199734354, -35.026947283093392 ], [ 150.585748500817857, -35.027218745411439 ], [ 150.585724028977552, -35.027572010213575 ], [ 150.585722577255694, -35.027581720741352 ], [ 150.58577738787568, -35.027710906353022 ], [ 150.58580093216105, -35.027780795925672 ], [ 150.585835408569977, -35.027846052320562 ], [ 150.585879633859946, -35.027926371519676 ], [ 150.585926112707654, -35.028007537863687 ], [ 150.58600516183995, -35.028140460124135 ], [ 150.586064517695803, -35.028242980605455 ], [ 150.586122053914352, -35.028348426154778 ], [ 150.586303166488392, -35.028539802260049 ], [ 150.586426432676774, -35.028674325420091 ], [ 150.586447830364619, -35.028700188783738 ], [ 150.586447909860652, -35.028700280512247 ], [ 150.58661152399813, -35.028870649077199 ], [ 150.587481281392598, -35.029759724256095 ], [ 150.587606755771617, -35.029892140202058 ], [ 150.587609517809739, -35.029895150144782 ], [ 150.587775712652217, -35.0300672894383 ], [ 150.588034050271176, -35.030348825682616 ], [ 150.588099839568912, -35.030417581689072 ], [ 150.588218065780268, -35.030544979563679 ], [ 150.588318131637095, -35.030656187374731 ], [ 150.588344726583415, -35.030685956149441 ], [ 150.588451158125025, -35.030809541350024 ], [ 150.588578190245471, -35.030961515748913 ], [ 150.588686657593627, -35.031095508080092 ], [ 150.588747394942459, -35.031173015692069 ], [ 150.588774540916518, -35.031207949909984 ], [ 150.588821850631263, -35.03127028389099 ], [ 150.588877117114009, -35.031344214735242 ], [ 150.588983510134568, -35.03149173082079 ], [ 150.589042443980105, -35.031576478163011 ], [ 150.589107010716077, -35.031671535731249 ], [ 150.589114694029064, -35.031683151500701 ], [ 150.589168130283582, -35.031764186340617 ], [ 150.589235402660677, -35.031868924375139 ], [ 150.589286656216814, -35.031950883950692 ], [ 150.589366940169896, -35.032083711491467 ], [ 150.589439672848215, -35.032208305449693 ], [ 150.589477995479342, -35.032275119325476 ], [ 150.589511620992624, -35.03233577296885 ], [ 150.589580373985456, -35.032461843675087 ], [ 150.589644543568255, -35.032583483595531 ], [ 150.589687859757476, -35.032668429564502 ], [ 150.589742157281961, -35.032778274078709 ], [ 150.589783199115146, -35.032863979822395 ], [ 150.589799128621934, -35.032897574891884 ], [ 150.589839658495606, -35.032986199302975 ], [ 150.589886023571182, -35.033090340295999 ], [ 150.589987258732691, -35.033335789178736 ], [ 150.590019028040587, -35.033430073720389 ], [ 150.590027153014461, -35.033450617307743 ], [ 150.59004672143368, -35.033503016202921 ], [ 150.5900527376171, -35.033519422526666 ], [ 150.590058380215766, -35.033534219522792 ], [ 150.590060029592735, -35.033538550484742 ], [ 150.590072779135966, -35.033574073664433 ], [ 150.590095169815157, -35.033635127711193 ], [ 150.590106987883104, -35.033669379340957 ], [ 150.590119690862196, -35.033704772681112 ], [ 150.59014282280333, -35.033773241576341 ], [ 150.59015417324369, -35.033806138923389 ], [ 150.590159516583697, -35.033822655372525 ], [ 150.590164607616828, -35.03383772446368 ], [ 150.590174161084065, -35.03386792046868 ], [ 150.590197316021516, -35.033939489949255 ], [ 150.59021860203697, -35.034008382798902 ], [ 150.590219084984341, -35.034009925787537 ], [ 150.590219333646331, -35.034010751061857 ], [ 150.590233642738895, -35.034057064200354 ], [ 150.590249491914562, -35.034112139530173 ], [ 150.590254215218238, -35.034128945645605 ], [ 150.590258664920611, -35.034144021821589 ], [ 150.590259419348484, -35.034146583451246 ], [ 150.590268662032457, -35.034180347582563 ], [ 150.590287278498579, -35.03424658484569 ], [ 150.590296513734501, -35.034282095866196 ], [ 150.590306182040905, -35.034317415365905 ], [ 150.590323751742886, -35.034386829320667 ], [ 150.590332505464204, -35.034420488176124 ], [ 150.590336535987745, -35.034437336413703 ], [ 150.59034037571513, -35.034452508642367 ], [ 150.590347454260694, -35.034482975477658 ], [ 150.590364896268312, -35.034555880967581 ], [ 150.590380979849897, -35.034627273849161 ], [ 150.590391360734685, -35.034673336737491 ], [ 150.590397262706489, -35.034701696906097 ], [ 150.590415840941404, -35.034792416278378 ], [ 150.590438229677801, -35.034909567491802 ], [ 150.590454384317724, -35.035000599288594 ], [ 150.590462757615114, -35.035052774780006 ], [ 150.590466650315534, -35.03507558616996 ], [ 150.590470129433953, -35.035098709362394 ], [ 150.590477973635615, -35.035147592105844 ], [ 150.590488215797365, -35.035218943730598 ], [ 150.590493054673487, -35.035251111293235 ], [ 150.590493182522266, -35.035252094627339 ], [ 150.590495190802898, -35.035267530649953 ], [ 150.590497645609588, -35.035284630634159 ], [ 150.59050557139841, -35.03534252874465 ], [ 150.590511029172376, -35.035389299715135 ], [ 150.590519454808174, -35.035461488763602 ], [ 150.590527092957359, -35.035535525492911 ], [ 150.590530483922805, -35.035566390515434 ], [ 150.590531868656257, -35.035581824064181 ], [ 150.590533638888786, -35.03559898436589 ], [ 150.590536491312463, -35.035633333667626 ], [ 150.590542834070277, -35.035704009237008 ], [ 150.590545370746014, -35.035740265173345 ], [ 150.590548378635845, -35.03577648630003 ], [ 150.590552630520278, -35.035844016581684 ], [ 150.5905550645669, -35.035878803794802 ], [ 150.590555207023186, -35.035881640830894 ], [ 150.590555974573363, -35.035897116204339 ], [ 150.590557056017047, -35.035914293469851 ], [ 150.590560248141657, -35.035970700252591 ], [ 150.590562001186498, -35.036018636223794 ], [ 150.590562040014959, -35.036019515923542 ], [ 150.590562093780136, -35.036021155854975 ], [ 150.590564686549357, -35.036092036368153 ], [ 150.590566385814441, -35.036166209307247 ], [ 150.590567303815988, -35.036197236135749 ], [ 150.590567453381993, -35.036212780362028 ], [ 150.590567848468254, -35.036230003486665 ], [ 150.590567948624198, -35.036264321540244 ], [ 150.590568628229931, -35.03633522263484 ], [ 150.590568262791464, -35.036372257467043 ], [ 150.590568366660989, -35.036407904352934 ], [ 150.590567284392392, -35.036471211657613 ], [ 150.590566916186134, -35.036508489829608 ], [ 150.590566777298562, -35.036513144037514 ], [ 150.590566300263305, -35.036528826358136 ], [ 150.590566008709601, -35.036545880787585 ], [ 150.590564740841273, -35.036600468139859 ], [ 150.590562649481825, -35.03664883615059 ], [ 150.590562581059061, -35.036651091157601 ], [ 150.590562378962574, -35.036655098660717 ], [ 150.590559419154118, -35.036723556588953 ], [ 150.590555187515861, -35.03679766396781 ], [ 150.590553615710888, -35.036828827026341 ], [ 150.590552522476912, -35.036844330332066 ], [ 150.590551548841631, -35.036861396449588 ], [ 150.590548907414046, -35.036895615856501 ], [ 150.590543905284761, -35.036966587053023 ], [ 150.590540544493251, -35.03700399056325 ], [ 150.590537844386034, -35.037038975949706 ], [ 150.590532047527063, -35.037098568390157 ], [ 150.590528553051456, -35.037137462970108 ], [ 150.590527842504741, -35.03714392948244 ], [ 150.590526133096461, -35.037159364653505 ], [ 150.590524463930393, -35.03717652692908 ], [ 150.59051903253129, -35.037229124050569 ], [ 150.590512994361688, -35.037278049168414 ], [ 150.590512628899887, -35.037281349381139 ], [ 150.590512003247028, -35.037286082260344 ], [ 150.590503672609998, -35.037353575271517 ], [ 150.590498814284075, -35.037388862132175 ], [ 150.590495863471205, -35.037431486053229 ], [ 150.590445062799006, -35.037773712952763 ], [ 150.59043150065969, -35.037845868948132 ], [ 150.590429805849681, -35.037854835495402 ], [ 150.590410496687042, -35.037950775121146 ], [ 150.590391213104567, -35.038041513799051 ], [ 150.5903648393097, -35.038158067455726 ], [ 150.590343141992378, -35.038248437237556 ], [ 150.590313644504732, -35.038364573629572 ], [ 150.590289541331117, -35.038454529595349 ], [ 150.590284409712069, -35.038473517938023 ], [ 150.590256990533248, -35.038569978776025 ], [ 150.590230495928353, -35.038659477037037 ], [ 150.590194836656394, -35.038774437129028 ], [ 150.59016596053155, -35.038863438213902 ], [ 150.590127279087881, -35.038977619753972 ], [ 150.590096038086415, -35.039066078916051 ], [ 150.590090014841877, -35.039083030247554 ], [ 150.590054326581679, -35.039179525913653 ], [ 150.59002073622554, -35.039267399285194 ], [ 150.589975964094322, -35.039380181441182 ], [ 150.589940036513696, -35.039467428692582 ], [ 150.589892289145354, -35.039579325035952 ], [ 150.589854044245101, -35.039665902386083 ], [ 150.589847455782973, -35.039680749268314 ], [ 150.589803302797463, -35.03977695670757 ], [ 150.589762757117285, -35.039862823012534 ], [ 150.589709140745413, -35.039972784362014 ], [ 150.58966631734549, -35.040057900410261 ], [ 150.589609683786165, -35.040167058928724 ], [ 150.589564599313263, -35.040251379972176 ], [ 150.589557771692881, -35.04026410454216 ], [ 150.589505168295062, -35.040359307316869 ], [ 150.589457847948808, -35.040442795989009 ], [ 150.589379451307281, -35.040576303908658 ], [ 150.589304323055501, -35.04069988672083 ], [ 150.589248349128042, -35.040789850661135 ], [ 150.589204501962939, -35.040857556924237 ], [ 150.589124475047868, -35.040979041870919 ], [ 150.58903637973691, -35.041108502051877 ], [ 150.588980344601055, -35.041188260062924 ], [ 150.588906862501091, -35.041290255515882 ], [ 150.588848715627563, -35.041368983465873 ], [ 150.588842220961197, -35.041377757183419 ], [ 150.588751111980542, -35.041497062615939 ], [ 150.588656874393791, -35.041616967432844 ], [ 150.588557009467593, -35.041740292196252 ], [ 150.588496821059124, -35.041812456368454 ], [ 150.588451838138582, -35.041865700994421 ], [ 150.588416041732955, -35.041907121705336 ], [ 150.588350726126436, -35.041981949520746 ], [ 150.588243639911695, -35.042101148617235 ], [ 150.588141962649303, -35.042211140371229 ], [ 150.588025862316414, -35.042333068990764 ], [ 150.588008219881317, -35.042350982617819 ], [ 150.587902198629791, -35.042458161721179 ], [ 150.587792368953444, -35.042566281814494 ], [ 150.587327914487162, -35.043011582819915 ], [ 150.587174482425496, -35.043153560921127 ], [ 150.587143991176163, -35.043179068685987 ], [ 150.587143947313024, -35.043179106576112 ], [ 150.587124720146164, -35.043197296831309 ], [ 150.586835064064189, -35.043467883479344 ], [ 150.586807083251472, -35.043493856688514 ], [ 150.586806896312766, -35.043494026049103 ], [ 150.58600463729627, -35.044233833084753 ], [ 150.585985885515868, -35.044251049114159 ], [ 150.585985408972334, -35.044251486752572 ], [ 150.585967845873853, -35.044267680746685 ], [ 150.585930923317477, -35.044301439245515 ], [ 150.585912611619648, -35.044318040211984 ], [ 150.585802232564959, -35.044418952854308 ], [ 150.58576909606532, -35.044449019466988 ], [ 150.585685214106462, -35.044524552413108 ], [ 150.585532769855632, -35.044670087998888 ], [ 150.585470185596961, -35.044728969359149 ], [ 150.585252045027772, -35.044931231625554 ], [ 150.585170085199422, -35.045005817169354 ], [ 150.585163797045368, -35.045011425241398 ], [ 150.584977911004955, -35.045176987145737 ], [ 150.58468256639199, -35.045423698741658 ], [ 150.584361510759834, -35.045659253793239 ], [ 150.584022408139219, -35.045877034819043 ], [ 150.583666708891542, -35.046076109614539 ], [ 150.583295938928416, -35.046255625017608 ], [ 150.582911684212405, -35.046414812011371 ], [ 150.582515591768413, -35.046552988451332 ], [ 150.582109356373564, -35.04666956421142 ], [ 150.581694718440048, -35.046764038439434 ], [ 150.581273455005658, -35.046836007492523 ], [ 150.580847368851465, -35.046885162017233 ], [ 150.580418286117407, -35.046911293213256 ], [ 150.579988043308106, -35.046914287166167 ] ] ] ] } }
]
}
